{
"type": "FeatureCollection",
"name": "geo_29_訪問リハビリテーション",
"crs": { "type": "name", "properties": { "name": "urn:ogc:def:crs:OGC:1.3:CRS84" } },
"features": [
{ "type": "Feature", "properties": { "内容": "医療法人岡谷会新大宮診療所【訪問リハビリテーション】奈良市芝辻町4-7-2", "url": "https://www.kaigokensaku.mhlw.go.jp/29/index.php?action_kouhyou_detail_004_kani=true&JigyosyoCd=2910102884-00&ServiceCd=140&Type=search", "url2": "http://www.okatani.or.jp/index.html" }, "geometry": { "type": "Point", "coordinates": [ 135.809921900000063, 34.6861646 ] } },
{ "type": "Feature", "properties": { "内容": "介護老人保健施設　秋篠【訪問リハビリテーション】奈良市秋篠町1432-1", "url": "https://www.kaigokensaku.mhlw.go.jp/29/index.php?action_kouhyou_detail_004_kani=true&JigyosyoCd=2950180030-00&ServiceCd=140&Type=search", "url2": "http://taizankai.org" }, "geometry": { "type": "Point", "coordinates": [ 135.778557500000034, 34.7074368 ] } },
{ "type": "Feature", "properties": { "内容": "介護老人保健施設アンジェロ【訪問リハビリテーション】奈良市帝塚山2丁目21番21号", "url": "https://www.kaigokensaku.mhlw.go.jp/29/index.php?action_kouhyou_detail_004_kani=true&JigyosyoCd=2950180022-00&ServiceCd=140&Type=search", "url2": "https://asukakai.or.jp" }, "geometry": { "type": "Point", "coordinates": [ 135.730900799999972, 34.6854938 ] } },
{ "type": "Feature", "properties": { "内容": "ならまちリハビリテーション病院【訪問リハビリテーション】奈良県奈良市杉ヶ町57番1", "url": "https://www.kaigokensaku.mhlw.go.jp/29/index.php?action_kouhyou_detail_004_kani=true&JigyosyoCd=2910111646-00&ServiceCd=140&Type=search", "url2": "https://www.naramachi-rh.jp/" }, "geometry": { "type": "Point", "coordinates": [ 135.822908013491826, 34.678674175440648 ] } },
{ "type": "Feature", "properties": { "内容": "介護老人保健施設　サンライフ奈良【訪問リハビリテーション】奈良県奈良市南肘塚町205-1", "url": "https://www.kaigokensaku.mhlw.go.jp/29/index.php?action_kouhyou_detail_004_kani=true&JigyosyoCd=2950180089-00&ServiceCd=140&Type=search", "url2": "//www.seiwakai-group.or.jp/" }, "geometry": { "type": "Point", "coordinates": [ 135.8327731, 34.6675279 ] } },
{ "type": "Feature", "properties": { "内容": "社会福祉法人　恩賜財団　済生会奈良病院【訪問リハビリテーション】奈良県奈良市八条四丁目643番地", "url": "https://www.kaigokensaku.mhlw.go.jp/29/index.php?action_kouhyou_detail_004_kani=true&JigyosyoCd=2910102017-00&ServiceCd=140&Type=search", "url2": "http://www.saiseikai-nara-hp.jp/" }, "geometry": { "type": "Point", "coordinates": [ 135.8050649, 34.6689693 ] } },
{ "type": "Feature", "properties": { "内容": "谷掛整形外科診療所【訪問リハビリテーション】神殿町644-1", "url": "https://www.kaigokensaku.mhlw.go.jp/29/index.php?action_kouhyou_detail_004_kani=true&JigyosyoCd=2910101910-00&ServiceCd=140&Type=search", "url2": "http://tanikake.com" }, "geometry": { "type": "Point", "coordinates": [ 135.819235, 34.6571794 ] } },
{ "type": "Feature", "properties": { "内容": "こうあん診療所【訪問リハビリテーション】奈良市三条大路１－１－９０　奈良セントラルビル１階", "url": "https://www.kaigokensaku.mhlw.go.jp/29/index.php?action_kouhyou_detail_004_kani=true&JigyosyoCd=2910110390-00&ServiceCd=140&Type=search", "url2": "https://www.kouan-clinic.or.jp" }, "geometry": { "type": "Point", "coordinates": [ 135.801675599999953, 34.6828844 ] } },
{ "type": "Feature", "properties": { "内容": "医療法人せいわ会　登美ヶ丘リハビリテーション病院【訪問リハビリテーション】奈良県奈良市中登美ヶ丘６丁目１２番２号", "url": "https://www.kaigokensaku.mhlw.go.jp/29/index.php?action_kouhyou_detail_004_kani=true&JigyosyoCd=2910111216-00&ServiceCd=140&Type=search", "url2": "https://www.tomigaoka-rh.jp" }, "geometry": { "type": "Point", "coordinates": [ 135.748234599999932, 34.7251596 ] } },
{ "type": "Feature", "properties": { "内容": "医療法人社団ことのは会　ことのは内科クリニック【訪問リハビリテーション】奈良県奈良市六条２丁目１８番３号奈良六条医療モール１号", "url": "https://www.kaigokensaku.mhlw.go.jp/29/index.php?action_kouhyou_detail_004_kani=true&JigyosyoCd=2910111810-00&ServiceCd=140&Type=search", "url2": "https://kotonoha.nara.jp/" }, "geometry": { "type": "Point", "coordinates": [ 135.7735367, 34.6711034 ] } },
{ "type": "Feature", "properties": { "内容": "奈良セントラル病院【訪問リハビリテーション】奈良県奈良市石木町800", "url": "https://www.kaigokensaku.mhlw.go.jp/29/index.php?action_kouhyou_detail_004_kani=true&JigyosyoCd=2910111240-00&ServiceCd=140&Type=search", "url2": "http://nrh.elysion-gr.com/" }, "geometry": { "type": "Point", "coordinates": [ 135.757709699999964, 34.6650411 ] } },
{ "type": "Feature", "properties": { "内容": "医療法人　拓生会　奈良西部病院【訪問リハビリテーション】奈良県奈良市三碓町2143-1", "url": "https://www.kaigokensaku.mhlw.go.jp/29/index.php?action_kouhyou_detail_004_kani=true&JigyosyoCd=2910110630-00&ServiceCd=140&Type=search", "url2": "https://naraseibu-hp.com" }, "geometry": { "type": "Point", "coordinates": [ 135.721320630688496, 34.687518843959687 ] } },
{ "type": "Feature", "properties": { "内容": "楠原クリニック【訪問リハビリテーション】奈良市小川町4番地", "url": "https://www.kaigokensaku.mhlw.go.jp/29/index.php?action_kouhyou_detail_004_kani=true&JigyosyoCd=2910110614-00&ServiceCd=140&Type=search", "url2": "https://kusuhara.com/" }, "geometry": { "type": "Point", "coordinates": [ 135.8263748, 34.6805205 ] } },
{ "type": "Feature", "properties": { "内容": "介護老人保健施設　アップル学園前【訪問リハビリテーション】奈良市中登美ヶ丘4丁目3番", "url": "https://www.kaigokensaku.mhlw.go.jp/29/index.php?action_kouhyou_detail_004_kani=true&JigyosyoCd=2950180139-00&ServiceCd=140&Type=search", "url2": "http://www.apple-g.or.jp" }, "geometry": { "type": "Point", "coordinates": [ 135.744632300000035, 34.7216488 ] } },
{ "type": "Feature", "properties": { "内容": "一般財団法人　沢井病院【訪問リハビリテーション】奈良県奈良市船橋町８番地", "url": "https://www.kaigokensaku.mhlw.go.jp/29/index.php?action_kouhyou_detail_004_kani=true&JigyosyoCd=2910101225-00&ServiceCd=140&Type=search", "url2": "http://sawai.or.jp" }, "geometry": { "type": "Point", "coordinates": [ 135.821635037434334, 34.688463689454565 ] } },
{ "type": "Feature", "properties": { "内容": "とみお診療所訪問リハステーション【訪問リハビリテーション】三碓２丁目１－６", "url": "https://www.kaigokensaku.mhlw.go.jp/29/index.php?action_kouhyou_detail_004_kani=true&JigyosyoCd=2910102959-00&ServiceCd=140&Type=search", "url2": "http://www.kenseikaiーnara.jp/" }, "geometry": { "type": "Point", "coordinates": [ 135.736361399999964, 34.69111 ] } },
{ "type": "Feature", "properties": { "内容": "社会医療法人健生会　おかたに病院【訪問リハビリテーション】南京終町１丁目２５－１", "url": "https://www.kaigokensaku.mhlw.go.jp/29/index.php?action_kouhyou_detail_004_kani=true&JigyosyoCd=2910102983-00&ServiceCd=140&Type=search", "url2": "https://okatani.or.jp/" }, "geometry": { "type": "Point", "coordinates": [ 135.825440399999934, 34.6711693 ] } },
{ "type": "Feature", "properties": { "内容": "社会医療法人松本快生会介護老人保健施設大和田の里【訪問リハビリテーション】奈良市丸山二丁目1220-163", "url": "https://www.kaigokensaku.mhlw.go.jp/29/index.php?action_kouhyou_detail_004_kani=true&JigyosyoCd=2950180006-00&ServiceCd=140&Type=search", "url2": "http://oowada.m-kaiseikai.jp/" }, "geometry": { "type": "Point", "coordinates": [ 135.749907500000063, 34.666974 ] } },
{ "type": "Feature", "properties": { "内容": "社会医療法人松本快生会　西奈良中央病院【訪問リハビリテーション】奈良県奈良市鶴舞西町１番15号", "url": "https://www.kaigokensaku.mhlw.go.jp/29/index.php?action_kouhyou_detail_004_kani=true&JigyosyoCd=2910111125-00&ServiceCd=140&Type=search", "url2": "http://www.nishinarachuo.or.jp/" }, "geometry": { "type": "Point", "coordinates": [ 135.7498213, 34.7039504 ] } },
{ "type": "Feature", "properties": { "内容": "あきしの整形外科クリニック【訪問リハビリテーション】奈良県奈良市秋篠町1567", "url": "https://www.kaigokensaku.mhlw.go.jp/29/index.php?action_kouhyou_detail_004_kani=true&JigyosyoCd=2910111794-00&ServiceCd=140&Type=search", "url2": "https://fukujukai.or.jp/seikei/" }, "geometry": { "type": "Point", "coordinates": [ 135.778808827508556, 34.712282925723841 ] } },
{ "type": "Feature", "properties": { "内容": "きよ女性クリニック【訪問リハビリテーション】奈良県奈良市石木町50番地の1きよ女性クリニック", "url": "https://www.kaigokensaku.mhlw.go.jp/29/index.php?action_kouhyou_detail_004_kani=true&JigyosyoCd=2910108295-00&ServiceCd=140&Type=search", "url2": "http://kiyo-clinic.com/" }, "geometry": { "type": "Point", "coordinates": [ 135.758859499999971, 34.671362624303725 ] } },
{ "type": "Feature", "properties": { "内容": "喜多野診療所【訪問リハビリテーション】奈良県奈良市中筋町15", "url": "https://www.kaigokensaku.mhlw.go.jp/29/index.php?action_kouhyou_detail_004_kani=true&JigyosyoCd=2910109129-00&ServiceCd=140&Type=search", "url2": null }, "geometry": { "type": "Point", "coordinates": [ 135.828031399999986, 34.6851177 ] } },
{ "type": "Feature", "properties": { "内容": "医療法人　飯田医院【訪問リハビリテーション】北市町36", "url": "https://www.kaigokensaku.mhlw.go.jp/29/index.php?action_kouhyou_detail_004_kani=true&JigyosyoCd=2910102058-00&ServiceCd=140&Type=search", "url2": "https://www.iidasc.com/" }, "geometry": { "type": "Point", "coordinates": [ 135.823440099999971, 34.6880311 ] } },
{ "type": "Feature", "properties": { "内容": "奈良東九条病院【訪問リハビリテーション】奈良市東九条町752", "url": "https://www.kaigokensaku.mhlw.go.jp/29/index.php?action_kouhyou_detail_004_kani=true&JigyosyoCd=2910102876-00&ServiceCd=140&Type=search", "url2": "http://www.tokujyo.com/" }, "geometry": { "type": "Point", "coordinates": [ 135.81882920000001, 34.6623235 ] } },
{ "type": "Feature", "properties": { "内容": "いぬいクリニック【訪問リハビリテーション】奈良県奈良市疋田町2丁目1番5号", "url": "https://www.kaigokensaku.mhlw.go.jp/29/index.php?action_kouhyou_detail_004_kani=true&JigyosyoCd=2910109467-00&ServiceCd=140&Type=search", "url2": "https://inui-urosurgery-clinic.jp" }, "geometry": { "type": "Point", "coordinates": [ 135.767828900000012, 34.6908629 ] } },
{ "type": "Feature", "properties": { "内容": "介護老人保健施設光陽【訪問リハビリテーション】奈良県大和高田市根成柿321-1", "url": "https://www.kaigokensaku.mhlw.go.jp/29/index.php?action_kouhyou_detail_004_kani=true&JigyosyoCd=2950280004-00&ServiceCd=140&Type=search", "url2": "https://nishiikai.com/" }, "geometry": { "type": "Point", "coordinates": [ 135.765154, 34.4859116 ] } },
{ "type": "Feature", "properties": { "内容": "日の出診療所【訪問リハビリテーション】11-6", "url": "https://www.kaigokensaku.mhlw.go.jp/29/index.php?action_kouhyou_detail_004_kani=true&JigyosyoCd=2910801352-00&ServiceCd=140&Type=search", "url2": "https://kenseikai-nara.or.jp/hinode/" }, "geometry": { "type": "Point", "coordinates": [ 135.726042, 34.513652 ] } },
{ "type": "Feature", "properties": { "内容": "土庫病院【訪問リハビリテーション】奈良県大和高田市日之出町12番3号", "url": "https://www.kaigokensaku.mhlw.go.jp/29/index.php?action_kouhyou_detail_004_kani=true&JigyosyoCd=2910801139-00&ServiceCd=140&Type=search", "url2": "kenseikai-nara.or.jp" }, "geometry": { "type": "Point", "coordinates": [ 135.748322699999989, 34.522203 ] } },
{ "type": "Feature", "properties": { "内容": "介護老人保健施設ふれあい【訪問リハビリテーション】奈良県大和高田市日之出町13-15", "url": "https://www.kaigokensaku.mhlw.go.jp/29/index.php?action_kouhyou_detail_004_kani=true&JigyosyoCd=2950880175-00&ServiceCd=140&Type=search", "url2": "https://kenseikai-nara.or.jp/fureai" }, "geometry": { "type": "Point", "coordinates": [ 135.748853618385283, 34.522027986657136 ] } },
{ "type": "Feature", "properties": { "内容": "医療法人芳愛会　原医院【訪問リハビリテーション】横田町708番地の3", "url": "https://www.kaigokensaku.mhlw.go.jp/29/index.php?action_kouhyou_detail_004_kani=true&JigyosyoCd=2910201520-00&ServiceCd=140&Type=search", "url2": "http://www.drh-cl.com/" }, "geometry": { "type": "Point", "coordinates": [ 135.802204135581974, 34.618608431063755 ] } },
{ "type": "Feature", "properties": { "内容": "医療法人厚生会奈良厚生会病院【訪問リハビリテーション】奈良県大和郡山市椎木町769番地の3", "url": "https://www.kaigokensaku.mhlw.go.jp/29/index.php?action_kouhyou_detail_004_kani=true&JigyosyoCd=2910201181-00&ServiceCd=140&Type=search", "url2": "https://www.nara-koseikai.or.jp" }, "geometry": { "type": "Point", "coordinates": [ 135.7689464, 34.6082274 ] } },
{ "type": "Feature", "properties": { "内容": "介護老人保健施設ピュアネス藍【訪問リハビリテーション】奈良県大和郡山市本庄町1番地の５", "url": "https://www.kaigokensaku.mhlw.go.jp/29/index.php?action_kouhyou_detail_004_kani=true&JigyosyoCd=2950280111-00&ServiceCd=140&Type=search", "url2": "http://www.seiran.or.jp/pureness/index.html" }, "geometry": { "type": "Point", "coordinates": [ 135.785440030671111, 34.637393494152995 ] } },
{ "type": "Feature", "properties": { "内容": "医療法人藤和会　藤村病院【訪問リハビリテーション】奈良県大和郡山市北郡山町104-3", "url": "https://www.kaigokensaku.mhlw.go.jp/29/index.php?action_kouhyou_detail_004_kani=true&JigyosyoCd=2910201322-00&ServiceCd=140&Type=search", "url2": "www.touwakai.or.jp" }, "geometry": { "type": "Point", "coordinates": [ 135.7840969, 34.6555038 ] } },
{ "type": "Feature", "properties": { "内容": "介護老人保健施設　夢眠やまざくら【訪問リハビリテーション】奈良県大和郡山市矢田町686番地4", "url": "https://www.kaigokensaku.mhlw.go.jp/29/index.php?action_kouhyou_detail_004_kani=true&JigyosyoCd=2950380028-00&ServiceCd=140&Type=search", "url2": "https://meijyukai.net/" }, "geometry": { "type": "Point", "coordinates": [ 135.740254, 34.6533296 ] } },
{ "type": "Feature", "properties": { "内容": "訪問リハビリテーション　ウェルケア悠【訪問リハビリテーション】奈良県大和郡山市田中町728介護老人保健施設　ウェルケア悠", "url": "https://www.kaigokensaku.mhlw.go.jp/29/index.php?action_kouhyou_detail_004_kani=true&JigyosyoCd=2970301517-00&ServiceCd=140&Type=search", "url2": "www.yuuakai.com" }, "geometry": { "type": "Point", "coordinates": [ 135.768367600000033, 34.6480374 ] } },
{ "type": "Feature", "properties": { "内容": "社会医療法人　田北会　田北病院【訪問リハビリテーション】奈良県大和郡山市城南町2番13号", "url": "https://www.kaigokensaku.mhlw.go.jp/29/index.php?action_kouhyou_detail_004_kani=true&JigyosyoCd=2910201058-00&ServiceCd=140&Type=search", "url2": "http://www.takitakai.or.jp" }, "geometry": { "type": "Point", "coordinates": [ 135.775892, 34.6461294 ] } },
{ "type": "Feature", "properties": { "内容": "社会医療法人　高清会　高井病院【訪問リハビリテーション】奈良県天理市蔵之庄町470-8", "url": "https://www.kaigokensaku.mhlw.go.jp/29/index.php?action_kouhyou_detail_004_kani=true&JigyosyoCd=2910901145-00&ServiceCd=140&Type=search", "url2": "https:/www.takai-hp.com" }, "geometry": { "type": "Point", "coordinates": [ 135.827750899999984, 34.634924699999978 ] } },
{ "type": "Feature", "properties": { "内容": "医療法人健和会　奈良東病院【訪問リハビリテーション】奈良県天理市中之庄町４７０", "url": "https://www.kaigokensaku.mhlw.go.jp/29/index.php?action_kouhyou_detail_004_kani=true&JigyosyoCd=2910901186-00&ServiceCd=140&Type=search", "url2": "https://www.fureai-net.com/" }, "geometry": { "type": "Point", "coordinates": [ 135.844737808598296, 34.637350966261643 ] } },
{ "type": "Feature", "properties": { "内容": "平尾病院【訪問リハビリテーション】橿原市兵部町6-28", "url": "https://www.kaigokensaku.mhlw.go.jp/29/index.php?action_kouhyou_detail_004_kani=true&JigyosyoCd=2911201370-00&ServiceCd=140&Type=search", "url2": "http://www.hiraohos.jp/" }, "geometry": { "type": "Point", "coordinates": [ 135.79241490000004, 34.5054483 ] } },
{ "type": "Feature", "properties": { "内容": "老人保健施設　リンク橿原【訪問リハビリテーション】奈良県橿原市雲梯町28番地", "url": "https://www.kaigokensaku.mhlw.go.jp/29/index.php?action_kouhyou_detail_004_kani=true&JigyosyoCd=2951280201-00&ServiceCd=140&Type=search", "url2": "http://kanahashien.iinaa.net/" }, "geometry": { "type": "Point", "coordinates": [ 135.7670561, 34.5027235 ] } },
{ "type": "Feature", "properties": { "内容": "橿原リハビリテーション病院【訪問リハビリテーション】奈良県橿原市田中町104-1", "url": "https://www.kaigokensaku.mhlw.go.jp/29/index.php?action_kouhyou_detail_004_kani=true&JigyosyoCd=2911201594-00&ServiceCd=140&Type=search", "url2": "http://www.kashihara-reha.com/" }, "geometry": { "type": "Point", "coordinates": [ 135.803841899999952, 34.4886057 ] } },
{ "type": "Feature", "properties": { "内容": "介護老人保健施設大和三山【訪問リハビリテーション】奈良県橿原市膳夫町477-17", "url": "https://www.kaigokensaku.mhlw.go.jp/29/index.php?action_kouhyou_detail_004_kani=true&JigyosyoCd=2950580056-00&ServiceCd=140&Type=search", "url2": "http://yushinkai-nara.com/" }, "geometry": { "type": "Point", "coordinates": [ 135.8223401, 34.5080449 ] } },
{ "type": "Feature", "properties": { "内容": "平成記念病院訪問リハビリテーション【訪問リハビリテーション】奈良県橿原市四条町827番地", "url": "https://www.kaigokensaku.mhlw.go.jp/29/index.php?action_kouhyou_detail_004_kani=true&JigyosyoCd=2911201339-00&ServiceCd=140&Type=search", "url2": "http://www.heisei-h.or.jp/visit-reha.html" }, "geometry": { "type": "Point", "coordinates": [ 135.790498399999933, 34.5043428 ] } },
{ "type": "Feature", "properties": { "内容": "平成まほろば病院訪問リハビリテーション【訪問リハビリテーション】奈良県橿原市四分町82-1", "url": "https://www.kaigokensaku.mhlw.go.jp/29/index.php?action_kouhyou_detail_004_kani=true&JigyosyoCd=2911201800-00&ServiceCd=140&Type=search", "url2": "http://www.heisei-h.or.jp/mahoroba/" }, "geometry": { "type": "Point", "coordinates": [ 135.798281200000019, 34.4966051 ] } },
{ "type": "Feature", "properties": { "内容": "介護老人保健施設　まきむく草庵【訪問リハビリテーション】奈良県桜井市草川58番地", "url": "https://www.kaigokensaku.mhlw.go.jp/29/index.php?action_kouhyou_detail_004_kani=true&JigyosyoCd=2950680013-00&ServiceCd=140&Type=search", "url2": "https://www.yamanobe.or.jp/makimuku-souan" }, "geometry": { "type": "Point", "coordinates": [ 135.8382408, 34.5494905 ] } },
{ "type": "Feature", "properties": { "内容": "介護老人保健施設やまのべグリーンヒルズ【訪問リハビリテーション】奈良県桜井市大豆越１０４－１", "url": "https://www.kaigokensaku.mhlw.go.jp/29/index.php?action_kouhyou_detail_004_kani=true&JigyosyoCd=2950480091-00&ServiceCd=140&Type=search", "url2": "https//www.yamanobe.or.jp" }, "geometry": { "type": "Point", "coordinates": [ 135.8369841, 34.5490406 ] } },
{ "type": "Feature", "properties": { "内容": "社会医療法人健生会　大福診療所【訪問リハビリテーション】桜井市大福240-1", "url": "https://www.kaigokensaku.mhlw.go.jp/29/index.php?action_kouhyou_detail_004_kani=true&JigyosyoCd=2910401245-00&ServiceCd=140&Type=search", "url2": "http://www.kenseikai-nara.jp/" }, "geometry": { "type": "Point", "coordinates": [ 135.829205799999954, 34.512415 ] } },
{ "type": "Feature", "properties": { "内容": "介護老人保健施設シルバーケアまほろば【訪問リハビリテーション】奈良県桜井市阿部323", "url": "https://www.kaigokensaku.mhlw.go.jp/29/index.php?action_kouhyou_detail_004_kani=true&JigyosyoCd=2950480067-00&ServiceCd=140&Type=search", "url2": "https://sc-mahoroba.jp/" }, "geometry": { "type": "Point", "coordinates": [ 135.839140515205372, 34.507735247353793 ] } },
{ "type": "Feature", "properties": { "内容": "医療法人医眞会　植田医院【訪問リハビリテーション】奈良県桜井市三輪496番地の1", "url": "https://www.kaigokensaku.mhlw.go.jp/29/index.php?action_kouhyou_detail_004_kani=true&JigyosyoCd=2910401336-00&ServiceCd=140&Type=search", "url2": "http://www.i-isinkai.com" }, "geometry": { "type": "Point", "coordinates": [ 135.8471098, 34.5259578 ] } },
{ "type": "Feature", "properties": { "内容": "老人保健施設　ルポゼまきの【訪問リハビリテーション】奈良県五條市大沢町9-8", "url": "https://www.kaigokensaku.mhlw.go.jp/29/index.php?action_kouhyou_detail_004_kani=true&JigyosyoCd=2951480157-00&ServiceCd=140&Type=search", "url2": "http://www.seiwakai-gojo.or.jp/" }, "geometry": { "type": "Point", "coordinates": [ 135.6681209, 34.360476 ] } },
{ "type": "Feature", "properties": { "内容": "老人保健施設鴻池荘訪問リハビリテーション【訪問リハビリテーション】奈良県御所市池之内1064", "url": "https://www.kaigokensaku.mhlw.go.jp/29/index.php?action_kouhyou_detail_004_kani=true&JigyosyoCd=2951380001-00&ServiceCd=140&Type=search", "url2": "http://www.kounoikekai.com/" }, "geometry": { "type": "Point", "coordinates": [ 135.751217399999973, 34.450824 ] } },
{ "type": "Feature", "properties": { "内容": "生駒市介護老人保健施設　やすらぎの杜優楽【訪問リハビリテーション】生駒市小瀬町324-2", "url": "https://www.kaigokensaku.mhlw.go.jp/29/index.php?action_kouhyou_detail_004_kani=true&JigyosyoCd=2950980025-00&ServiceCd=140&Type=search", "url2": null }, "geometry": { "type": "Point", "coordinates": [ 135.722690400000033, 34.6638846 ] } },
{ "type": "Feature", "properties": { "内容": "介護老人保健施設ハビリス【訪問リハビリテーション】生駒市上町88番地1", "url": "https://www.kaigokensaku.mhlw.go.jp/29/index.php?action_kouhyou_detail_004_kani=true&JigyosyoCd=2950980033-00&ServiceCd=140&Type=search", "url2": "https://asukakai.or.jp" }, "geometry": { "type": "Point", "coordinates": [ 135.7224927, 34.7198994 ] } },
{ "type": "Feature", "properties": { "内容": "介護老人保健施設　グランファミリア【訪問リハビリテーション】奈良県生駒市小明町1130-111", "url": "https://www.kaigokensaku.mhlw.go.jp/29/index.php?action_kouhyou_detail_004_kani=true&JigyosyoCd=2950380168-00&ServiceCd=140&Type=search", "url2": "https://www.allpines.jp/grandfamilia/" }, "geometry": { "type": "Point", "coordinates": [ 135.7051078, 34.7021447 ] } },
{ "type": "Feature", "properties": { "内容": "医療法人風尚会やました医院【訪問リハビリテーション】奈良県生駒市南田原町１０３９", "url": "https://www.kaigokensaku.mhlw.go.jp/29/index.php?action_kouhyou_detail_004_kani=true&JigyosyoCd=2910301403-00&ServiceCd=140&Type=search", "url2": "https://www.ikoma-yamashitaiin.com/" }, "geometry": { "type": "Point", "coordinates": [ 135.70452750000004, 34.713891 ] } },
{ "type": "Feature", "properties": { "内容": "医療法人社団松下会東生駒病院【訪問リハビリテーション】奈良県生駒市辻町４－１", "url": "https://www.kaigokensaku.mhlw.go.jp/29/index.php?action_kouhyou_detail_004_kani=true&JigyosyoCd=2910301098-00&ServiceCd=140&Type=search", "url2": "http://www.allpines.jp" }, "geometry": { "type": "Point", "coordinates": [ 135.708130200000028, 34.6995285 ] } },
{ "type": "Feature", "properties": { "内容": "医療法人和幸会阪奈中央病院【訪問リハビリテーション】奈良県生駒市俵口町741", "url": "https://www.kaigokensaku.mhlw.go.jp/29/index.php?action_kouhyou_detail_004_kani=true&JigyosyoCd=2910301056-00&ServiceCd=140&Type=search", "url2": "http://www.wakoucai.or.jp/" }, "geometry": { "type": "Point", "coordinates": [ 135.697247198811226, 34.706550214620393 ] } },
{ "type": "Feature", "properties": { "内容": "ひろ整形外科クリニック【訪問リハビリテーション】奈良県香芝市旭ヶ丘２丁目３０－１", "url": "https://www.kaigokensaku.mhlw.go.jp/29/index.php?action_kouhyou_detail_004_kani=true&JigyosyoCd=2911800718-00&ServiceCd=140&Type=search", "url2": "http://www.hiro-clinic.info" }, "geometry": { "type": "Point", "coordinates": [ 135.694553600000063, 34.5550737 ] } },
{ "type": "Feature", "properties": { "内容": "池原クリニック【訪問リハビリテーション】奈良県香芝市五位堂1013", "url": "https://www.kaigokensaku.mhlw.go.jp/29/index.php?action_kouhyou_detail_004_kani=true&JigyosyoCd=2911801328-00&ServiceCd=140&Type=search", "url2": "https://www.ikehara-goido.com/" }, "geometry": { "type": "Point", "coordinates": [ 135.719623392030712, 34.534246423926355 ] } },
{ "type": "Feature", "properties": { "内容": "ぬくもりクリニック【訪問リハビリテーション】奈良県香芝市下田西2丁目7-61訪問リハビリぬくもり", "url": "https://www.kaigokensaku.mhlw.go.jp/29/index.php?action_kouhyou_detail_004_kani=true&JigyosyoCd=2911801310-00&ServiceCd=140&Type=search", "url2": "http://www.nukumori-group.jp/" }, "geometry": { "type": "Point", "coordinates": [ 135.703258499999947, 34.5438726 ] } },
{ "type": "Feature", "properties": { "内容": "吉本整形外科　外科病院　訪問リハビリテーション【訪問リハビリテーション】疋田676-1", "url": "https://www.kaigokensaku.mhlw.go.jp/29/index.php?action_kouhyou_detail_004_kani=true&JigyosyoCd=2911901169-00&ServiceCd=140&Type=search", "url2": "https://www.yoshimoto-seikei.com/busho/rehabili/#houmonliha" }, "geometry": { "type": "Point", "coordinates": [ 135.7248605, 34.5023856 ] } },
{ "type": "Feature", "properties": { "内容": "介護老人保健施設　ぬくもり葛城【訪問リハビリテーション】奈良県葛城市西室150-8", "url": "https://www.kaigokensaku.mhlw.go.jp/29/index.php?action_kouhyou_detail_004_kani=true&JigyosyoCd=2954880015-00&ServiceCd=140&Type=search", "url2": "http://www.nukumori-group.jp/" }, "geometry": { "type": "Point", "coordinates": [ 135.7282765, 34.492685 ] } },
{ "type": "Feature", "properties": { "内容": "かつらぎ博愛会クリニック　訪問リハビリテーション【訪問リハビリテーション】奈良県葛城市林堂360-1介護老人保健施設かつらぎ　東館1階", "url": "https://www.kaigokensaku.mhlw.go.jp/29/index.php?action_kouhyou_detail_004_kani=true&JigyosyoCd=2911901136-00&ServiceCd=140&Type=search", "url2": "http://hakuaikai-k.or.jp" }, "geometry": { "type": "Point", "coordinates": [ 135.719378648300307, 34.481306851205382 ] } },
{ "type": "Feature", "properties": { "内容": "医療法人友愛会かつらぎクリニック【訪問リハビリテーション】奈良県葛城市北花内６１６－1", "url": "https://www.kaigokensaku.mhlw.go.jp/29/index.php?action_kouhyou_detail_004_kani=true&JigyosyoCd=2911901086-00&ServiceCd=140&Type=search", "url2": "http://www.katsuragi-clinic.asia/" }, "geometry": { "type": "Point", "coordinates": [ 135.730945900000052, 34.488182800000011 ] } },
{ "type": "Feature", "properties": { "内容": "医療法人吉生会吉井整形外科医院【訪問リハビリテーション】奈良県宇陀市榛原福地374‐1", "url": "https://www.kaigokensaku.mhlw.go.jp/29/index.php?action_kouhyou_detail_004_kani=true&JigyosyoCd=2912001068-00&ServiceCd=140&Type=search", "url2": "http://homepage3.nifty.com/yoshii-seikei/index.htm" }, "geometry": { "type": "Point", "coordinates": [ 135.963582299999985, 34.5329092 ] } },
{ "type": "Feature", "properties": { "内容": "医療法人拓誠会　辻村病院　訪問リハビリテーション【訪問リハビリテーション】奈良県宇陀市菟田野区松井７－１", "url": "https://www.kaigokensaku.mhlw.go.jp/29/index.php?action_kouhyou_detail_004_kani=true&JigyosyoCd=2912001076-00&ServiceCd=140&Type=search", "url2": "www.tsujimurahp.jp/" }, "geometry": { "type": "Point", "coordinates": [ 135.97613013139653, 34.472466476902497 ] } },
{ "type": "Feature", "properties": { "内容": "宇陀市立病院　訪問リハビリテーション【訪問リハビリテーション】奈良県宇陀市榛原萩原815番地", "url": "https://www.kaigokensaku.mhlw.go.jp/29/index.php?action_kouhyou_detail_004_kani=true&JigyosyoCd=2912001084-00&ServiceCd=140&Type=search", "url2": null }, "geometry": { "type": "Point", "coordinates": [ 135.9609182, 34.5306642 ] } },
{ "type": "Feature", "properties": { "内容": "医療法人緑会たなかクリニック　訪問部【訪問リハビリテーション】下垣内124", "url": "https://www.kaigokensaku.mhlw.go.jp/29/index.php?action_kouhyou_detail_004_kani=true&JigyosyoCd=2910501143-00&ServiceCd=140&Type=search", "url2": null }, "geometry": { "type": "Point", "coordinates": [ 135.703153899999961, 34.626976900000017 ] } },
{ "type": "Feature", "properties": { "内容": "医療法人やわらぎ会　やわらぎクリニック【訪問リハビリテーション】奈良県生駒郡三郷町立野南2-8-12", "url": "https://www.kaigokensaku.mhlw.go.jp/29/index.php?action_kouhyou_detail_004_kani=true&JigyosyoCd=2910501267-00&ServiceCd=140&Type=search", "url2": "http://www.yawaragikai.jp/" }, "geometry": { "type": "Point", "coordinates": [ 135.686814, 34.5899147 ] } },
{ "type": "Feature", "properties": { "内容": "介護老人保健施設　もののみの郷【訪問リハビリテーション】奈良県生駒郡三郷町信貴山東4番10号", "url": "https://www.kaigokensaku.mhlw.go.jp/29/index.php?action_kouhyou_detail_004_kani=true&JigyosyoCd=2951580006-00&ServiceCd=140&Type=search", "url2": "https://www.kikawa.or.jp/wp/" }, "geometry": { "type": "Point", "coordinates": [ 135.67615950000004, 34.6060789 ] } },
{ "type": "Feature", "properties": { "内容": "勝井整形外科【訪問リハビリテーション】奈良県生駒郡斑鳩町龍田西4-7-2", "url": "https://www.kaigokensaku.mhlw.go.jp/29/index.php?action_kouhyou_detail_004_kani=true&JigyosyoCd=2910501275-00&ServiceCd=140&Type=search", "url2": "https://www.katsuiseikei.com" }, "geometry": { "type": "Point", "coordinates": [ 135.7152634, 34.6055644 ] } },
{ "type": "Feature", "properties": { "内容": "老人保健施設　サンライフ田原本【訪問リハビリテーション】磯城郡田原本町小阪305-1", "url": "https://www.kaigokensaku.mhlw.go.jp/29/index.php?action_kouhyou_detail_004_kani=true&JigyosyoCd=2950780193-00&ServiceCd=140&Type=search", "url2": "http://www.seiwakai-group.or.jp/sunlife-tawaramoto.html" }, "geometry": { "type": "Point", "coordinates": [ 135.7970235, 34.5604998 ] } },
{ "type": "Feature", "properties": { "内容": "介護老人保健施設　ぬくもり田原本【訪問リハビリテーション】奈良県磯城郡田原本町黒田285-1", "url": "https://www.kaigokensaku.mhlw.go.jp/29/index.php?action_kouhyou_detail_004_kani=true&JigyosyoCd=2952080014-00&ServiceCd=140&Type=search", "url2": "http://www.nukumori-group.jp/" }, "geometry": { "type": "Point", "coordinates": [ 135.7767632, 34.5675931 ] } },
{ "type": "Feature", "properties": { "内容": "へいせいたかとりクリニック【訪問リハビリテーション】奈良県高市郡高取町兵庫202", "url": "https://www.kaigokensaku.mhlw.go.jp/29/index.php?action_kouhyou_detail_004_kani=true&JigyosyoCd=2911601090-00&ServiceCd=140&Type=search", "url2": "https://www.heisei-h.or.jp" }, "geometry": { "type": "Point", "coordinates": [ 135.7761339, 34.4469615 ] } },
{ "type": "Feature", "properties": { "内容": "西大和リハビリテーション病院【訪問リハビリテーション】北葛城郡上牧町ささゆり台3-2-2", "url": "https://www.kaigokensaku.mhlw.go.jp/29/index.php?action_kouhyou_detail_004_kani=true&JigyosyoCd=2911501506-00&ServiceCd=140&Type=search", "url2": "http://www.nishiyamato.net/" }, "geometry": { "type": "Point", "coordinates": [ 135.7186011, 34.5665675 ] } },
{ "type": "Feature", "properties": { "内容": "介護老人保健施設　こころ上牧【訪問リハビリテーション】奈良県北葛城郡上牧町上牧2768-2", "url": "https://www.kaigokensaku.mhlw.go.jp/29/index.php?action_kouhyou_detail_004_kani=true&JigyosyoCd=2953180003-00&ServiceCd=140&Type=search", "url2": "http:/www.chowahukushikai.or.jp/kanmaki.html" }, "geometry": { "type": "Point", "coordinates": [ 135.723158600000033, 34.568788 ] } },
{ "type": "Feature", "properties": { "内容": "竹田内科クリニック【訪問リハビリテーション】奈良県北葛城郡王寺町久度2-3-1りーべる王寺西館302号", "url": "https://www.kaigokensaku.mhlw.go.jp/29/index.php?action_kouhyou_detail_004_kani=true&JigyosyoCd=2911502942-00&ServiceCd=140&Type=search", "url2": "http://www.takeda-naika.info/" }, "geometry": { "type": "Point", "coordinates": [ 135.7029147, 34.5980716 ] } },
{ "type": "Feature", "properties": { "内容": "介護老人保健施設ぬくもり広陵【訪問リハビリテーション】奈良県北葛城郡広陵町馬見北５－１３－１１", "url": "https://www.kaigokensaku.mhlw.go.jp/29/index.php?action_kouhyou_detail_004_kani=true&JigyosyoCd=2953380025-00&ServiceCd=140&Type=search", "url2": "https://nukumori-group.jp/seiankai/index.html" }, "geometry": { "type": "Point", "coordinates": [ 135.7264514, 34.5540732 ] } },
{ "type": "Feature", "properties": { "内容": "介護老人保健施設かぐやの里【訪問リハビリテーション】奈良県北葛城郡広陵町大字三吉１７９９番１", "url": "https://www.kaigokensaku.mhlw.go.jp/29/index.php?action_kouhyou_detail_004_kani=true&JigyosyoCd=2953380017-00&ServiceCd=140&Type=search", "url2": "http:∥www.kaguyanosato.ip" }, "geometry": { "type": "Point", "coordinates": [ 135.749543099999983, 34.5536692 ] } },
{ "type": "Feature", "properties": { "内容": "介護老人保健施設　奈良べテルホーム【訪問リハビリテーション】奈良県北葛城郡河合町高塚台1-8-1", "url": "https://www.kaigokensaku.mhlw.go.jp/29/index.php?action_kouhyou_detail_004_kani=true&JigyosyoCd=2951580055-00&ServiceCd=140&Type=search", "url2": "http://www.nissay-seirei.org/nara/facilities/betel.php" }, "geometry": { "type": "Point", "coordinates": [ 135.722237166795367, 34.579695851314085 ] } },
{ "type": "Feature", "properties": { "内容": "社会医療法人健生会　河合診療所【訪問リハビリテーション】奈良県北葛城郡河合町穴闇81番1号", "url": "https://www.kaigokensaku.mhlw.go.jp/29/index.php?action_kouhyou_detail_004_kani=true&JigyosyoCd=2911501084-00&ServiceCd=140&Type=search", "url2": "http://www.kenseikai-nara.jp/kawai/" }, "geometry": { "type": "Point", "coordinates": [ 135.740885, 34.5868846 ] } },
{ "type": "Feature", "properties": { "内容": "潮田クリニック【訪問リハビリテーション】奈良県吉野郡吉野町大字上市2135番地", "url": "https://www.kaigokensaku.mhlw.go.jp/29/index.php?action_kouhyou_detail_004_kani=true&JigyosyoCd=2911701718-00&ServiceCd=140&Type=search", "url2": "https://hakkohkai.com/" }, "geometry": { "type": "Point", "coordinates": [ 135.84678790000001, 34.3945832 ] } },
{ "type": "Feature", "properties": { "内容": "南和病院訪問リハビリテーションセンター【訪問リハビリテーション】奈良県吉野郡大淀町大字福神1-181", "url": "https://www.kaigokensaku.mhlw.go.jp/29/index.php?action_kouhyou_detail_004_kani=true&JigyosyoCd=2911701643-00&ServiceCd=140&Type=search", "url2": "http://www.koujin.jp" }, "geometry": { "type": "Point", "coordinates": [ 135.745760799999971, 34.3947048 ] } }
]
}
