{
"type": "FeatureCollection",
"name": "geo_29_認知症対応型共同生活介護",
"crs": { "type": "name", "properties": { "name": "urn:ogc:def:crs:OGC:1.3:CRS84" } },
"features": [
{ "type": "Feature", "properties": { "内容": "グループホーム　エル・ハヤシ学園前センター【認知症対応型共同生活介護】奈良市学園朝日町１２－１０", "url": "https://www.kaigokensaku.mhlw.go.jp/29/index.php?action_kouhyou_detail_004_kani=true&JigyosyoCd=2970101842-00&ServiceCd=320&Type=search", "url2": "http://www.eyll-hayashi.or.jp" }, "geometry": { "type": "Point", "coordinates": [ 135.754820800000061, 34.7038559 ] } },
{ "type": "Feature", "properties": { "内容": "愛の家グループホーム大和西大寺【認知症対応型共同生活介護】奈良市菅原東二丁目21番14号", "url": "https://www.kaigokensaku.mhlw.go.jp/29/index.php?action_kouhyou_detail_004_kani=true&JigyosyoCd=2970102618-00&ServiceCd=320&Type=search", "url2": "http://www.mcsg.co.jp/" }, "geometry": { "type": "Point", "coordinates": [ 135.781907600000068, 34.688366900000041 ] } },
{ "type": "Feature", "properties": { "内容": "ホームケアー学園北【認知症対応型共同生活介護】奈良県奈良市学園朝日町6-11-1", "url": "https://www.kaigokensaku.mhlw.go.jp/29/index.php?action_kouhyou_detail_004_kani=true&JigyosyoCd=2970102295-00&ServiceCd=320&Type=search", "url2": "https://homecare.co.jp" }, "geometry": { "type": "Point", "coordinates": [ 135.7547181, 34.700748 ] } },
{ "type": "Feature", "properties": { "内容": "グループホームアンジェロ三碓の里【認知症対応型共同生活介護】奈良市学園大和町三丁目４番", "url": "https://www.kaigokensaku.mhlw.go.jp/29/index.php?action_kouhyou_detail_004_kani=true&JigyosyoCd=2990100196-00&ServiceCd=320&Type=search", "url2": "https://asukakai.or.jp" }, "geometry": { "type": "Point", "coordinates": [ 135.746801112689241, 34.687373901879326 ] } },
{ "type": "Feature", "properties": { "内容": "社会福祉法人ならのは　グループホーム　楓・メイプルリーフ【認知症対応型共同生活介護】奈良市神功四丁目25番地の9", "url": "https://www.kaigokensaku.mhlw.go.jp/29/index.php?action_kouhyou_detail_004_kani=true&JigyosyoCd=2970101156-00&ServiceCd=320&Type=search", "url2": "https://naranoha.jimdo.com" }, "geometry": { "type": "Point", "coordinates": [ 135.7780765, 34.720921400000023 ] } },
{ "type": "Feature", "properties": { "内容": "医療法人田北クリニックグループホームあみ【認知症対応型共同生活介護】奈良市二条町二丁目３－１８", "url": "https://www.kaigokensaku.mhlw.go.jp/29/index.php?action_kouhyou_detail_004_kani=true&JigyosyoCd=2970102568-00&ServiceCd=320&Type=search", "url2": "http//gh-ami.jp" }, "geometry": { "type": "Point", "coordinates": [ 135.788357, 34.693186 ] } },
{ "type": "Feature", "properties": { "内容": "サテライト　フレンド高の原【認知症対応型共同生活介護】奈良市朱雀6丁目2-15", "url": "https://www.kaigokensaku.mhlw.go.jp/29/index.php?action_kouhyou_detail_004_kani=true&JigyosyoCd=2970101966-00&ServiceCd=320&Type=search", "url2": "http://www.wellconsul.co.jp" }, "geometry": { "type": "Point", "coordinates": [ 135.796647300000018, 34.7148223 ] } },
{ "type": "Feature", "properties": { "内容": "フレンド尼ヶ辻【認知症対応型共同生活介護】奈良市尼辻西町8-10", "url": "https://www.kaigokensaku.mhlw.go.jp/29/index.php?action_kouhyou_detail_004_kani=true&JigyosyoCd=2970100174-00&ServiceCd=320&Type=search", "url2": "http://www.wellconsul.co.jp" }, "geometry": { "type": "Point", "coordinates": [ 135.78327719999993, 34.6810873 ] } },
{ "type": "Feature", "properties": { "内容": "グループホームまごころ【認知症対応型共同生活介護】奈良市朱雀6-6-8", "url": "https://www.kaigokensaku.mhlw.go.jp/29/index.php?action_kouhyou_detail_004_kani=true&JigyosyoCd=2970102063-00&ServiceCd=320&Type=search", "url2": "http://magokoro.co.jp/" }, "geometry": { "type": "Point", "coordinates": [ 135.797463900000025, 34.7150001 ] } },
{ "type": "Feature", "properties": { "内容": "フレンド学園前・登美の森【認知症対応型共同生活介護】奈良市西登美ヶ丘7丁目13-31", "url": "https://www.kaigokensaku.mhlw.go.jp/29/index.php?action_kouhyou_detail_004_kani=true&JigyosyoCd=2970102923-00&ServiceCd=320&Type=search", "url2": "http://www.wellconsul.co.jp" }, "geometry": { "type": "Point", "coordinates": [ 135.738444399999906, 34.7084777 ] } },
{ "type": "Feature", "properties": { "内容": "ホームケアー学園南【認知症対応型共同生活介護】奈良県奈良市学園南3-13-3", "url": "https://www.kaigokensaku.mhlw.go.jp/29/index.php?action_kouhyou_detail_004_kani=true&JigyosyoCd=2970101677-00&ServiceCd=320&Type=search", "url2": "https://www.homecare.co.jp" }, "geometry": { "type": "Point", "coordinates": [ 135.750304599999936, 34.6910546 ] } },
{ "type": "Feature", "properties": { "内容": "ホームケアー奈良【認知症対応型共同生活介護】奈良県奈良市川久保町6-1", "url": "https://www.kaigokensaku.mhlw.go.jp/29/index.php?action_kouhyou_detail_004_kani=true&JigyosyoCd=2970101412-00&ServiceCd=320&Type=search", "url2": "https://www.homecare.co.jp" }, "geometry": { "type": "Point", "coordinates": [ 135.83324749999997, 34.6887618 ] } },
{ "type": "Feature", "properties": { "内容": "グループホームそれいゆ学園前【認知症対応型共同生活介護】奈良県奈良市学園朝日町7番9-1号", "url": "https://www.kaigokensaku.mhlw.go.jp/29/index.php?action_kouhyou_detail_004_kani=true&JigyosyoCd=2970102857-00&ServiceCd=320&Type=search", "url2": "https://www.micro-fukushikai.or.jp/" }, "geometry": { "type": "Point", "coordinates": [ 135.754462500000045, 34.7022033 ] } },
{ "type": "Feature", "properties": { "内容": "グループホームふれあい秋篠【認知症対応型共同生活介護】奈良市中山町１１４６番地１", "url": "https://www.kaigokensaku.mhlw.go.jp/29/index.php?action_kouhyou_detail_004_kani=true&JigyosyoCd=2970103046-00&ServiceCd=320&Type=search", "url2": "https://narahigashi-group.com/company/" }, "geometry": { "type": "Point", "coordinates": [ 135.764450300000021, 34.7113666 ] } },
{ "type": "Feature", "properties": { "内容": "グループホームふれあい東九条【認知症対応型共同生活介護】奈良県奈良市東九条町８８６－１", "url": "https://www.kaigokensaku.mhlw.go.jp/29/index.php?action_kouhyou_detail_004_kani=true&JigyosyoCd=2970103129-00&ServiceCd=320&Type=search", "url2": "https://narahigashi-group.com/company/" }, "geometry": { "type": "Point", "coordinates": [ 135.812511099999938, 34.6607509 ] } },
{ "type": "Feature", "properties": { "内容": "春日グループホーム雪・月・花【認知症対応型共同生活介護】奈良市白毫寺町900-1", "url": "https://www.kaigokensaku.mhlw.go.jp/29/index.php?action_kouhyou_detail_004_kani=true&JigyosyoCd=2970102477-00&ServiceCd=320&Type=search", "url2": "http://www.narakasuga-hospital.or.jp/" }, "geometry": { "type": "Point", "coordinates": [ 135.845622, 34.6671148 ] } },
{ "type": "Feature", "properties": { "内容": "ぽれぽれ四条大路【認知症対応型共同生活介護】奈良市四条大路2-860-1", "url": "https://www.kaigokensaku.mhlw.go.jp/29/index.php?action_kouhyou_detail_004_kani=true&JigyosyoCd=2970100141-00&ServiceCd=320&Type=search", "url2": "http://www.porepore.co.jp" }, "geometry": { "type": "Point", "coordinates": [ 135.798962, 34.6801459 ] } },
{ "type": "Feature", "properties": { "内容": "ぽれぽれ登美ヶ丘【認知症対応型共同生活介護】奈良県奈良市登美ケ丘２－２－１５", "url": "https://www.kaigokensaku.mhlw.go.jp/29/index.php?action_kouhyou_detail_004_kani=true&JigyosyoCd=2970102576-00&ServiceCd=320&Type=search", "url2": "http://www.porepore.co.jp/" }, "geometry": { "type": "Point", "coordinates": [ 135.750090399999976, 34.7120746 ] } },
{ "type": "Feature", "properties": { "内容": "ミック登美ケ丘グループホーム【認知症対応型共同生活介護】奈良市押熊町2261", "url": "https://www.kaigokensaku.mhlw.go.jp/29/index.php?action_kouhyou_detail_004_kani=true&JigyosyoCd=2970103475-00&ServiceCd=320&Type=search", "url2": "http://www.mic-tomigaoka.com" }, "geometry": { "type": "Point", "coordinates": [ 135.761822599999959, 34.716641 ] } },
{ "type": "Feature", "properties": { "内容": "グループホームあじさい園【認知症対応型共同生活介護】奈良市茗荷町805-1", "url": "https://www.kaigokensaku.mhlw.go.jp/29/index.php?action_kouhyou_detail_004_kani=true&JigyosyoCd=2970100281-00&ServiceCd=320&Type=search", "url2": "http://www.ajisaien.or.jp" }, "geometry": { "type": "Point", "coordinates": [ 135.901974800000062, 34.6561726 ] } },
{ "type": "Feature", "properties": { "内容": "認知症高齢者グループホームなら清寿苑【認知症対応型共同生活介護】奈良市田中町６０２－１", "url": "https://www.kaigokensaku.mhlw.go.jp/29/index.php?action_kouhyou_detail_004_kani=true&JigyosyoCd=2970101511-00&ServiceCd=320&Type=search", "url2": "https://narahigashi-group.com/company/" }, "geometry": { "type": "Point", "coordinates": [ 135.8434416, 34.6383015 ] } },
{ "type": "Feature", "properties": { "内容": "グループホーム　とみのくに【認知症対応型共同生活介護】奈良県奈良市中町３８５７", "url": "https://www.kaigokensaku.mhlw.go.jp/29/index.php?action_kouhyou_detail_004_kani=true&JigyosyoCd=2970102055-00&ServiceCd=320&Type=search", "url2": "https://yumenokakehashi.or.jp" }, "geometry": { "type": "Point", "coordinates": [ 135.742254671160367, 34.675156735350754 ] } },
{ "type": "Feature", "properties": { "内容": "グループホームあん【認知症対応型共同生活介護】奈良県奈良市千代ヶ丘２-１-１３", "url": "https://www.kaigokensaku.mhlw.go.jp/29/index.php?action_kouhyou_detail_004_kani=true&JigyosyoCd=2970102469-00&ServiceCd=320&Type=search", "url2": "https://ann-gakuenmae.com/" }, "geometry": { "type": "Point", "coordinates": [ 135.746127985147723, 34.682148639656951 ] } },
{ "type": "Feature", "properties": { "内容": "こくせい館【認知症対応型共同生活介護】奈良市法華寺町1416番1", "url": "https://www.kaigokensaku.mhlw.go.jp/29/index.php?action_kouhyou_detail_004_kani=true&JigyosyoCd=2970102915-00&ServiceCd=320&Type=search", "url2": null }, "geometry": { "type": "Point", "coordinates": [ 135.810891, 34.6943497 ] } },
{ "type": "Feature", "properties": { "内容": "グループホームどんぐり【認知症対応型共同生活介護】奈良市中山町１７４８－１", "url": "https://www.kaigokensaku.mhlw.go.jp/29/index.php?action_kouhyou_detail_004_kani=true&JigyosyoCd=2970103392-00&ServiceCd=320&Type=search", "url2": "http://donguri-home.com" }, "geometry": { "type": "Point", "coordinates": [ 135.774932700000022, 34.7110141 ] } },
{ "type": "Feature", "properties": { "内容": "グループホーム花水木【認知症対応型共同生活介護】奈良県奈良市古市町２１５７－５", "url": "https://www.kaigokensaku.mhlw.go.jp/29/index.php?action_kouhyou_detail_004_kani=true&JigyosyoCd=2970101818-00&ServiceCd=320&Type=search", "url2": "https://www.spirit-care.co.jp" }, "geometry": { "type": "Point", "coordinates": [ 135.8411807, 34.6592906 ] } },
{ "type": "Feature", "properties": { "内容": "ディーディー学園前　Ⅲ【認知症対応型共同生活介護】奈良県奈良市南登美ヶ丘15-2", "url": "https://www.kaigokensaku.mhlw.go.jp/29/index.php?action_kouhyou_detail_004_kani=true&JigyosyoCd=2970101354-00&ServiceCd=320&Type=search", "url2": "http://www.dd-gakuenmae.com" }, "geometry": { "type": "Point", "coordinates": [ 135.743629038333893, 34.705187307588005 ] } },
{ "type": "Feature", "properties": { "内容": "ディーディー学園前Ⅰ・Ⅱ【認知症対応型共同生活介護】奈良県奈良市南登美ヶ丘15-2", "url": "https://www.kaigokensaku.mhlw.go.jp/29/index.php?action_kouhyou_detail_004_kani=true&JigyosyoCd=2970101958-00&ServiceCd=320&Type=search", "url2": "http://www.dd-gakuenmae.com" }, "geometry": { "type": "Point", "coordinates": [ 135.743654185180731, 34.705227536283715 ] } },
{ "type": "Feature", "properties": { "内容": "古都の家　学園前【認知症対応型共同生活介護】二名東町３７５０－２", "url": "https://www.kaigokensaku.mhlw.go.jp/29/index.php?action_kouhyou_detail_004_kani=true&JigyosyoCd=2970102733-00&ServiceCd=320&Type=search", "url2": "http://www14.ocn.ne.jp/~kotonoie" }, "geometry": { "type": "Point", "coordinates": [ 135.738480500000037, 34.7079889 ] } },
{ "type": "Feature", "properties": { "内容": "グループホーム　メビウスまほろば【認知症対応型共同生活介護】六条西四丁目6番20号", "url": "https://www.kaigokensaku.mhlw.go.jp/29/index.php?action_kouhyou_detail_004_kani=true&JigyosyoCd=2990100642-00&ServiceCd=320&Type=search", "url2": "https://nishinokyo.or.jp/kaigo/group-home/index.html" }, "geometry": { "type": "Point", "coordinates": [ 135.770959563240154, 34.66521464582528 ] } },
{ "type": "Feature", "properties": { "内容": "ニチイケアセンター奈良【認知症対応型共同生活介護】奈良県奈良市三条栄町10-5", "url": "https://www.kaigokensaku.mhlw.go.jp/29/index.php?action_kouhyou_detail_004_kani=true&JigyosyoCd=2990100584-00&ServiceCd=320&Type=search", "url2": "https://www.nichii-kaigo.jp/base/base-result/05E90/" }, "geometry": { "type": "Point", "coordinates": [ 135.810569553967298, 34.679832229041722 ] } },
{ "type": "Feature", "properties": { "内容": "ニチイケアセンター奈良西大寺【認知症対応型共同生活介護】奈良市西大寺国見町3丁目5番12号", "url": "https://www.kaigokensaku.mhlw.go.jp/29/index.php?action_kouhyou_detail_004_kani=true&JigyosyoCd=2990100063-00&ServiceCd=320&Type=search", "url2": "hstt40@nichiigakkan.co.jp" }, "geometry": { "type": "Point", "coordinates": [ 135.781093899999973, 34.6849034 ] } },
{ "type": "Feature", "properties": { "内容": "グループホーム　らくじの杜【認知症対応型共同生活介護】南京終町19番1", "url": "https://www.kaigokensaku.mhlw.go.jp/29/index.php?action_kouhyou_detail_004_kani=true&JigyosyoCd=2990100253-00&ServiceCd=320&Type=search", "url2": "http://www.s-rakuji.com/care/group_rakujinomori/index.html" }, "geometry": { "type": "Point", "coordinates": [ 135.827458285319523, 34.670875703173166 ] } },
{ "type": "Feature", "properties": { "内容": "あすならハイツあやめ池　グループホーム【認知症対応型共同生活介護】奈良県奈良市あやめ池南2丁目2-16", "url": "https://www.kaigokensaku.mhlw.go.jp/29/index.php?action_kouhyou_detail_004_kani=true&JigyosyoCd=2990100287-00&ServiceCd=320&Type=search", "url2": "http://www.asunaraen.com" }, "geometry": { "type": "Point", "coordinates": [ 135.762737476721242, 34.697434995401494 ] } },
{ "type": "Feature", "properties": { "内容": "あすならホーム高畑グループホーム【認知症対応型共同生活介護】奈良県奈良市高畑町469-1あすならホーム高畑", "url": "https://www.kaigokensaku.mhlw.go.jp/29/index.php?action_kouhyou_detail_004_kani=true&JigyosyoCd=2990100519-00&ServiceCd=320&Type=search", "url2": "http://0742231165.blog.fc2.com/" }, "geometry": { "type": "Point", "coordinates": [ 135.845863644069595, 34.674899080554582 ] } },
{ "type": "Feature", "properties": { "内容": "あすならホーム今小路　認知症対応型共同生活介護【認知症対応型共同生活介護】奈良県奈良市今小路29-1", "url": "https://www.kaigokensaku.mhlw.go.jp/29/index.php?action_kouhyou_detail_004_kani=true&JigyosyoCd=2990100634-00&ServiceCd=320&Type=search", "url2": "http://asunaraen.com" }, "geometry": { "type": "Point", "coordinates": [ 135.834054, 34.6910851 ] } },
{ "type": "Feature", "properties": { "内容": "グループホームあじさい園宝【認知症対応型共同生活介護】南肘塚町99番1", "url": "https://www.kaigokensaku.mhlw.go.jp/29/index.php?action_kouhyou_detail_004_kani=true&JigyosyoCd=2990190064-00&ServiceCd=320&Type=search", "url2": "https://www.ajisaien.or.jp" }, "geometry": { "type": "Point", "coordinates": [ 135.831385, 34.6657131 ] } },
{ "type": "Feature", "properties": { "内容": "グループホームきたまちテラス【認知症対応型共同生活介護】奈良県奈良市西大寺北町四丁目3-3", "url": "https://www.kaigokensaku.mhlw.go.jp/29/index.php?action_kouhyou_detail_004_kani=true&JigyosyoCd=2990190072-00&ServiceCd=320&Type=search", "url2": "https://www.akishino-akane.com/" }, "geometry": { "type": "Point", "coordinates": [ 135.778315099999986, 34.6989639 ] } },
{ "type": "Feature", "properties": { "内容": "グループホーム　アクール【認知症対応型共同生活介護】奈良県奈良市秋篠町1567番地", "url": "https://www.kaigokensaku.mhlw.go.jp/29/index.php?action_kouhyou_detail_004_kani=true&JigyosyoCd=2990190098-00&ServiceCd=320&Type=search", "url2": "https://fukujukai.or.jp" }, "geometry": { "type": "Point", "coordinates": [ 135.779431100000011, 34.7122256 ] } },
{ "type": "Feature", "properties": { "内容": "学園前西グループホーム【認知症対応型共同生活介護】奈良市二名３丁目１１４８番地", "url": "https://www.kaigokensaku.mhlw.go.jp/29/index.php?action_kouhyou_detail_004_kani=true&JigyosyoCd=2970102634-00&ServiceCd=320&Type=search", "url2": "https://www.naraen.or.jp" }, "geometry": { "type": "Point", "coordinates": [ 135.726151910450767, 34.703575196818086 ] } },
{ "type": "Feature", "properties": { "内容": "グループホームならの郷【認知症対応型共同生活介護】奈良県奈良市菩提山町241番地1", "url": "https://www.kaigokensaku.mhlw.go.jp/29/index.php?action_kouhyou_detail_004_kani=true&JigyosyoCd=2990100444-00&ServiceCd=320&Type=search", "url2": "https://www.naraen.or.jp/" }, "geometry": { "type": "Point", "coordinates": [ 135.887618010948216, 34.656830445479166 ] } },
{ "type": "Feature", "properties": { "内容": "グループホームいまざと元気村２【認知症対応型共同生活介護】奈良県大和高田市今里19-36", "url": "https://www.kaigokensaku.mhlw.go.jp/29/index.php?action_kouhyou_detail_004_kani=true&JigyosyoCd=2990200038-00&ServiceCd=320&Type=search", "url2": "http://yatasan.net/" }, "geometry": { "type": "Point", "coordinates": [ 135.754776600000014, 34.5093614 ] } },
{ "type": "Feature", "properties": { "内容": "社会福祉法人甘樫会　あまがし苑高田【認知症対応型共同生活介護】奈良県大和高田市神楽３丁目１１番１３号建物2階部分", "url": "https://www.kaigokensaku.mhlw.go.jp/29/index.php?action_kouhyou_detail_004_kani=true&JigyosyoCd=2970200230-00&ServiceCd=320&Type=search", "url2": "http://amagashi-t.com/" }, "geometry": { "type": "Point", "coordinates": [ 135.745324500000038, 34.523948 ] } },
{ "type": "Feature", "properties": { "内容": "グループホームゆかりの里苑【認知症対応型共同生活介護】大和高田市松塚850-3", "url": "https://www.kaigokensaku.mhlw.go.jp/29/index.php?action_kouhyou_detail_004_kani=true&JigyosyoCd=2970200388-00&ServiceCd=320&Type=search", "url2": "https://sun-plan-cop.co.jp/" }, "geometry": { "type": "Point", "coordinates": [ 135.759076199999981, 34.5219068 ] } },
{ "type": "Feature", "properties": { "内容": "大和高田グループホームまほろば【認知症対応型共同生活介護】大和高田市曽大根2丁目9番18号", "url": "https://www.kaigokensaku.mhlw.go.jp/29/index.php?action_kouhyou_detail_004_kani=true&JigyosyoCd=2990200046-00&ServiceCd=320&Type=search", "url2": "http://upward-kaigo.jp/" }, "geometry": { "type": "Point", "coordinates": [ 135.745332054631035, 34.496176574933664 ] } },
{ "type": "Feature", "properties": { "内容": "ベルライフ築山【認知症対応型共同生活介護】築山696番地", "url": "https://www.kaigokensaku.mhlw.go.jp/29/index.php?action_kouhyou_detail_004_kani=true&JigyosyoCd=2990200053-00&ServiceCd=320&Type=search", "url2": "http://www.bellage.co.jp/" }, "geometry": { "type": "Point", "coordinates": [ 135.734205800000041, 34.5258837 ] } },
{ "type": "Feature", "properties": { "内容": "あすならホーム高田　グループホーム【認知症対応型共同生活介護】奈良県大和高田市礒野南町5番15号", "url": "https://www.kaigokensaku.mhlw.go.jp/29/index.php?action_kouhyou_detail_004_kani=true&JigyosyoCd=2990200087-00&ServiceCd=320&Type=search", "url2": "https://asunaraen.or.jp/toppage/facility/asunarahometakada" }, "geometry": { "type": "Point", "coordinates": [ 135.7405037, 34.5061646 ] } },
{ "type": "Feature", "properties": { "内容": "グループホーム未草の郷【認知症対応型共同生活介護】奥田33-1", "url": "https://www.kaigokensaku.mhlw.go.jp/29/index.php?action_kouhyou_detail_004_kani=true&JigyosyoCd=2990200129-00&ServiceCd=320&Type=search", "url2": null }, "geometry": { "type": "Point", "coordinates": [ 135.752552343583716, 34.486338309942248 ] } },
{ "type": "Feature", "properties": { "内容": "グループホーム　フレンド倶楽部郡山【認知症対応型共同生活介護】奈良県大和郡山市外川町７２－１", "url": "https://www.kaigokensaku.mhlw.go.jp/29/index.php?action_kouhyou_detail_004_kani=true&JigyosyoCd=2990300085-00&ServiceCd=320&Type=search", "url2": "http://www.wellconsul.co.jp" }, "geometry": { "type": "Point", "coordinates": [ 135.7679121, 34.6454431 ] } },
{ "type": "Feature", "properties": { "内容": "グループホームやたさん元気村【認知症対応型共同生活介護】奈良県大和郡山市矢田町4446-1", "url": "https://www.kaigokensaku.mhlw.go.jp/29/index.php?action_kouhyou_detail_004_kani=true&JigyosyoCd=2970300287-00&ServiceCd=320&Type=search", "url2": "http://yatasan.net/" }, "geometry": { "type": "Point", "coordinates": [ 135.742711200000031, 34.6479033 ] } },
{ "type": "Feature", "properties": { "内容": "フレンド冠山・城跡園【認知症対応型共同生活介護】奈良県大和郡山市田中741", "url": "https://www.kaigokensaku.mhlw.go.jp/29/index.php?action_kouhyou_detail_004_kani=true&JigyosyoCd=2970300329-00&ServiceCd=320&Type=search", "url2": "http://www.wellconsul.co.jp" }, "geometry": { "type": "Point", "coordinates": [ 135.768368816056295, 34.647175235309966 ] } },
{ "type": "Feature", "properties": { "内容": "グループホーム　なごやか【認知症対応型共同生活介護】奈良県大和郡山市北郡山町３１０", "url": "https://www.kaigokensaku.mhlw.go.jp/29/index.php?action_kouhyou_detail_004_kani=true&JigyosyoCd=2970300493-00&ServiceCd=320&Type=search", "url2": "http://www.touwakai.or.jp/nagoyaka.html" }, "geometry": { "type": "Point", "coordinates": [ 135.782685899999933, 34.6543539 ] } },
{ "type": "Feature", "properties": { "内容": "グループホームあんしん【認知症対応型共同生活介護】奈良県大和郡山市横田町760", "url": "https://www.kaigokensaku.mhlw.go.jp/29/index.php?action_kouhyou_detail_004_kani=true&JigyosyoCd=2970300402-00&ServiceCd=320&Type=search", "url2": "https://www.anshingakuenmae.jp" }, "geometry": { "type": "Point", "coordinates": [ 135.80529260000003, 34.6175887 ] } },
{ "type": "Feature", "properties": { "内容": "グループホームふれあい郡山【認知症対応型共同生活介護】奈良県大和郡山市額田部北町822番１", "url": "https://www.kaigokensaku.mhlw.go.jp/29/index.php?action_kouhyou_detail_004_kani=true&JigyosyoCd=2990300259-00&ServiceCd=320&Type=search", "url2": "http://www.fureai-net.com" }, "geometry": { "type": "Point", "coordinates": [ 135.7742527, 34.6016137 ] } },
{ "type": "Feature", "properties": { "内容": "グループホームあかり【認知症対応型共同生活介護】奈良県大和郡山市九条町1311-1", "url": "https://www.kaigokensaku.mhlw.go.jp/29/index.php?action_kouhyou_detail_004_kani=true&JigyosyoCd=2990300200-00&ServiceCd=320&Type=search", "url2": "https://www.tomorrow-light.co.jp/" }, "geometry": { "type": "Point", "coordinates": [ 135.783408199999968, 34.6583309 ] } },
{ "type": "Feature", "properties": { "内容": "社会福祉法人やすらぎ会　グループホームなごみ筒井【認知症対応型共同生活介護】奈良県大和郡山市筒井町1535番地", "url": "https://www.kaigokensaku.mhlw.go.jp/29/index.php?action_kouhyou_detail_004_kani=true&JigyosyoCd=2990300150-00&ServiceCd=320&Type=search", "url2": "gh_nagomi@yasuragien.jp" }, "geometry": { "type": "Point", "coordinates": [ 135.783342299999987, 34.6229643 ] } },
{ "type": "Feature", "properties": { "内容": "あすならホーム郡山　グループホーム【認知症対応型共同生活介護】奈良県大和郡山市新木町365－1", "url": "https://www.kaigokensaku.mhlw.go.jp/29/index.php?action_kouhyou_detail_004_kani=true&JigyosyoCd=2990300143-00&ServiceCd=320&Type=search", "url2": "http://www.asunaraen.or.jp/" }, "geometry": { "type": "Point", "coordinates": [ 135.77310418697499, 34.64192903036254 ] } },
{ "type": "Feature", "properties": { "内容": "有限会社　奈良ライフサポ－ト　グル－プホ－ム　ゆりかご【認知症対応型共同生活介護】奈良県天理市櫟本町1461-3", "url": "https://www.kaigokensaku.mhlw.go.jp/29/index.php?action_kouhyou_detail_004_kani=true&JigyosyoCd=2970400376-00&ServiceCd=320&Type=search", "url2": "http://lsupport.co.jp/" }, "geometry": { "type": "Point", "coordinates": [ 135.828056899999979, 34.6214943 ] } },
{ "type": "Feature", "properties": { "内容": "グループホームふれあい天理【認知症対応型共同生活介護】奈良県　天理市　中之庄町　５３１", "url": "https://www.kaigokensaku.mhlw.go.jp/29/index.php?action_kouhyou_detail_004_kani=true&JigyosyoCd=2970400566-00&ServiceCd=320&Type=search", "url2": "https://narahigashi-group.com/company/" }, "geometry": { "type": "Point", "coordinates": [ 135.84280560000002, 34.6367656 ] } },
{ "type": "Feature", "properties": { "内容": "グループホームみやぎ乙木口【認知症対応型共同生活介護】三昧田町１０７－１", "url": "https://www.kaigokensaku.mhlw.go.jp/29/index.php?action_kouhyou_detail_004_kani=true&JigyosyoCd=2990400075-00&ServiceCd=320&Type=search", "url2": "http://www.miyagikai.or.jp/" }, "geometry": { "type": "Point", "coordinates": [ 135.8388926, 34.5839736 ] } },
{ "type": "Feature", "properties": { "内容": "グループホームむつみあい【認知症対応型共同生活介護】奈良県天理市福住町５５０４番地", "url": "https://www.kaigokensaku.mhlw.go.jp/29/index.php?action_kouhyou_detail_004_kani=true&JigyosyoCd=2990400034-00&ServiceCd=320&Type=search", "url2": "http://www.yasuragien.jp" }, "geometry": { "type": "Point", "coordinates": [ 135.908993, 34.59829 ] } },
{ "type": "Feature", "properties": { "内容": "あすならホーム二階堂　グループホーム【認知症対応型共同生活介護】奈良県天理市荒蒔町61‐2", "url": "https://www.kaigokensaku.mhlw.go.jp/29/index.php?action_kouhyou_detail_004_kani=true&JigyosyoCd=2990400208-00&ServiceCd=320&Type=search", "url2": "https://asunaraen.or.jp/facility/asunarahomenikaidou" }, "geometry": { "type": "Point", "coordinates": [ 135.806952784794618, 34.598836197417832 ] } },
{ "type": "Feature", "properties": { "内容": "あすならホーム天理【認知症対応型共同生活介護】天理市川原城町２０７－１", "url": "https://www.kaigokensaku.mhlw.go.jp/29/index.php?action_kouhyou_detail_004_kani=true&JigyosyoCd=2990400067-00&ServiceCd=320&Type=search", "url2": "http://www.asunaraen.com" }, "geometry": { "type": "Point", "coordinates": [ 135.834095569975233, 34.59770564674897 ] } },
{ "type": "Feature", "properties": { "内容": "あすならホーム　柳本【認知症対応型共同生活介護】奈良県天理市柳本町１３１０－１", "url": "https://www.kaigokensaku.mhlw.go.jp/29/index.php?action_kouhyou_detail_004_kani=true&JigyosyoCd=2990400091-00&ServiceCd=320&Type=search", "url2": "http://www.asunaraen.com" }, "geometry": { "type": "Point", "coordinates": [ 135.838268711778227, 34.559353017807595 ] } },
{ "type": "Feature", "properties": { "内容": "桃　寿　園【認知症対応型共同生活介護】奈良県橿原市北越智町３４５番地", "url": "https://www.kaigokensaku.mhlw.go.jp/29/index.php?action_kouhyou_detail_004_kani=true&JigyosyoCd=2970500076-00&ServiceCd=320&Type=search", "url2": "http://choseikaiwww.or.jp/" }, "geometry": { "type": "Point", "coordinates": [ 135.777492100000018, 34.4740131 ] } },
{ "type": "Feature", "properties": { "内容": "グループホーム　侑良の里【認知症対応型共同生活介護】奈良県橿原市木原町323-1", "url": "https://www.kaigokensaku.mhlw.go.jp/29/index.php?action_kouhyou_detail_004_kani=true&JigyosyoCd=2970500662-00&ServiceCd=320&Type=search", "url2": "http://www.sunnyoak.co.jp" }, "geometry": { "type": "Point", "coordinates": [ 135.804338599999937, 34.5169167 ] } },
{ "type": "Feature", "properties": { "内容": "グループホーム　夢野家Ⅱ【認知症対応型共同生活介護】奈良県橿原市東坊城町197番3", "url": "https://www.kaigokensaku.mhlw.go.jp/29/index.php?action_kouhyou_detail_004_kani=true&JigyosyoCd=2970500795-00&ServiceCd=320&Type=search", "url2": "http://www.eonet.ne.jp/~yumenouchi" }, "geometry": { "type": "Point", "coordinates": [ 135.762481799999932, 34.4930163 ] } },
{ "type": "Feature", "properties": { "内容": "グループホームふれあい橿原【認知症対応型共同生活介護】奈良県橿原市古川町２９－７", "url": "https://www.kaigokensaku.mhlw.go.jp/29/index.php?action_kouhyou_detail_004_kani=true&JigyosyoCd=2990500056-00&ServiceCd=320&Type=search", "url2": "https://narahigashi-group.com/" }, "geometry": { "type": "Point", "coordinates": [ 135.771531099999947, 34.4895223 ] } },
{ "type": "Feature", "properties": { "内容": "ニチイケアセンター橿原真菅【認知症対応型共同生活介護】奈良県橿原市曽我町343番地", "url": "https://www.kaigokensaku.mhlw.go.jp/29/index.php?action_kouhyou_detail_004_kani=true&JigyosyoCd=2990500080-00&ServiceCd=320&Type=search", "url2": "http:\\www.nichiigakkann.co.jp" }, "geometry": { "type": "Point", "coordinates": [ 135.780524300000025, 34.5105086 ] } },
{ "type": "Feature", "properties": { "内容": "ニチイケアセンター橿原醍醐【認知症対応型共同生活介護】奈良県橿原市醍醐町156番地", "url": "https://www.kaigokensaku.mhlw.go.jp/29/index.php?action_kouhyou_detail_004_kani=true&JigyosyoCd=2990500049-00&ServiceCd=320&Type=search", "url2": "hstt39@nichiigakkan.co.jp" }, "geometry": { "type": "Point", "coordinates": [ 135.80391659999998, 34.506437399999989 ] } },
{ "type": "Feature", "properties": { "内容": "ぽれぽれケアセンター白橿【認知症対応型共同生活介護】奈良県橿原市北越智町322番地", "url": "https://www.kaigokensaku.mhlw.go.jp/29/index.php?action_kouhyou_detail_004_kani=true&JigyosyoCd=2990500072-00&ServiceCd=320&Type=search", "url2": "http://www.porepore.co.jp/" }, "geometry": { "type": "Point", "coordinates": [ 135.778175199999964, 34.48079 ] } },
{ "type": "Feature", "properties": { "内容": "あすならホーム畝傍グループホーム【認知症対応型共同生活介護】奈良県橿原市大久保町287-1", "url": "https://www.kaigokensaku.mhlw.go.jp/29/index.php?action_kouhyou_detail_004_kani=true&JigyosyoCd=2990500106-00&ServiceCd=320&Type=search", "url2": "https://asunaraen.or.jp/facility/asunarahomeunebi" }, "geometry": { "type": "Point", "coordinates": [ 135.79283474799351, 34.495756679875846 ] } },
{ "type": "Feature", "properties": { "内容": "グループホーム　橿原の郷【認知症対応型共同生活介護】奈良県橿原市飯高町7－1", "url": "https://www.kaigokensaku.mhlw.go.jp/29/index.php?action_kouhyou_detail_004_kani=true&JigyosyoCd=2990500015-00&ServiceCd=320&Type=search", "url2": "http://www.sanyouhukushikai.com/" }, "geometry": { "type": "Point", "coordinates": [ 135.7798077, 34.5311171 ] } },
{ "type": "Feature", "properties": { "内容": "ホームケアー桜井【認知症対応型共同生活介護】奈良県桜井市粟殿1007-11", "url": "https://www.kaigokensaku.mhlw.go.jp/29/index.php?action_kouhyou_detail_004_kani=true&JigyosyoCd=2970600587-00&ServiceCd=320&Type=search", "url2": "https://homecare.co.jp/" }, "geometry": { "type": "Point", "coordinates": [ 135.847392294581567, 34.516850184551664 ] } },
{ "type": "Feature", "properties": { "内容": "グループホーム　エル【認知症対応型共同生活介護】奈良県桜井市上之宮9-1", "url": "https://www.kaigokensaku.mhlw.go.jp/29/index.php?action_kouhyou_detail_004_kani=true&JigyosyoCd=2970600447-00&ServiceCd=320&Type=search", "url2": null }, "geometry": { "type": "Point", "coordinates": [ 135.849932, 34.5019524 ] } },
{ "type": "Feature", "properties": { "内容": "グループホームちゃんて【認知症対応型共同生活介護】奈良県桜井市大福２３３番の１６", "url": "https://www.kaigokensaku.mhlw.go.jp/29/index.php?action_kouhyou_detail_004_kani=true&JigyosyoCd=2970600397-00&ServiceCd=320&Type=search", "url2": "http://ad3827.wix.com/oithika/hane" }, "geometry": { "type": "Point", "coordinates": [ 135.829730700000027, 34.5130233 ] } },
{ "type": "Feature", "properties": { "内容": "グループホームこもれび【認知症対応型共同生活介護】奈良県桜井市川合２２０-１", "url": "https://www.kaigokensaku.mhlw.go.jp/29/index.php?action_kouhyou_detail_004_kani=true&JigyosyoCd=2970600462-00&ServiceCd=320&Type=search", "url2": "http://shoujukai-inc.jp" }, "geometry": { "type": "Point", "coordinates": [ 135.8416214, 34.5154313 ] } },
{ "type": "Feature", "properties": { "内容": "グループホーム友遊【認知症対応型共同生活介護】奈良県桜井市大字山田716番地の1", "url": "https://www.kaigokensaku.mhlw.go.jp/29/index.php?action_kouhyou_detail_004_kani=true&JigyosyoCd=2970600579-00&ServiceCd=320&Type=search", "url2": "https://yuai-nara.com/" }, "geometry": { "type": "Point", "coordinates": [ 135.827490099999977, 34.4833935 ] } },
{ "type": "Feature", "properties": { "内容": "グループホーム四つ葉のクローバー　桜井【認知症対応型共同生活介護】奈良県桜井市粟殿３１８－１", "url": "https://www.kaigokensaku.mhlw.go.jp/29/index.php?action_kouhyou_detail_004_kani=true&JigyosyoCd=2990600120-00&ServiceCd=320&Type=search", "url2": "gh-sakurai@yotsuba-clover.co.jp" }, "geometry": { "type": "Point", "coordinates": [ 135.848101400000019, 34.5200196 ] } },
{ "type": "Feature", "properties": { "内容": "あすならホーム桜井グループホーム【認知症対応型共同生活介護】奈良県桜井市粟殿800", "url": "https://www.kaigokensaku.mhlw.go.jp/29/index.php?action_kouhyou_detail_004_kani=true&JigyosyoCd=2990600161-00&ServiceCd=320&Type=search", "url2": "http://www.asunaraen.com" }, "geometry": { "type": "Point", "coordinates": [ 135.853719564062402, 34.518924899118474 ] } },
{ "type": "Feature", "properties": { "内容": "あすならホーム桜井グループホームB【認知症対応型共同生活介護】奈良県桜井市粟殿800", "url": "https://www.kaigokensaku.mhlw.go.jp/29/index.php?action_kouhyou_detail_004_kani=true&JigyosyoCd=2990600245-00&ServiceCd=320&Type=search", "url2": "http://www.asunaraen.com" }, "geometry": { "type": "Point", "coordinates": [ 135.8535498, 34.5190612 ] } },
{ "type": "Feature", "properties": { "内容": "グループホームグランビレッジ倉橋【認知症対応型共同生活介護】奈良県桜井市大字倉橋1088番1", "url": "https://www.kaigokensaku.mhlw.go.jp/29/index.php?action_kouhyou_detail_004_kani=true&JigyosyoCd=2990600195-00&ServiceCd=320&Type=search", "url2": "https://www.taiyounomura.org/kurahashi/" }, "geometry": { "type": "Point", "coordinates": [ 135.859951, 34.491234 ] } },
{ "type": "Feature", "properties": { "内容": "より愛どころ　ありがとう【認知症対応型共同生活介護】奈良県桜井市生田235番地", "url": "https://www.kaigokensaku.mhlw.go.jp/29/index.php?action_kouhyou_detail_004_kani=true&JigyosyoCd=2990600013-00&ServiceCd=320&Type=search", "url2": "https://care-net.biz/29/yoriai/" }, "geometry": { "type": "Point", "coordinates": [ 135.8398608, 34.4956865 ] } },
{ "type": "Feature", "properties": { "内容": "グループホーム　シャルルまきの【認知症対応型共同生活介護】奈良県五條市大沢町5-25", "url": "https://www.kaigokensaku.mhlw.go.jp/29/index.php?action_kouhyou_detail_004_kani=true&JigyosyoCd=2990700029-00&ServiceCd=320&Type=search", "url2": "http://www.seiwakai-gojo.or.jp/" }, "geometry": { "type": "Point", "coordinates": [ 135.668242500000019, 34.3619368 ] } },
{ "type": "Feature", "properties": { "内容": "グループホーム　友徳苑【認知症対応型共同生活介護】奈良県五條市住川町1426番地", "url": "https://www.kaigokensaku.mhlw.go.jp/29/index.php?action_kouhyou_detail_004_kani=true&JigyosyoCd=2970700205-00&ServiceCd=320&Type=search", "url2": "http;//www.sanju.or.jp" }, "geometry": { "type": "Point", "coordinates": [ 135.724158171551238, 34.387840770986287 ] } },
{ "type": "Feature", "properties": { "内容": "グループホーム　白寿荘【認知症対応型共同生活介護】奈良県五條市今井1丁目1番15号", "url": "https://www.kaigokensaku.mhlw.go.jp/29/index.php?action_kouhyou_detail_004_kani=true&JigyosyoCd=2990700011-00&ServiceCd=320&Type=search", "url2": "http://hakujyu.jp/" }, "geometry": { "type": "Point", "coordinates": [ 135.70110109999996, 34.3558857 ] } },
{ "type": "Feature", "properties": { "内容": "（介護予防）認知症対応型共同生活介護　グループホーム慈泉庵【認知症対応型共同生活介護】奈良県五條市野原東6丁目2番48号グループホーム慈泉庵", "url": "https://www.kaigokensaku.mhlw.go.jp/29/index.php?action_kouhyou_detail_004_kani=true&JigyosyoCd=2990700052-00&ServiceCd=320&Type=search", "url2": "http://shousuien.or.jp/" }, "geometry": { "type": "Point", "coordinates": [ 135.7177441, 34.3433516 ] } },
{ "type": "Feature", "properties": { "内容": "グループホーム　友楽苑【認知症対応型共同生活介護】奈良県御所市重阪７７１－３", "url": "https://www.kaigokensaku.mhlw.go.jp/29/index.php?action_kouhyou_detail_004_kani=true&JigyosyoCd=2970800344-00&ServiceCd=320&Type=search", "url2": "http;www.sanju.or.jp" }, "geometry": { "type": "Point", "coordinates": [ 135.725928899999985, 34.3884914 ] } },
{ "type": "Feature", "properties": { "内容": "つぶら・すじゃく【認知症対応型共同生活介護】奈良県御所市柏原721-1", "url": "https://www.kaigokensaku.mhlw.go.jp/29/index.php?action_kouhyou_detail_004_kani=true&JigyosyoCd=2970800286-00&ServiceCd=320&Type=search", "url2": "http://www.jinnankai.jp/" }, "geometry": { "type": "Point", "coordinates": [ 135.764155100000039, 34.4519907 ] } },
{ "type": "Feature", "properties": { "内容": "テンダーヒル御所わかば館グループホームきっとうっど【認知症対応型共同生活介護】奈良県御所市御国通り３６４－１", "url": "https://www.kaigokensaku.mhlw.go.jp/29/index.php?action_kouhyou_detail_004_kani=true&JigyosyoCd=2970800336-00&ServiceCd=320&Type=search", "url2": "http://www.tender.or.jp" }, "geometry": { "type": "Point", "coordinates": [ 135.735243500000024, 34.4628416 ] } },
{ "type": "Feature", "properties": { "内容": "琴弾の家【認知症対応型共同生活介護】奈良県御所市池之内１０６４番地", "url": "https://www.kaigokensaku.mhlw.go.jp/29/index.php?action_kouhyou_detail_004_kani=true&JigyosyoCd=2970800146-00&ServiceCd=320&Type=search", "url2": "https://www.kounoikekai.com/" }, "geometry": { "type": "Point", "coordinates": [ 135.751217399999973, 34.450824 ] } },
{ "type": "Feature", "properties": { "内容": "グループホームハビリス鵄邑【認知症対応型共同生活介護】生駒市上町2番地1", "url": "https://www.kaigokensaku.mhlw.go.jp/29/index.php?action_kouhyou_detail_004_kani=true&JigyosyoCd=2990900140-00&ServiceCd=320&Type=search", "url2": "https://asukakai.or.jp" }, "geometry": { "type": "Point", "coordinates": [ 135.728917, 34.7101136 ] } },
{ "type": "Feature", "properties": { "内容": "アミライフ・桜ヶ丘【認知症対応型共同生活介護】奈良県生駒市桜ヶ丘３番５７号アミライフ・桜ヶ丘", "url": "https://www.kaigokensaku.mhlw.go.jp/29/index.php?action_kouhyou_detail_004_kani=true&JigyosyoCd=2970900508-00&ServiceCd=320&Type=search", "url2": "http://abikocare.co.jp" }, "geometry": { "type": "Point", "coordinates": [ 135.702108299999963, 34.7009895 ] } },
{ "type": "Feature", "properties": { "内容": "フレンド生駒・菜の花　I・II【認知症対応型共同生活介護】生駒市中菜畑2丁目1117", "url": "https://www.kaigokensaku.mhlw.go.jp/29/index.php?action_kouhyou_detail_004_kani=true&JigyosyoCd=2970900334-00&ServiceCd=320&Type=search", "url2": "http://www.wellconsul.co.jp" }, "geometry": { "type": "Point", "coordinates": [ 135.7058945, 34.6818051 ] } },
{ "type": "Feature", "properties": { "内容": "にぎやか大家族　ｸﾞﾙｰﾌﾟﾎｰﾑさくら【認知症対応型共同生活介護】奈良県生駒市西白庭台2丁目1-1にぎやか大家族ｸﾞﾙｰﾌﾟﾎｰﾑさくら", "url": "https://www.kaigokensaku.mhlw.go.jp/29/index.php?action_kouhyou_detail_004_kani=true&JigyosyoCd=2990900082-00&ServiceCd=320&Type=search", "url2": "http://にぎやか大家族.com/" }, "geometry": { "type": "Point", "coordinates": [ 135.705868799999962, 34.7271007 ] } },
{ "type": "Feature", "properties": { "内容": "グループホーム檪の家【認知症対応型共同生活介護】生駒市萩の台４－４－１", "url": "https://www.kaigokensaku.mhlw.go.jp/29/index.php?action_kouhyou_detail_004_kani=true&JigyosyoCd=2990900124-00&ServiceCd=320&Type=search", "url2": "http://sousei-ikoma.com" }, "geometry": { "type": "Point", "coordinates": [ 135.714993700000036, 34.6547993 ] } },
{ "type": "Feature", "properties": { "内容": "グループホーム壱分町ちどり【認知症対応型共同生活介護】奈良県生駒市壱分町83番2", "url": "https://www.kaigokensaku.mhlw.go.jp/29/index.php?action_kouhyou_detail_004_kani=true&JigyosyoCd=2990900066-00&ServiceCd=320&Type=search", "url2": "http://chidori.or.jp" }, "geometry": { "type": "Point", "coordinates": [ 135.716057699999965, 34.6696896 ] } },
{ "type": "Feature", "properties": { "内容": "グループホーム高山ちどり【認知症対応型共同生活介護】奈良県生駒市高山町8030番地", "url": "https://www.kaigokensaku.mhlw.go.jp/29/index.php?action_kouhyou_detail_004_kani=true&JigyosyoCd=2990900199-00&ServiceCd=320&Type=search", "url2": "https://www.chidori.or.jp/facility/takayama3/" }, "geometry": { "type": "Point", "coordinates": [ 135.7263788, 34.7280697 ] } },
{ "type": "Feature", "properties": { "内容": "グループホームハビリス鵄邑Ⅱ【認知症対応型共同生活介護】奈良県生駒市上町2番地1", "url": "https://www.kaigokensaku.mhlw.go.jp/29/index.php?action_kouhyou_detail_004_kani=true&JigyosyoCd=2990900207-00&ServiceCd=320&Type=search", "url2": "https://asukakai.or.jp" }, "geometry": { "type": "Point", "coordinates": [ 135.7287454, 34.7099062 ] } },
{ "type": "Feature", "properties": { "内容": "グループホーム　かしの木【認知症対応型共同生活介護】奈良県香芝市良福寺　３７－３", "url": "https://www.kaigokensaku.mhlw.go.jp/29/index.php?action_kouhyou_detail_004_kani=true&JigyosyoCd=2991000031-00&ServiceCd=320&Type=search", "url2": "http://akemidorikai.or.jp/" }, "geometry": { "type": "Point", "coordinates": [ 135.707705499999946, 34.5259111 ] } },
{ "type": "Feature", "properties": { "内容": "グループホームすばる【認知症対応型共同生活介護】奈良県香芝市鎌田157-1", "url": "https://www.kaigokensaku.mhlw.go.jp/29/index.php?action_kouhyou_detail_004_kani=true&JigyosyoCd=2971000258-00&ServiceCd=320&Type=search", "url2": "https://subaru-souryukai.jp/" }, "geometry": { "type": "Point", "coordinates": [ 135.712563300000056, 34.5218367 ] } },
{ "type": "Feature", "properties": { "内容": "ホームケアー香芝【認知症対応型共同生活介護】奈良県香芝市五位堂6丁目220-1", "url": "https://www.kaigokensaku.mhlw.go.jp/29/index.php?action_kouhyou_detail_004_kani=true&JigyosyoCd=2971000431-00&ServiceCd=320&Type=search", "url2": "https://homecare.co.jp/" }, "geometry": { "type": "Point", "coordinates": [ 135.718345900000031, 34.5294109 ] } },
{ "type": "Feature", "properties": { "内容": "グループホーム　てのひら【認知症対応型共同生活介護】香芝市上中50番地7グループホーム　てのひら", "url": "https://www.kaigokensaku.mhlw.go.jp/29/index.php?action_kouhyou_detail_004_kani=true&JigyosyoCd=2971000415-00&ServiceCd=320&Type=search", "url2": "http://www.tenohira.org/" }, "geometry": { "type": "Point", "coordinates": [ 135.69969459999993, 34.5642617 ] } },
{ "type": "Feature", "properties": { "内容": "愛の家グループホーム香芝【認知症対応型共同生活介護】奈良県香芝市五位堂１丁目３４１－１", "url": "https://www.kaigokensaku.mhlw.go.jp/29/index.php?action_kouhyou_detail_004_kani=true&JigyosyoCd=2991000015-00&ServiceCd=320&Type=search", "url2": "http://www.mcsg.co.jp" }, "geometry": { "type": "Point", "coordinates": [ 135.714190700000017, 34.5319688 ] } },
{ "type": "Feature", "properties": { "内容": "グループホーム希【認知症対応型共同生活介護】奈良県香芝市穴虫1673番7", "url": "https://www.kaigokensaku.mhlw.go.jp/29/index.php?action_kouhyou_detail_004_kani=true&JigyosyoCd=2991000106-00&ServiceCd=320&Type=search", "url2": "http://nozomi4186.com/index.html" }, "geometry": { "type": "Point", "coordinates": [ 135.684534860882536, 34.546794935242623 ] } },
{ "type": "Feature", "properties": { "内容": "グループホームかしの木【認知症対応型共同生活介護】奈良県香芝市良福寺37-3", "url": "https://www.kaigokensaku.mhlw.go.jp/29/index.php?action_kouhyou_detail_004_kani=true&JigyosyoCd=2991000130-00&ServiceCd=320&Type=search", "url2": "https://kashinoki-g.haruhinosato.or.jp/" }, "geometry": { "type": "Point", "coordinates": [ 135.707765099999989, 34.5259299 ] } },
{ "type": "Feature", "properties": { "内容": "大和園　すみれ野【認知症対応型共同生活介護】奈良県　香芝市　すみれ野1丁目13-3", "url": "https://www.kaigokensaku.mhlw.go.jp/29/index.php?action_kouhyou_detail_004_kani=true&JigyosyoCd=2991000155-00&ServiceCd=320&Type=search", "url2": "http://www.yamatoen.or.jp/" }, "geometry": { "type": "Point", "coordinates": [ 135.7138228, 34.540416700000016 ] } },
{ "type": "Feature", "properties": { "内容": "グループホームかつらぎの里【認知症対応型共同生活介護】奈良県葛城市林堂225-5", "url": "https://www.kaigokensaku.mhlw.go.jp/29/index.php?action_kouhyou_detail_004_kani=true&JigyosyoCd=2974800126-00&ServiceCd=320&Type=search", "url2": null }, "geometry": { "type": "Point", "coordinates": [ 135.720986, 34.4759201 ] } },
{ "type": "Feature", "properties": { "内容": "悠久の里【認知症対応型共同生活介護】葛城市新在家393-3", "url": "https://www.kaigokensaku.mhlw.go.jp/29/index.php?action_kouhyou_detail_004_kani=true&JigyosyoCd=2994800015-00&ServiceCd=320&Type=search", "url2": null }, "geometry": { "type": "Point", "coordinates": [ 135.692493199999944, 34.5260774 ] } },
{ "type": "Feature", "properties": { "内容": "悠生の里【認知症対応型共同生活介護】奈良県葛城市染野204-1", "url": "https://www.kaigokensaku.mhlw.go.jp/29/index.php?action_kouhyou_detail_004_kani=true&JigyosyoCd=2994800049-00&ServiceCd=320&Type=search", "url2": null }, "geometry": { "type": "Point", "coordinates": [ 135.698875924951778, 34.521155540059205 ] } },
{ "type": "Feature", "properties": { "内容": "グループホーム四つ葉のクローバー【認知症対応型共同生活介護】奈良県宇陀市菟田野古市場481番地", "url": "https://www.kaigokensaku.mhlw.go.jp/29/index.php?action_kouhyou_detail_004_kani=true&JigyosyoCd=2972200089-00&ServiceCd=320&Type=search", "url2": "hppt://www.grandsoul.co.jp/clover/" }, "geometry": { "type": "Point", "coordinates": [ 135.974322118221835, 34.473260319680364 ] } },
{ "type": "Feature", "properties": { "内容": "グループホームひまわり【認知症対応型共同生活介護】奈良県宇陀市榛原萩原750番地", "url": "https://www.kaigokensaku.mhlw.go.jp/29/index.php?action_kouhyou_detail_004_kani=true&JigyosyoCd=2972300129-00&ServiceCd=320&Type=search", "url2": "https://www.sg-himawari.com/" }, "geometry": { "type": "Point", "coordinates": [ 135.960676899999953, 34.529504 ] } },
{ "type": "Feature", "properties": { "内容": "大宇陀グループホームラガール【認知症対応型共同生活介護】奈良県宇陀市大宇陀迫間１６６－１", "url": "https://www.kaigokensaku.mhlw.go.jp/29/index.php?action_kouhyou_detail_004_kani=true&JigyosyoCd=2994900039-00&ServiceCd=320&Type=search", "url2": "http://www.koudoukai.or.jp/" }, "geometry": { "type": "Point", "coordinates": [ 135.927066, 34.4792035 ] } },
{ "type": "Feature", "properties": { "内容": "グループホーム愛【認知症対応型共同生活介護】宇陀市室生大野1685-2", "url": "https://www.kaigokensaku.mhlw.go.jp/29/index.php?action_kouhyou_detail_004_kani=true&JigyosyoCd=2994900047-00&ServiceCd=320&Type=search", "url2": null }, "geometry": { "type": "Point", "coordinates": [ 136.015887769589199, 34.563772499439111 ] } },
{ "type": "Feature", "properties": { "内容": "一樹の里【認知症対応型共同生活介護】奈良県山辺郡山添村大字三ケ谷1064-1", "url": "https://www.kaigokensaku.mhlw.go.jp/29/index.php?action_kouhyou_detail_004_kani=true&JigyosyoCd=2991300019-00&ServiceCd=320&Type=search", "url2": null }, "geometry": { "type": "Point", "coordinates": [ 136.025280699722344, 34.654828874540826 ] } },
{ "type": "Feature", "properties": { "内容": "ＮＰＯ法人信貴山やすらぎ会「グループホームやすらぎ」【認知症対応型共同生活介護】奈良県生駒郡平群町菊美台1丁目２０６－１", "url": "https://www.kaigokensaku.mhlw.go.jp/29/index.php?action_kouhyou_detail_004_kani=true&JigyosyoCd=2971400144-00&ServiceCd=320&Type=search", "url2": "http://npo-sy.org/" }, "geometry": { "type": "Point", "coordinates": [ 135.708502025270036, 34.645763812389433 ] } },
{ "type": "Feature", "properties": { "内容": "平群の里【認知症対応型共同生活介護】生駒郡平群町福貴１３５４－１１", "url": "https://www.kaigokensaku.mhlw.go.jp/29/index.php?action_kouhyou_detail_004_kani=true&JigyosyoCd=2971400078-00&ServiceCd=320&Type=search", "url2": "http://heguri.akebono-kai.com/" }, "geometry": { "type": "Point", "coordinates": [ 135.69250790000001, 34.6332095 ] } },
{ "type": "Feature", "properties": { "内容": "グループホーム　グレース【認知症対応型共同生活介護】奈良県生駒郡平群町越木塚336-1", "url": "https://www.kaigokensaku.mhlw.go.jp/29/index.php?action_kouhyou_detail_004_kani=true&JigyosyoCd=2971400201-00&ServiceCd=320&Type=search", "url2": "http://shinaikai.net/" }, "geometry": { "type": "Point", "coordinates": [ 135.686768391540568, 34.622578778061126 ] } },
{ "type": "Feature", "properties": { "内容": "グループホーム　LUPIN平群【認知症対応型共同生活介護】奈良県生駒郡平群町上庄3-7-25", "url": "https://www.kaigokensaku.mhlw.go.jp/29/index.php?action_kouhyou_detail_004_kani=true&JigyosyoCd=2971400227-00&ServiceCd=320&Type=search", "url2": "http://www.lupin-inc.co.jp/" }, "geometry": { "type": "Point", "coordinates": [ 135.707089399999944, 34.6397673 ] } },
{ "type": "Feature", "properties": { "内容": "特定非営利活動法人信貴山やすらぎ会グループホームやすらぎ２【認知症対応型共同生活介護】奈良県生駒郡平群町菊美台１丁目206-11", "url": "https://www.kaigokensaku.mhlw.go.jp/29/index.php?action_kouhyou_detail_004_kani=true&JigyosyoCd=2991400041-00&ServiceCd=320&Type=search", "url2": "http://npo-sy.org/" }, "geometry": { "type": "Point", "coordinates": [ 135.708467, 34.6457751 ] } },
{ "type": "Feature", "properties": { "内容": "グループホーム　はあとの杜　しぎさん【認知症対応型共同生活介護】生駒郡三郷町勢野北4-3-5", "url": "https://www.kaigokensaku.mhlw.go.jp/29/index.php?action_kouhyou_detail_004_kani=true&JigyosyoCd=2971500224-00&ServiceCd=320&Type=search", "url2": "http://www.heartland.or.jp" }, "geometry": { "type": "Point", "coordinates": [ 135.685550299999932, 34.6067481 ] } },
{ "type": "Feature", "properties": { "内容": "グループホーム　はあとの杜さんごう【認知症対応型共同生活介護】奈良県生駒郡三郷町立野南２丁目９番３３号", "url": "https://www.kaigokensaku.mhlw.go.jp/29/index.php?action_kouhyou_detail_004_kani=true&JigyosyoCd=2991500030-00&ServiceCd=320&Type=search", "url2": "https://www.heartland.or.jp/heart_mori/sango/" }, "geometry": { "type": "Point", "coordinates": [ 135.686919425131236, 34.58969741026754 ] } },
{ "type": "Feature", "properties": { "内容": "グループホームシオンの郷【認知症対応型共同生活介護】信貴ｹ丘３－４－２１", "url": "https://www.kaigokensaku.mhlw.go.jp/29/index.php?action_kouhyou_detail_004_kani=true&JigyosyoCd=2991500055-00&ServiceCd=320&Type=search", "url2": "http://wakoukai.ne.jp/publics/index/142/" }, "geometry": { "type": "Point", "coordinates": [ 135.694207799999958, 34.604615 ] } },
{ "type": "Feature", "properties": { "内容": "グループホーム　メイプル・メイプル【認知症対応型共同生活介護】興留3-2-6", "url": "https://www.kaigokensaku.mhlw.go.jp/29/index.php?action_kouhyou_detail_004_kani=true&JigyosyoCd=2991600020-00&ServiceCd=320&Type=search", "url2": "http://www.yatasan.net/" }, "geometry": { "type": "Point", "coordinates": [ 135.740334699999948, 34.6076905 ] } },
{ "type": "Feature", "properties": { "内容": "グループホームぱんだ【認知症対応型共同生活介護】興留3-2-6", "url": "https://www.kaigokensaku.mhlw.go.jp/29/index.php?action_kouhyou_detail_004_kani=true&JigyosyoCd=2991600061-00&ServiceCd=320&Type=search", "url2": null }, "geometry": { "type": "Point", "coordinates": [ 135.7405032, 34.6080512 ] } },
{ "type": "Feature", "properties": { "内容": "グループホームふれあい斑鳩【認知症対応型共同生活介護】奈良県生駒郡斑鳩町興留4丁目1番35号", "url": "https://www.kaigokensaku.mhlw.go.jp/29/index.php?action_kouhyou_detail_004_kani=true&JigyosyoCd=2991600079-00&ServiceCd=320&Type=search", "url2": "https://www.fureai-net.com/" }, "geometry": { "type": "Point", "coordinates": [ 135.7347446, 34.6045584 ] } },
{ "type": "Feature", "properties": { "内容": "グループホーム　カノンの扉【認知症対応型共同生活介護】阿波３－１１－６", "url": "https://www.kaigokensaku.mhlw.go.jp/29/index.php?action_kouhyou_detail_004_kani=true&JigyosyoCd=2991600038-00&ServiceCd=320&Type=search", "url2": "http://wakoukai.ne.jp/publics/index/143/" }, "geometry": { "type": "Point", "coordinates": [ 135.740665400000012, 34.6003108 ] } },
{ "type": "Feature", "properties": { "内容": "グループホーム安堵園【認知症対応型共同生活介護】奈良県生駒郡安堵町西安堵570-1", "url": "https://www.kaigokensaku.mhlw.go.jp/29/index.php?action_kouhyou_detail_004_kani=true&JigyosyoCd=2991700010-00&ServiceCd=320&Type=search", "url2": "http://grouphomeandoen.okoshi-yasu.com/" }, "geometry": { "type": "Point", "coordinates": [ 135.753144081475853, 34.605635122836382 ] } },
{ "type": "Feature", "properties": { "内容": "グループホーム安堵園Ⅱ【認知症対応型共同生活介護】奈良県生駒郡安堵町西安堵570-1", "url": "https://www.kaigokensaku.mhlw.go.jp/29/index.php?action_kouhyou_detail_004_kani=true&JigyosyoCd=2991700028-00&ServiceCd=320&Type=search", "url2": "http://grouphomeandoen.okoshi-yasu.com/" }, "geometry": { "type": "Point", "coordinates": [ 135.7509139, 34.6013031 ] } },
{ "type": "Feature", "properties": { "内容": "社会福祉法人いわれ会　ぬくもりの郷グループホーム【認知症対応型共同生活介護】奈良県磯城郡川西町大字吐田９４番地", "url": "https://www.kaigokensaku.mhlw.go.jp/29/index.php?action_kouhyou_detail_004_kani=true&JigyosyoCd=2991800018-00&ServiceCd=320&Type=search", "url2": "https://tawaramotoen.jp" }, "geometry": { "type": "Point", "coordinates": [ 135.777421, 34.5942654 ] } },
{ "type": "Feature", "properties": { "内容": "グループホームなごみの里【認知症対応型共同生活介護】奈良県磯城郡三宅町伴堂５３８番地", "url": "https://www.kaigokensaku.mhlw.go.jp/29/index.php?action_kouhyou_detail_004_kani=true&JigyosyoCd=2971900036-00&ServiceCd=320&Type=search", "url2": null }, "geometry": { "type": "Point", "coordinates": [ 135.773849299999938, 34.5775642 ] } },
{ "type": "Feature", "properties": { "内容": "グループホームはあとの杜田原本【認知症対応型共同生活介護】奈良県磯城郡田原本町大字小阪64-3", "url": "https://www.kaigokensaku.mhlw.go.jp/29/index.php?action_kouhyou_detail_004_kani=true&JigyosyoCd=2992000048-00&ServiceCd=320&Type=search", "url2": "http://www.heartland.or.jp" }, "geometry": { "type": "Point", "coordinates": [ 135.796630899999968, 34.563797 ] } },
{ "type": "Feature", "properties": { "内容": "グループホーム葵【認知症対応型共同生活介護】奈良県磯城郡田原本町千代８３９－１６", "url": "https://www.kaigokensaku.mhlw.go.jp/29/index.php?action_kouhyou_detail_004_kani=true&JigyosyoCd=2972000364-00&ServiceCd=320&Type=search", "url2": null }, "geometry": { "type": "Point", "coordinates": [ 135.7976142, 34.545452 ] } },
{ "type": "Feature", "properties": { "内容": "グループホーム愛和園【認知症対応型共同生活介護】奈良県磯城郡田原本町大字秦庄334-1", "url": "https://www.kaigokensaku.mhlw.go.jp/29/index.php?action_kouhyou_detail_004_kani=true&JigyosyoCd=2992000063-00&ServiceCd=320&Type=search", "url2": null }, "geometry": { "type": "Point", "coordinates": [ 135.794020100000012, 34.5443548 ] } },
{ "type": "Feature", "properties": { "内容": "福祉センターすいせんの丘【認知症対応型共同生活介護】奈良県磯城郡田原本町大字平田272番地1", "url": "https://www.kaigokensaku.mhlw.go.jp/29/index.php?action_kouhyou_detail_004_kani=true&JigyosyoCd=2992000055-00&ServiceCd=320&Type=search", "url2": "https://www.yukarinosatoen.com" }, "geometry": { "type": "Point", "coordinates": [ 135.813202810836856, 34.556560962965776 ] } },
{ "type": "Feature", "properties": { "内容": "グループホーム磯城【認知症対応型共同生活介護】奈良県磯城郡田原本町大字秦庄３３６番地の1", "url": "https://www.kaigokensaku.mhlw.go.jp/29/index.php?action_kouhyou_detail_004_kani=true&JigyosyoCd=2992000022-00&ServiceCd=320&Type=search", "url2": null }, "geometry": { "type": "Point", "coordinates": [ 135.793924112869973, 34.544509389164254 ] } },
{ "type": "Feature", "properties": { "内容": "認知症対応型共同生活介護うぐいすの家【認知症対応型共同生活介護】奈良県宇陀郡御杖村大字神末4029-106", "url": "https://www.kaigokensaku.mhlw.go.jp/29/index.php?action_kouhyou_detail_004_kani=true&JigyosyoCd=2992600037-00&ServiceCd=320&Type=search", "url2": "http://www.tenno.or.jp/" }, "geometry": { "type": "Point", "coordinates": [ 136.199605385705581, 34.513388642562326 ] } },
{ "type": "Feature", "properties": { "内容": "グループホーム六花【認知症対応型共同生活介護】奈良県北葛城郡上牧町上牧５３７－２", "url": "https://www.kaigokensaku.mhlw.go.jp/29/index.php?action_kouhyou_detail_004_kani=true&JigyosyoCd=2993100011-00&ServiceCd=320&Type=search", "url2": "http://www.kawachi.zaq.ne.jp/rokka/index.html" }, "geometry": { "type": "Point", "coordinates": [ 135.71157960000005, 34.5614374 ] } },
{ "type": "Feature", "properties": { "内容": "かりゆしの郷【認知症対応型共同生活介護】奈良県北葛城郡上牧町下牧1-980-6", "url": "https://www.kaigokensaku.mhlw.go.jp/29/index.php?action_kouhyou_detail_004_kani=true&JigyosyoCd=2993100029-00&ServiceCd=320&Type=search", "url2": "http://www.yamabiko-kanmaki.com" }, "geometry": { "type": "Point", "coordinates": [ 135.722167300000024, 34.5734307 ] } },
{ "type": "Feature", "properties": { "内容": "フレンド王寺【認知症対応型共同生活介護】奈良県北葛城郡王寺町元町1丁目7-41", "url": "https://www.kaigokensaku.mhlw.go.jp/29/index.php?action_kouhyou_detail_004_kani=true&JigyosyoCd=2993200019-00&ServiceCd=320&Type=search", "url2": "http://www.wellconsul.co.jp" }, "geometry": { "type": "Point", "coordinates": [ 135.699952100000019, 34.5923694 ] } },
{ "type": "Feature", "properties": { "内容": "グループホームここから王寺町【認知症対応型共同生活介護】奈良県北葛城郡王寺町本町4丁目4番16号", "url": "https://www.kaigokensaku.mhlw.go.jp/29/index.php?action_kouhyou_detail_004_kani=true&JigyosyoCd=2973200211-00&ServiceCd=320&Type=search", "url2": "http://www.cocokara-ojicho.jp/" }, "geometry": { "type": "Point", "coordinates": [ 135.705495928836058, 34.583454614056038 ] } },
{ "type": "Feature", "properties": { "内容": "グループホーム　ふれあい広陵【認知症対応型共同生活介護】奈良県北葛城郡広陵町三吉　２８－１", "url": "https://www.kaigokensaku.mhlw.go.jp/29/index.php?action_kouhyou_detail_004_kani=true&JigyosyoCd=2993300017-00&ServiceCd=320&Type=search", "url2": "http://www.fureai-net.com/" }, "geometry": { "type": "Point", "coordinates": [ 135.739996132026306, 34.553368480413575 ] } },
{ "type": "Feature", "properties": { "内容": "グループホーム　煌めき【認知症対応型共同生活介護】奈良県北葛城郡広陵町南郷417-1", "url": "https://www.kaigokensaku.mhlw.go.jp/29/index.php?action_kouhyou_detail_004_kani=true&JigyosyoCd=2993300025-00&ServiceCd=320&Type=search", "url2": "https://kirameki-nara.jp/" }, "geometry": { "type": "Point", "coordinates": [ 135.754423158860845, 34.541635787514821 ] } },
{ "type": "Feature", "properties": { "内容": "グループホーム西之岡２番館【認知症対応型共同生活介護】奈良県北葛城郡河合町大輪田４２０－２", "url": "https://www.kaigokensaku.mhlw.go.jp/29/index.php?action_kouhyou_detail_004_kani=true&JigyosyoCd=2993400015-00&ServiceCd=320&Type=search", "url2": null }, "geometry": { "type": "Point", "coordinates": [ 135.718225399999938, 34.5928699 ] } },
{ "type": "Feature", "properties": { "内容": "グループホーム　和・泉【認知症対応型共同生活介護】奈良県北葛城郡河合町泉台三丁目8番地24", "url": "https://www.kaigokensaku.mhlw.go.jp/29/index.php?action_kouhyou_detail_004_kani=true&JigyosyoCd=2973400183-00&ServiceCd=320&Type=search", "url2": "https://www.nagomiizumi.com/" }, "geometry": { "type": "Point", "coordinates": [ 135.736043600000016, 34.5910147 ] } },
{ "type": "Feature", "properties": { "内容": "グループホーム西之岡【認知症対応型共同生活介護】奈良県北葛城郡河合町大輪田４２０－１", "url": "https://www.kaigokensaku.mhlw.go.jp/29/index.php?action_kouhyou_detail_004_kani=true&JigyosyoCd=2973400191-00&ServiceCd=320&Type=search", "url2": null }, "geometry": { "type": "Point", "coordinates": [ 135.718353200000024, 34.5928282 ] } },
{ "type": "Feature", "properties": { "内容": "俊株式会社【認知症対応型共同生活介護】奈良県北葛城郡河合町佐味田2510グループホームアシスト緑の丘", "url": "https://www.kaigokensaku.mhlw.go.jp/29/index.php?action_kouhyou_detail_004_kani=true&JigyosyoCd=2993400023-00&ServiceCd=320&Type=search", "url2": null }, "geometry": { "type": "Point", "coordinates": [ 135.734393037187118, 34.567597889837089 ] } },
{ "type": "Feature", "properties": { "内容": "ホームケアー吉野【認知症対応型共同生活介護】奈良県吉野郡吉野町大字楢井700番地の1", "url": "https://www.kaigokensaku.mhlw.go.jp/29/index.php?action_kouhyou_detail_004_kani=true&JigyosyoCd=2993500012-00&ServiceCd=320&Type=search", "url2": "http://www.homecare.co.jp" }, "geometry": { "type": "Point", "coordinates": [ 135.8904162, 34.383717 ] } },
{ "type": "Feature", "properties": { "内容": "グループホーム柳光【認知症対応型共同生活介護】奈良県吉野郡吉野町大字柳１３９５番１", "url": "https://www.kaigokensaku.mhlw.go.jp/29/index.php?action_kouhyou_detail_004_kani=true&JigyosyoCd=2993500020-00&ServiceCd=320&Type=search", "url2": "https://www.taiyounomura.org/" }, "geometry": { "type": "Point", "coordinates": [ 135.918512910450772, 34.417698819013651 ] } },
{ "type": "Feature", "properties": { "内容": "グループホームさくらの里【認知症対応型共同生活介護】奈良県吉野郡大淀町今木８８０番地", "url": "https://www.kaigokensaku.mhlw.go.jp/29/index.php?action_kouhyou_detail_004_kani=true&JigyosyoCd=2973600147-00&ServiceCd=320&Type=search", "url2": null }, "geometry": { "type": "Point", "coordinates": [ 135.771039299999984, 34.3988965 ] } },
{ "type": "Feature", "properties": { "内容": "認知症高齢者グループホーム「華やぎの里」【認知症対応型共同生活介護】奈良県吉野郡大淀町大字北野６６－７", "url": "https://www.kaigokensaku.mhlw.go.jp/29/index.php?action_kouhyou_detail_004_kani=true&JigyosyoCd=2973600113-00&ServiceCd=320&Type=search", "url2": null }, "geometry": { "type": "Point", "coordinates": [ 135.817990799999961, 34.3961779 ] } },
{ "type": "Feature", "properties": { "内容": "グループホームゆうゆう苑【認知症対応型共同生活介護】奈良県吉野郡野迫川村上401-1", "url": "https://www.kaigokensaku.mhlw.go.jp/29/index.php?action_kouhyou_detail_004_kani=true&JigyosyoCd=2994100028-00&ServiceCd=320&Type=search", "url2": null }, "geometry": { "type": "Point", "coordinates": [ 135.651471300000026, 34.207079 ] } },
{ "type": "Feature", "properties": { "内容": "グループホーム太陽十津川折立の郷【認知症対応型共同生活介護】奈良県吉野郡十津川村折立364番地の1", "url": "https://www.kaigokensaku.mhlw.go.jp/29/index.php?action_kouhyou_detail_004_kani=true&JigyosyoCd=2974300093-00&ServiceCd=320&Type=search", "url2": "http://www2.ocn.ne.jp/~oritachi/" }, "geometry": { "type": "Point", "coordinates": [ 135.8041839, 33.9491117 ] } },
{ "type": "Feature", "properties": { "内容": "グループホーム平谷あきの里【認知症対応型共同生活介護】奈良県吉野郡十津川村平谷458-1", "url": "https://www.kaigokensaku.mhlw.go.jp/29/index.php?action_kouhyou_detail_004_kani=true&JigyosyoCd=2994300016-00&ServiceCd=320&Type=search", "url2": null }, "geometry": { "type": "Point", "coordinates": [ 135.768589058061281, 33.940866545852643 ] } }
]
}
