{
"type": "FeatureCollection",
"name": "geo_29_地域密着型通所介護",
"crs": { "type": "name", "properties": { "name": "urn:ogc:def:crs:OGC:1.3:CRS84" } },
"features": [
{ "type": "Feature", "properties": { "内容": "デイサービス東九条　ひかり【地域密着型通所介護】奈良市東九条町720番地の1", "url": "https://www.kaigokensaku.mhlw.go.jp/29/index.php?action_kouhyou_detail_004_kani=true&JigyosyoCd=2970103103-00&ServiceCd=780&Type=search", "url2": null }, "geometry": { "type": "Point", "coordinates": [ 135.817696699999942, 34.6608704 ] } },
{ "type": "Feature", "properties": { "内容": "高の原デイサービス【地域密着型通所介護】奈良県奈良市朱雀6丁目2-15", "url": "https://www.kaigokensaku.mhlw.go.jp/29/index.php?action_kouhyou_detail_004_kani=true&JigyosyoCd=2970102519-00&ServiceCd=780&Type=search", "url2": "http://www.wellconsul.co.jp" }, "geometry": { "type": "Point", "coordinates": [ 135.796647300000018, 34.7148223 ] } },
{ "type": "Feature", "properties": { "内容": "樹楽　富雄【地域密着型通所介護】奈良県奈良市富雄川西1-18-31", "url": "https://www.kaigokensaku.mhlw.go.jp/29/index.php?action_kouhyou_detail_004_kani=true&JigyosyoCd=2990100600-00&ServiceCd=780&Type=search", "url2": "http://www.kiraku-ac.com/shisetsu/home/nara/tomio.php?staff=" }, "geometry": { "type": "Point", "coordinates": [ 135.729783084655764, 34.694372350728166 ] } },
{ "type": "Feature", "properties": { "内容": "楽【地域密着型通所介護】奈良県奈良市古市町1400-3", "url": "https://www.kaigokensaku.mhlw.go.jp/29/index.php?action_kouhyou_detail_004_kani=true&JigyosyoCd=2990100733-00&ServiceCd=780&Type=search", "url2": null }, "geometry": { "type": "Point", "coordinates": [ 135.830723400000011, 34.6635393 ] } },
{ "type": "Feature", "properties": { "内容": "ぽれぽれ四条大路【地域密着型通所介護】奈良県奈良市四条大路二丁目８６０番地１", "url": "https://www.kaigokensaku.mhlw.go.jp/29/index.php?action_kouhyou_detail_004_kani=true&JigyosyoCd=2970100141-00&ServiceCd=780&Type=search", "url2": "ｈｔｐｐ：//www.porepore.co.jp" }, "geometry": { "type": "Point", "coordinates": [ 135.799042500000041, 34.6804986 ] } },
{ "type": "Feature", "properties": { "内容": "ぽれぽれ秋篠　II【地域密着型通所介護】奈良市秋篠三和町１－388-11", "url": "https://www.kaigokensaku.mhlw.go.jp/29/index.php?action_kouhyou_detail_004_kani=true&JigyosyoCd=2970104432-00&ServiceCd=780&Type=search", "url2": "http://www.porepore.co.jp" }, "geometry": { "type": "Point", "coordinates": [ 135.777149399999985, 34.6999015 ] } },
{ "type": "Feature", "properties": { "内容": "デイサービス　ゆうか【地域密着型通所介護】奈良市今市町361-6", "url": "https://www.kaigokensaku.mhlw.go.jp/29/index.php?action_kouhyou_detail_004_kani=true&JigyosyoCd=2970104549-00&ServiceCd=780&Type=search", "url2": null }, "geometry": { "type": "Point", "coordinates": [ 135.82486, 34.6448446 ] } },
{ "type": "Feature", "properties": { "内容": "サンタ・マリア　デイサービスセンター”ゆり”【地域密着型通所介護】奈良市朱雀4丁目3-1", "url": "https://www.kaigokensaku.mhlw.go.jp/29/index.php?action_kouhyou_detail_004_kani=true&JigyosyoCd=2990100451-00&ServiceCd=780&Type=search", "url2": "http://www.yozefu-home.or.jp/" }, "geometry": { "type": "Point", "coordinates": [ 135.799210799999969, 34.7206495 ] } },
{ "type": "Feature", "properties": { "内容": "有限会社ふぁみり-えいど【地域密着型通所介護】奈良市五条西１-２９-１７", "url": "https://www.kaigokensaku.mhlw.go.jp/29/index.php?action_kouhyou_detail_004_kani=true&JigyosyoCd=2970101644-00&ServiceCd=780&Type=search", "url2": "http://www4.plala.or.jp/family-aid/" }, "geometry": { "type": "Point", "coordinates": [ 135.768535400000019, 34.6745171 ] } },
{ "type": "Feature", "properties": { "内容": "リッスンデイサービスセンター【地域密着型通所介護】奈良県奈良市法蓮町１３４８", "url": "https://www.kaigokensaku.mhlw.go.jp/29/index.php?action_kouhyou_detail_004_kani=true&JigyosyoCd=2970104564-00&ServiceCd=780&Type=search", "url2": "http://listen33.jp" }, "geometry": { "type": "Point", "coordinates": [ 135.827695100000028, 34.6930028 ] } },
{ "type": "Feature", "properties": { "内容": "デイサービス・青い鳥大宮【地域密着型通所介護】大宮町2-3-4-103東急ドエル奈良パークビレジ4棟", "url": "https://www.kaigokensaku.mhlw.go.jp/29/index.php?action_kouhyou_detail_004_kani=true&JigyosyoCd=2990100659-00&ServiceCd=780&Type=search", "url2": "amenitylife-assist.org" }, "geometry": { "type": "Point", "coordinates": [ 138.9207551, 35.1222507 ] } },
{ "type": "Feature", "properties": { "内容": "機能訓練デイサービス壮寿リハトレ広場【地域密着型通所介護】奈良県奈良市南京終町1丁目154-6", "url": "https://www.kaigokensaku.mhlw.go.jp/29/index.php?action_kouhyou_detail_004_kani=true&JigyosyoCd=2970105835-00&ServiceCd=780&Type=search", "url2": null }, "geometry": { "type": "Point", "coordinates": [ 135.8216902, 34.6698439 ] } },
{ "type": "Feature", "properties": { "内容": "特別養護老人ホーム梅花苑【地域密着型通所介護】奈良市大和田町2226番地", "url": "https://www.kaigokensaku.mhlw.go.jp/29/index.php?action_kouhyou_detail_004_kani=true&JigyosyoCd=2970104200-00&ServiceCd=780&Type=search", "url2": "http://www.wellconsul.co.jp/main/shisetu/tokubetuyougo.html" }, "geometry": { "type": "Point", "coordinates": [ 135.743710800000031, 34.6673793 ] } },
{ "type": "Feature", "properties": { "内容": "社会福祉法人奈良市社会福祉協議会鳥見デイサービスセンター“ふらっと”【地域密着型通所介護】奈良市三碓町2204番地", "url": "https://www.kaigokensaku.mhlw.go.jp/29/index.php?action_kouhyou_detail_004_kani=true&JigyosyoCd=2970105595-00&ServiceCd=780&Type=search", "url2": "http://www.narashi-shakyo.com/" }, "geometry": { "type": "Point", "coordinates": [ 135.722645899999947, 34.6933124 ] } },
{ "type": "Feature", "properties": { "内容": "よりあい処れん【地域密着型通所介護】奈良県奈良市法蓮町973-1", "url": "https://www.kaigokensaku.mhlw.go.jp/29/index.php?action_kouhyou_detail_004_kani=true&JigyosyoCd=2970106858-00&ServiceCd=780&Type=search", "url2": "https://buririan.littlestar.jp/" }, "geometry": { "type": "Point", "coordinates": [ 135.821767599999987, 34.691394399999986 ] } },
{ "type": "Feature", "properties": { "内容": "ぐっどデイサービス【地域密着型通所介護】奈良県奈良市富雄元町3丁目1－13ききょう富雄ビル3階", "url": "https://www.kaigokensaku.mhlw.go.jp/29/index.php?action_kouhyou_detail_004_kani=true&JigyosyoCd=2990190031-00&ServiceCd=780&Type=search", "url2": null }, "geometry": { "type": "Point", "coordinates": [ 135.7336446, 34.6929729 ] } },
{ "type": "Feature", "properties": { "内容": "ひなたデイサービス【地域密着型通所介護】奈良市恋の窪３丁目8-2-1恋の窪テナントＤ室", "url": "https://www.kaigokensaku.mhlw.go.jp/29/index.php?action_kouhyou_detail_004_kani=true&JigyosyoCd=2990190197-00&ServiceCd=780&Type=search", "url2": null }, "geometry": { "type": "Point", "coordinates": [ 135.8074945, 34.6731616 ] } },
{ "type": "Feature", "properties": { "内容": "デイサービスやすらぎ空間【地域密着型通所介護】奈良県奈良市北永井町344番地の45", "url": "https://www.kaigokensaku.mhlw.go.jp/29/index.php?action_kouhyou_detail_004_kani=true&JigyosyoCd=2970106791-00&ServiceCd=780&Type=search", "url2": null }, "geometry": { "type": "Point", "coordinates": [ 135.822193500000054, 34.6546823 ] } },
{ "type": "Feature", "properties": { "内容": "機能訓練専門デイサービス　きたえるーむ奈良西ノ京【地域密着型通所介護】奈良県奈良市西ノ京町146-1", "url": "https://www.kaigokensaku.mhlw.go.jp/29/index.php?action_kouhyou_detail_004_kani=true&JigyosyoCd=2990190205-00&ServiceCd=780&Type=search", "url2": "https://kitaeroom.com/shop/post-159.shtml" }, "geometry": { "type": "Point", "coordinates": [ 135.788962700000013, 34.6687236 ] } },
{ "type": "Feature", "properties": { "内容": "リハビリデイびび【地域密着型通所介護】奈良県奈良市朱雀5丁目3-10", "url": "https://www.kaigokensaku.mhlw.go.jp/29/index.php?action_kouhyou_detail_004_kani=true&JigyosyoCd=2990190247-00&ServiceCd=780&Type=search", "url2": null }, "geometry": { "type": "Point", "coordinates": [ 135.7966487, 34.7198215 ] } },
{ "type": "Feature", "properties": { "内容": "デイサービス登美の森【地域密着型通所介護】奈良市西登美ヶ丘７丁目13-31", "url": "https://www.kaigokensaku.mhlw.go.jp/29/index.php?action_kouhyou_detail_004_kani=true&JigyosyoCd=2970102931-00&ServiceCd=780&Type=search", "url2": "http:///www.wellconsul.co.jp" }, "geometry": { "type": "Point", "coordinates": [ 135.738444399999906, 34.7084777 ] } },
{ "type": "Feature", "properties": { "内容": "ていくていく【地域密着型通所介護】奈良市鳥見町２丁目１９番地の２", "url": "https://www.kaigokensaku.mhlw.go.jp/29/index.php?action_kouhyou_detail_004_kani=true&JigyosyoCd=2970103426-00&ServiceCd=780&Type=search", "url2": "teikuai.grupo.jp/" }, "geometry": { "type": "Point", "coordinates": [ 135.725606800000037, 34.6898961 ] } },
{ "type": "Feature", "properties": { "内容": "おうとくケアセンター【地域密着型通所介護】奈良県奈良市神殿町西谷691-3", "url": "https://www.kaigokensaku.mhlw.go.jp/29/index.php?action_kouhyou_detail_004_kani=true&JigyosyoCd=2970105967-00&ServiceCd=780&Type=search", "url2": "//www.outoku.com/" }, "geometry": { "type": "Point", "coordinates": [ 135.81990964289173, 34.660645434595054 ] } },
{ "type": "Feature", "properties": { "内容": "温浴サプリ・機能訓練ハーフデイ奈良日和【地域密着型通所介護】奈良県奈良市三条大路１－８－８", "url": "https://www.kaigokensaku.mhlw.go.jp/29/index.php?action_kouhyou_detail_004_kani=true&JigyosyoCd=2970106007-00&ServiceCd=780&Type=search", "url2": "www.narabiyori.com" }, "geometry": { "type": "Point", "coordinates": [ 135.801281199999949, 34.6821456 ] } },
{ "type": "Feature", "properties": { "内容": "ジョイーレ法華寺機能訓練デイサービス【地域密着型通所介護】奈良県奈良市法華寺町１２１０TMビル105号室", "url": "https://www.kaigokensaku.mhlw.go.jp/29/index.php?action_kouhyou_detail_004_kani=true&JigyosyoCd=2970107005-00&ServiceCd=780&Type=search", "url2": "https://gioire.co.jp" }, "geometry": { "type": "Point", "coordinates": [ 135.806344357489706, 34.693516131066879 ] } },
{ "type": "Feature", "properties": { "内容": "ジョイーレ奈良機能訓練デイサービス【地域密着型通所介護】奈良県奈良市法華寺町303-1るねみぎわ　１Ｆ", "url": "https://www.kaigokensaku.mhlw.go.jp/29/index.php?action_kouhyou_detail_004_kani=true&JigyosyoCd=2970105744-00&ServiceCd=780&Type=search", "url2": "https://gioire.co.jp" }, "geometry": { "type": "Point", "coordinates": [ 135.80556260000003, 34.6890303 ] } },
{ "type": "Feature", "properties": { "内容": "ハッピーデイリハビリ館大安寺【地域密着型通所介護】奈良県奈良市東九条町1448-1", "url": "https://www.kaigokensaku.mhlw.go.jp/29/index.php?action_kouhyou_detail_004_kani=true&JigyosyoCd=2970106247-00&ServiceCd=780&Type=search", "url2": "http://www.happy-service.co.jp" }, "geometry": { "type": "Point", "coordinates": [ 135.817045602446768, 34.667489444037088 ] } },
{ "type": "Feature", "properties": { "内容": "愛音デイサービスセンター【地域密着型通所介護】奈良県奈良市南京終町1-21-6", "url": "https://www.kaigokensaku.mhlw.go.jp/29/index.php?action_kouhyou_detail_004_kani=true&JigyosyoCd=2970105579-00&ServiceCd=780&Type=search", "url2": "https://kisoudai1.hp.peraichi.com/asahi/" }, "geometry": { "type": "Point", "coordinates": [ 135.82679870000004, 34.6708638 ] } },
{ "type": "Feature", "properties": { "内容": "ハナミズキ【地域密着型通所介護】奈良県奈良市宝来３丁目１６－５", "url": "https://www.kaigokensaku.mhlw.go.jp/29/index.php?action_kouhyou_detail_004_kani=true&JigyosyoCd=2970107187-00&ServiceCd=780&Type=search", "url2": "https://hi8uw.hp.peraichi.com/" }, "geometry": { "type": "Point", "coordinates": [ 135.7750555, 34.6814981 ] } },
{ "type": "Feature", "properties": { "内容": "デイ・サンライフ西大寺【地域密着型通所介護】奈良県奈良市西大寺南町1-28", "url": "https://www.kaigokensaku.mhlw.go.jp/29/index.php?action_kouhyou_detail_004_kani=true&JigyosyoCd=2970106890-00&ServiceCd=780&Type=search", "url2": "http://www.seiwakai-group.or.jp/" }, "geometry": { "type": "Point", "coordinates": [ 135.781717117860381, 34.693930444247329 ] } },
{ "type": "Feature", "properties": { "内容": "デイサービスセンターらくじ苑学園前【地域密着型通所介護】学園北一丁目3番2号在宅介護相談センターらくじ苑学園前", "url": "https://www.kaigokensaku.mhlw.go.jp/29/index.php?action_kouhyou_detail_004_kani=true&JigyosyoCd=2970107039-00&ServiceCd=780&Type=search", "url2": "http://www.s-rakuji.com/" }, "geometry": { "type": "Point", "coordinates": [ 135.748024200000032, 34.6970595 ] } },
{ "type": "Feature", "properties": { "内容": "デイサービスセンター奈良桃寿園【地域密着型通所介護】奈良市芝辻町4-12-4", "url": "https://www.kaigokensaku.mhlw.go.jp/29/index.php?action_kouhyou_detail_004_kani=true&JigyosyoCd=2970105280-00&ServiceCd=780&Type=search", "url2": "http:www.nara-toujuen.jp" }, "geometry": { "type": "Point", "coordinates": [ 135.808659799999987, 34.6859777 ] } },
{ "type": "Feature", "properties": { "内容": "社会福祉法人　奈良市社会福祉協議会　月ヶ瀬事業所【地域密着型通所介護】奈良県奈良市月ヶ瀬尾山１１２４番地", "url": "https://www.kaigokensaku.mhlw.go.jp/29/index.php?action_kouhyou_detail_004_kani=true&JigyosyoCd=2970103541-00&ServiceCd=780&Type=search", "url2": "http://www.narashi-syakyo.com" }, "geometry": { "type": "Point", "coordinates": [ 136.04809253624569, 34.714742944069343 ] } },
{ "type": "Feature", "properties": { "内容": "社会福祉法人奈良市社会福祉協議会都祁事業所【地域密着型通所介護】奈良県奈良市藺生町1922-8", "url": "https://www.kaigokensaku.mhlw.go.jp/29/index.php?action_kouhyou_detail_004_kani=true&JigyosyoCd=2970103038-00&ServiceCd=780&Type=search", "url2": "http://www.narashi-shakyo.com" }, "geometry": { "type": "Point", "coordinates": [ 135.942413100000067, 34.5915523 ] } },
{ "type": "Feature", "properties": { "内容": "平城山デイハウスよつば【地域密着型通所介護】奈良県奈良市佐保台西町62", "url": "https://www.kaigokensaku.mhlw.go.jp/29/index.php?action_kouhyou_detail_004_kani=true&JigyosyoCd=2970104556-00&ServiceCd=780&Type=search", "url2": "よつばの福祉" }, "geometry": { "type": "Point", "coordinates": [ 135.808392066270471, 34.709823660799259 ] } },
{ "type": "Feature", "properties": { "内容": "デイホームかなで六条【地域密着型通所介護】奈良県奈良市六条西三丁目１４－４", "url": "https://www.kaigokensaku.mhlw.go.jp/29/index.php?action_kouhyou_detail_004_kani=true&JigyosyoCd=2970102964-00&ServiceCd=780&Type=search", "url2": "https://kanade-nara.jp/" }, "geometry": { "type": "Point", "coordinates": [ 135.770578200000045, 34.6683467 ] } },
{ "type": "Feature", "properties": { "内容": "デイサービスかなで家【地域密着型通所介護】奈良県奈良市六条西３丁目１４－５", "url": "https://www.kaigokensaku.mhlw.go.jp/29/index.php?action_kouhyou_detail_004_kani=true&JigyosyoCd=2970104978-00&ServiceCd=780&Type=search", "url2": "https://kanade-nara.jp/" }, "geometry": { "type": "Point", "coordinates": [ 135.7705727, 34.6681412 ] } },
{ "type": "Feature", "properties": { "内容": "デイサービス「桜和」【地域密着型通所介護】奈良県奈良市中山町１３２４番地ー１", "url": "https://www.kaigokensaku.mhlw.go.jp/29/index.php?action_kouhyou_detail_004_kani=true&JigyosyoCd=2970106114-00&ServiceCd=780&Type=search", "url2": "sakura@nicecare-support.com" }, "geometry": { "type": "Point", "coordinates": [ 135.76923869999996, 34.7116083 ] } },
{ "type": "Feature", "properties": { "内容": "シニアクラブハウス　まいん【地域密着型通所介護】奈良市あやめ池南1-5-25", "url": "https://www.kaigokensaku.mhlw.go.jp/29/index.php?action_kouhyou_detail_004_kani=true&JigyosyoCd=2970103053-00&ServiceCd=780&Type=search", "url2": null }, "geometry": { "type": "Point", "coordinates": [ 135.7587122, 34.6973096 ] } },
{ "type": "Feature", "properties": { "内容": "ペルメールケア奈良六条【地域密着型通所介護】奈良市六条2-4-8", "url": "https://www.kaigokensaku.mhlw.go.jp/29/index.php?action_kouhyou_detail_004_kani=true&JigyosyoCd=2990100618-00&ServiceCd=780&Type=search", "url2": "https://carenation.jp" }, "geometry": { "type": "Point", "coordinates": [ 135.776927422090125, 34.669278823922689 ] } },
{ "type": "Feature", "properties": { "内容": "温浴サプリ・機能訓練ハーフデイ奈良日和２nd【地域密着型通所介護】奈良県奈良市石木町９２番地イオンタウン富雄南内", "url": "https://www.kaigokensaku.mhlw.go.jp/29/index.php?action_kouhyou_detail_004_kani=true&JigyosyoCd=2990100493-00&ServiceCd=780&Type=search", "url2": "www.narabiyori.com" }, "geometry": { "type": "Point", "coordinates": [ 135.761698199999955, 34.6673965 ] } },
{ "type": "Feature", "properties": { "内容": "永都QOLAct【地域密着型通所介護】奈良県奈良市佐保台西町47番地2アッレグロミック1階", "url": "https://www.kaigokensaku.mhlw.go.jp/29/index.php?action_kouhyou_detail_004_kani=true&JigyosyoCd=2990190007-00&ServiceCd=780&Type=search", "url2": null }, "geometry": { "type": "Point", "coordinates": [ 135.8076777, 34.7087951 ] } },
{ "type": "Feature", "properties": { "内容": "リハビリライフつむぎ【地域密着型通所介護】奈良県奈良市中山町７－１", "url": "https://www.kaigokensaku.mhlw.go.jp/29/index.php?action_kouhyou_detail_004_kani=true&JigyosyoCd=2990100568-00&ServiceCd=780&Type=search", "url2": "https://nara-firstinnovation.com/" }, "geometry": { "type": "Point", "coordinates": [ 135.771797428836095, 34.711196177827382 ] } },
{ "type": "Feature", "properties": { "内容": "機能訓練デイサービス　壮寿リハトレ広場　Ⅱ番館【地域密着型通所介護】奈良県奈良市南京終町1丁目154-6", "url": "https://www.kaigokensaku.mhlw.go.jp/29/index.php?action_kouhyou_detail_004_kani=true&JigyosyoCd=2990190023-00&ServiceCd=780&Type=search", "url2": null }, "geometry": { "type": "Point", "coordinates": [ 135.8216785, 34.6698464 ] } },
{ "type": "Feature", "properties": { "内容": "リハビリデイサービス彦庵【地域密着型通所介護】奈良県奈良市学園南三丁目4-21", "url": "https://www.kaigokensaku.mhlw.go.jp/29/index.php?action_kouhyou_detail_004_kani=true&JigyosyoCd=2990100691-00&ServiceCd=780&Type=search", "url2": null }, "geometry": { "type": "Point", "coordinates": [ 135.750784399999986, 34.6927069 ] } },
{ "type": "Feature", "properties": { "内容": "華舞デイサービスセンター【地域密着型通所介護】奈良県奈良市敷島町2-543-25", "url": "https://www.kaigokensaku.mhlw.go.jp/29/index.php?action_kouhyou_detail_004_kani=true&JigyosyoCd=2990100527-00&ServiceCd=780&Type=search", "url2": "http://youka-nara.com/" }, "geometry": { "type": "Point", "coordinates": [ 135.7672728, 34.7022444 ] } },
{ "type": "Feature", "properties": { "内容": "ディサービスフォルテ【地域密着型通所介護】奈良県奈良市法蓮町528-1", "url": "https://www.kaigokensaku.mhlw.go.jp/29/index.php?action_kouhyou_detail_004_kani=true&JigyosyoCd=2990100709-00&ServiceCd=780&Type=search", "url2": null }, "geometry": { "type": "Point", "coordinates": [ 135.812699015344236, 34.693856510651855 ] } },
{ "type": "Feature", "properties": { "内容": "あすならハイツあやめ池　デイサービス【地域密着型通所介護】奈良県奈良市あやめ池南2丁目2-16", "url": "https://www.kaigokensaku.mhlw.go.jp/29/index.php?action_kouhyou_detail_004_kani=true&JigyosyoCd=2990100592-00&ServiceCd=780&Type=search", "url2": "http://www.asunaraen.com" }, "geometry": { "type": "Point", "coordinates": [ 135.762613, 34.6976629 ] } },
{ "type": "Feature", "properties": { "内容": "あすならハイツ恋の窪　デイサービス【地域密着型通所介護】奈良県奈良市恋の窪1-2-2", "url": "https://www.kaigokensaku.mhlw.go.jp/29/index.php?action_kouhyou_detail_004_kani=true&JigyosyoCd=2990100626-00&ServiceCd=780&Type=search", "url2": "https://asunaraen.or.jp/" }, "geometry": { "type": "Point", "coordinates": [ 135.808090099999959, 34.6767068 ] } },
{ "type": "Feature", "properties": { "内容": "老人デイサービスセンター都祁すずらん苑【地域密着型通所介護】奈良県奈良市都祁友田町１４３７番地", "url": "https://www.kaigokensaku.mhlw.go.jp/29/index.php?action_kouhyou_detail_004_kani=true&JigyosyoCd=2971200049-00&ServiceCd=780&Type=search", "url2": "https://www.yamatokai-suzuran.com" }, "geometry": { "type": "Point", "coordinates": [ 135.945615099999941, 34.6017347 ] } },
{ "type": "Feature", "properties": { "内容": "だんらんの家　京終【地域密着型通所介護】奈良県奈良市南京終町7丁目522番2号サンプラザ南京終　１階", "url": "https://www.kaigokensaku.mhlw.go.jp/29/index.php?action_kouhyou_detail_004_kani=true&JigyosyoCd=2990100535-00&ServiceCd=780&Type=search", "url2": "https://danrannoie.com/" }, "geometry": { "type": "Point", "coordinates": [ 135.8244489, 34.6667725 ] } },
{ "type": "Feature", "properties": { "内容": "デイサービス　楓～かえで～【地域密着型通所介護】奈良市神殿町178-9", "url": "https://www.kaigokensaku.mhlw.go.jp/29/index.php?action_kouhyou_detail_004_kani=true&JigyosyoCd=2990190106-00&ServiceCd=780&Type=search", "url2": null }, "geometry": { "type": "Point", "coordinates": [ 135.8267123, 34.6620344 ] } },
{ "type": "Feature", "properties": { "内容": "リハビリデイサービスアイリス大宮【地域密着型通所介護】奈良市大宮町2丁目4-43", "url": "https://www.kaigokensaku.mhlw.go.jp/29/index.php?action_kouhyou_detail_004_kani=true&JigyosyoCd=2990190221-00&ServiceCd=780&Type=search", "url2": "https://www.rehabili-iris.com/" }, "geometry": { "type": "Point", "coordinates": [ 135.815882499999987, 34.6835805 ] } },
{ "type": "Feature", "properties": { "内容": "レコードブック奈良学園前【地域密着型通所介護】奈良県奈良市登美ヶ丘4-4-4　イヌイビル1Fイヌイビル1F", "url": "https://www.kaigokensaku.mhlw.go.jp/29/index.php?action_kouhyou_detail_004_kani=true&JigyosyoCd=2990190155-00&ServiceCd=780&Type=search", "url2": "http://www.recordbook.jp/facility/naragakuennmae/" }, "geometry": { "type": "Point", "coordinates": [ 135.750447799999989, 34.7143676 ] } },
{ "type": "Feature", "properties": { "内容": "元気サポート和ごころ【地域密着型通所介護】南永井町405番地", "url": "https://www.kaigokensaku.mhlw.go.jp/29/index.php?action_kouhyou_detail_004_kani=true&JigyosyoCd=2990190189-00&ServiceCd=780&Type=search", "url2": null }, "geometry": { "type": "Point", "coordinates": [ 135.819543101188657, 34.655927121270942 ] } },
{ "type": "Feature", "properties": { "内容": "こがねの里デイサービスセンター【地域密着型通所介護】奈良県奈良市西大寺赤田町1丁目4-8", "url": "https://www.kaigokensaku.mhlw.go.jp/29/index.php?action_kouhyou_detail_004_kani=true&JigyosyoCd=2990190213-00&ServiceCd=780&Type=search", "url2": "http://akishino-akane.com/" }, "geometry": { "type": "Point", "coordinates": [ 135.7717978, 34.6979532 ] } },
{ "type": "Feature", "properties": { "内容": "リハプライドまほろば【地域密着型通所介護】奈良県奈良市杉ヶ町51-7杉ヶ町北ビル1階", "url": "https://www.kaigokensaku.mhlw.go.jp/29/index.php?action_kouhyou_detail_004_kani=true&JigyosyoCd=2990190114-00&ServiceCd=780&Type=search", "url2": "https://www.rehapride.co.jp/mahoroba/" }, "geometry": { "type": "Point", "coordinates": [ 135.8222906, 34.6786462 ] } },
{ "type": "Feature", "properties": { "内容": "アイリハンニチデイサービス【地域密着型通所介護】奈良県奈良市北永井町384番地の1", "url": "https://www.kaigokensaku.mhlw.go.jp/29/index.php?action_kouhyou_detail_004_kani=true&JigyosyoCd=2990190130-00&ServiceCd=780&Type=search", "url2": "https://kisoudai1.hp.peraichi.com/asahi/" }, "geometry": { "type": "Point", "coordinates": [ 135.8213819, 34.6553114 ] } },
{ "type": "Feature", "properties": { "内容": "ぽれぽれ東登美ヶ丘リハトレクラブ【地域密着型通所介護】奈良県奈良市押熊町1325-1", "url": "https://www.kaigokensaku.mhlw.go.jp/29/index.php?action_kouhyou_detail_004_kani=true&JigyosyoCd=2990190262-00&ServiceCd=780&Type=search", "url2": "https://www.porepore.co.jp/office/nara/higashitomi/" }, "geometry": { "type": "Point", "coordinates": [ 135.766863300000011, 34.7231657 ] } },
{ "type": "Feature", "properties": { "内容": "リハビリデイサービスゆとり高の原【地域密着型通所介護】奈良市朱雀３丁目５−４", "url": "https://www.kaigokensaku.mhlw.go.jp/29/index.php?action_kouhyou_detail_004_kani=true&JigyosyoCd=2990190270-00&ServiceCd=780&Type=search", "url2": "https://www.yutori-nara.com/" }, "geometry": { "type": "Point", "coordinates": [ 135.7931145, 34.721469 ] } },
{ "type": "Feature", "properties": { "内容": "デイサービス大寿【地域密着型通所介護】奈良県大和高田市大谷598番地1", "url": "https://www.kaigokensaku.mhlw.go.jp/29/index.php?action_kouhyou_detail_004_kani=true&JigyosyoCd=2970201360-00&ServiceCd=780&Type=search", "url2": null }, "geometry": { "type": "Point", "coordinates": [ 135.7290683, 34.5251502 ] } },
{ "type": "Feature", "properties": { "内容": "花たばデイサービスセンター【地域密着型通所介護】奈良県大和高田市本郷町７番１６号", "url": "https://www.kaigokensaku.mhlw.go.jp/29/index.php?action_kouhyou_detail_004_kani=true&JigyosyoCd=2970200495-00&ServiceCd=780&Type=search", "url2": "http://www.k2.dion.ne.jp/~hanataba/" }, "geometry": { "type": "Point", "coordinates": [ 135.744883, 34.5128495 ] } },
{ "type": "Feature", "properties": { "内容": "茶話本舗デイサービス片塩庵【地域密着型通所介護】奈良県大和高田市片塩町10-26", "url": "https://www.kaigokensaku.mhlw.go.jp/29/index.php?action_kouhyou_detail_004_kani=true&JigyosyoCd=2970201394-00&ServiceCd=780&Type=search", "url2": null }, "geometry": { "type": "Point", "coordinates": [ 135.744299700000056, 34.5093278 ] } },
{ "type": "Feature", "properties": { "内容": "ふくしのなら【地域密着型通所介護】奈良県大和高田市三和町2-3", "url": "https://www.kaigokensaku.mhlw.go.jp/29/index.php?action_kouhyou_detail_004_kani=true&JigyosyoCd=2970201410-00&ServiceCd=780&Type=search", "url2": "http://www.hukushinonara.com" }, "geometry": { "type": "Point", "coordinates": [ 135.7461578, 34.515029799999986 ] } },
{ "type": "Feature", "properties": { "内容": "デイサービス　ミオの家【地域密着型通所介護】奈良県大和高田市東中８２", "url": "https://www.kaigokensaku.mhlw.go.jp/29/index.php?action_kouhyou_detail_004_kani=true&JigyosyoCd=2970201048-00&ServiceCd=780&Type=search", "url2": null }, "geometry": { "type": "Point", "coordinates": [ 135.733764599999972, 34.5025729 ] } },
{ "type": "Feature", "properties": { "内容": "介護のみき　大和高田デイサービスセンター【地域密着型通所介護】奈良県大和高田市三和町17-30", "url": "https://www.kaigokensaku.mhlw.go.jp/29/index.php?action_kouhyou_detail_004_kani=true&JigyosyoCd=2970200982-00&ServiceCd=780&Type=search", "url2": "http://www.jcare.co.jp/kaigo/" }, "geometry": { "type": "Point", "coordinates": [ 135.749552, 34.5130774 ] } },
{ "type": "Feature", "properties": { "内容": "リハビリデイサービス　ZERO【地域密着型通所介護】田井６５－１", "url": "https://www.kaigokensaku.mhlw.go.jp/29/index.php?action_kouhyou_detail_004_kani=true&JigyosyoCd=2970201303-00&ServiceCd=780&Type=search", "url2": "http://www.zero-1000.com" }, "geometry": { "type": "Point", "coordinates": [ 135.753833008598349, 34.499191294026915 ] } },
{ "type": "Feature", "properties": { "内容": "ミオの苑デイサービス【地域密着型通所介護】吉井18-1", "url": "https://www.kaigokensaku.mhlw.go.jp/29/index.php?action_kouhyou_detail_004_kani=true&JigyosyoCd=2970201428-00&ServiceCd=780&Type=search", "url2": "http://mionoie.co.jp" }, "geometry": { "type": "Point", "coordinates": [ 130.7602253, 33.3426359 ] } },
{ "type": "Feature", "properties": { "内容": "デイサービスほほえみ【地域密着型通所介護】奈良県大和高田市市場264-1", "url": "https://www.kaigokensaku.mhlw.go.jp/29/index.php?action_kouhyou_detail_004_kani=true&JigyosyoCd=2990200137-00&ServiceCd=780&Type=search", "url2": null }, "geometry": { "type": "Point", "coordinates": [ 135.724509, 34.5183964 ] } },
{ "type": "Feature", "properties": { "内容": "社会福祉法人甘樫会あまがし苑高田【地域密着型通所介護】奈良県大和高田市神楽3丁目11番13号", "url": "https://www.kaigokensaku.mhlw.go.jp/29/index.php?action_kouhyou_detail_004_kani=true&JigyosyoCd=2990200145-00&ServiceCd=780&Type=search", "url2": "http://amagashi-t.com/" }, "geometry": { "type": "Point", "coordinates": [ 135.7453116, 34.5240057 ] } },
{ "type": "Feature", "properties": { "内容": "リハビリサポートだるま【地域密着型通所介護】奈良県大和郡山市南郡山町363-23梅花ハイツ103", "url": "https://www.kaigokensaku.mhlw.go.jp/29/index.php?action_kouhyou_detail_004_kani=true&JigyosyoCd=2990300192-00&ServiceCd=780&Type=search", "url2": null }, "geometry": { "type": "Point", "coordinates": [ 135.773296499999987, 34.6464776 ] } },
{ "type": "Feature", "properties": { "内容": "医療法人岡谷会小泉診療所【地域密着型通所介護】奈良県大和郡山市小泉町552", "url": "https://www.kaigokensaku.mhlw.go.jp/29/index.php?action_kouhyou_detail_004_kani=true&JigyosyoCd=2990300218-00&ServiceCd=780&Type=search", "url2": "https://okatani.or.jp/koizumi" }, "geometry": { "type": "Point", "coordinates": [ 135.761483700000014, 34.6234605 ] } },
{ "type": "Feature", "properties": { "内容": "LIFEGYMリハデイFitnessCure【地域密着型通所介護】奈良県大和郡山市小泉町１６０４－１－１－２", "url": "https://www.kaigokensaku.mhlw.go.jp/29/index.php?action_kouhyou_detail_004_kani=true&JigyosyoCd=2990300184-00&ServiceCd=780&Type=search", "url2": "https://spinallink.wixsite.com/fitnesscure" }, "geometry": { "type": "Point", "coordinates": [ 135.7574582, 34.6305205 ] } },
{ "type": "Feature", "properties": { "内容": "デイサービス　フレンド倶楽部【地域密着型通所介護】奈良県大和郡山市田中町763", "url": "https://www.kaigokensaku.mhlw.go.jp/29/index.php?action_kouhyou_detail_004_kani=true&JigyosyoCd=2970300766-00&ServiceCd=780&Type=search", "url2": "http://www.wellconsul.co.jp" }, "geometry": { "type": "Point", "coordinates": [ 135.7681149, 34.6446654 ] } },
{ "type": "Feature", "properties": { "内容": "デイサービスNico【地域密着型通所介護】筒井町943-1グランシャリオ102", "url": "https://www.kaigokensaku.mhlw.go.jp/29/index.php?action_kouhyou_detail_004_kani=true&JigyosyoCd=2990300267-00&ServiceCd=780&Type=search", "url2": null }, "geometry": { "type": "Point", "coordinates": [ 135.7858215, 34.6175995 ] } },
{ "type": "Feature", "properties": { "内容": "デイサービスセンター　アン【地域密着型通所介護】奈良県大和郡山市城見町２－６", "url": "https://www.kaigokensaku.mhlw.go.jp/29/index.php?action_kouhyou_detail_004_kani=true&JigyosyoCd=2970301087-00&ServiceCd=780&Type=search", "url2": "なし" }, "geometry": { "type": "Point", "coordinates": [ 135.780911100000026, 34.6482377 ] } },
{ "type": "Feature", "properties": { "内容": "デイサービス白馬【地域密着型通所介護】柳町235-1", "url": "https://www.kaigokensaku.mhlw.go.jp/29/index.php?action_kouhyou_detail_004_kani=true&JigyosyoCd=2970301350-00&ServiceCd=780&Type=search", "url2": null }, "geometry": { "type": "Point", "coordinates": [ 135.781575782942241, 34.642584842319344 ] } },
{ "type": "Feature", "properties": { "内容": "デイサービスリハビリ館よろこび【地域密着型通所介護】大和郡山市九条平野町１-４０", "url": "https://www.kaigokensaku.mhlw.go.jp/29/index.php?action_kouhyou_detail_004_kani=true&JigyosyoCd=2970301020-00&ServiceCd=780&Type=search", "url2": null }, "geometry": { "type": "Point", "coordinates": [ 135.780722100000048, 34.658184 ] } },
{ "type": "Feature", "properties": { "内容": "Dayworkおたがいさん【地域密着型通所介護】大和郡山市美濃庄町２９７－３６", "url": "https://www.kaigokensaku.mhlw.go.jp/29/index.php?action_kouhyou_detail_004_kani=true&JigyosyoCd=2990300176-00&ServiceCd=780&Type=search", "url2": "https://ookinigroup.com/" }, "geometry": { "type": "Point", "coordinates": [ 135.80163589999998, 34.6392542 ] } },
{ "type": "Feature", "properties": { "内容": "レコードブック大和郡山【地域密着型通所介護】奈良県大和郡山市小泉町東2-9-1", "url": "https://www.kaigokensaku.mhlw.go.jp/29/index.php?action_kouhyou_detail_004_kani=true&JigyosyoCd=2990300226-00&ServiceCd=780&Type=search", "url2": "https://www.recordbook.jp/facility/yamatokooriyama/" }, "geometry": { "type": "Point", "coordinates": [ 135.764744847904836, 34.620754187612896 ] } },
{ "type": "Feature", "properties": { "内容": "療養通所介護夢未来Ⅱ【地域密着型通所介護】奈良県天理市西長柄町453-2", "url": "https://www.kaigokensaku.mhlw.go.jp/29/index.php?action_kouhyou_detail_004_kani=true&JigyosyoCd=2970401176-00&ServiceCd=780&Type=search", "url2": null }, "geometry": { "type": "Point", "coordinates": [ 135.8218004, 34.5724337 ] } },
{ "type": "Feature", "properties": { "内容": "天理吉祥寺デイサービス【地域密着型通所介護】奈良県天理市指柳町301-3", "url": "https://www.kaigokensaku.mhlw.go.jp/29/index.php?action_kouhyou_detail_004_kani=true&JigyosyoCd=2970401267-00&ServiceCd=780&Type=search", "url2": null }, "geometry": { "type": "Point", "coordinates": [ 135.824673600000011, 34.6042563 ] } },
{ "type": "Feature", "properties": { "内容": "デイサービスはばたき天理【地域密着型通所介護】守目堂町59", "url": "https://www.kaigokensaku.mhlw.go.jp/29/index.php?action_kouhyou_detail_004_kani=true&JigyosyoCd=2990400182-00&ServiceCd=780&Type=search", "url2": "http://meibi-mt.co.jp" }, "geometry": { "type": "Point", "coordinates": [ 135.836086, 34.594035 ] } },
{ "type": "Feature", "properties": { "内容": "デイサービスセンター前栽の家【地域密着型通所介護】天理市平等坊町20-1", "url": "https://www.kaigokensaku.mhlw.go.jp/29/index.php?action_kouhyou_detail_004_kani=true&JigyosyoCd=2970400889-00&ServiceCd=780&Type=search", "url2": "https://kamuchikara.or.jp/" }, "geometry": { "type": "Point", "coordinates": [ 135.812005900000031, 34.6023459 ] } },
{ "type": "Feature", "properties": { "内容": "社会福祉法人天寿会ひびきデイサービスセンター【地域密着型通所介護】天理市岸田町１１９９", "url": "https://www.kaigokensaku.mhlw.go.jp/29/index.php?action_kouhyou_detail_004_kani=true&JigyosyoCd=2970400194-00&ServiceCd=780&Type=search", "url2": "http://www.tenjukai.jp" }, "geometry": { "type": "Point", "coordinates": [ 135.824313800000027, 34.5662086 ] } },
{ "type": "Feature", "properties": { "内容": "デイサービスゆんたく【地域密着型通所介護】奈良県天理市川原城町545番地", "url": "https://www.kaigokensaku.mhlw.go.jp/29/index.php?action_kouhyou_detail_004_kani=true&JigyosyoCd=2970400442-00&ServiceCd=780&Type=search", "url2": "http://www.care-miyagi.net/yuntaku/" }, "geometry": { "type": "Point", "coordinates": [ 135.839998900000012, 34.5986649 ] } },
{ "type": "Feature", "properties": { "内容": "リハビリデイサービス　ステップ【地域密着型通所介護】奈良県天理市三昧田町107-1", "url": "https://www.kaigokensaku.mhlw.go.jp/29/index.php?action_kouhyou_detail_004_kani=true&JigyosyoCd=2970401226-00&ServiceCd=780&Type=search", "url2": "http://www.miyagikai.or.jp/" }, "geometry": { "type": "Point", "coordinates": [ 135.838867599999958, 34.5836764 ] } },
{ "type": "Feature", "properties": { "内容": "福住光明苑デイサービスセンター【地域密着型通所介護】奈良県天理市福住町６３２８番地", "url": "https://www.kaigokensaku.mhlw.go.jp/29/index.php?action_kouhyou_detail_004_kani=true&JigyosyoCd=2970400699-00&ServiceCd=780&Type=search", "url2": "http://fukusumikai.jp/" }, "geometry": { "type": "Point", "coordinates": [ 135.918092200000046, 34.6050198 ] } },
{ "type": "Feature", "properties": { "内容": "デイサービス介護みつ葉【地域密着型通所介護】奈良県天理市石上町435-5", "url": "https://www.kaigokensaku.mhlw.go.jp/29/index.php?action_kouhyou_detail_004_kani=true&JigyosyoCd=2970400798-00&ServiceCd=780&Type=search", "url2": null }, "geometry": { "type": "Point", "coordinates": [ 135.830178899999964, 34.6161004 ] } },
{ "type": "Feature", "properties": { "内容": "デイサービス　幸福【地域密着型通所介護】奈良県天理市富堂町２１９－６", "url": "https://www.kaigokensaku.mhlw.go.jp/29/index.php?action_kouhyou_detail_004_kani=true&JigyosyoCd=2970400756-00&ServiceCd=780&Type=search", "url2": null }, "geometry": { "type": "Point", "coordinates": [ 135.817155500000013, 34.5949995 ] } },
{ "type": "Feature", "properties": { "内容": "サンテラスデイサービス【地域密着型通所介護】前栽町70-1", "url": "https://www.kaigokensaku.mhlw.go.jp/29/index.php?action_kouhyou_detail_004_kani=true&JigyosyoCd=2990400174-00&ServiceCd=780&Type=search", "url2": "http://meibi-mt.co.jp/" }, "geometry": { "type": "Point", "coordinates": [ 135.8222441, 34.604164 ] } },
{ "type": "Feature", "properties": { "内容": "デイサービスりあん天理【地域密着型通所介護】櫟本町2098-1", "url": "https://www.kaigokensaku.mhlw.go.jp/29/index.php?action_kouhyou_detail_004_kani=true&JigyosyoCd=2990400190-00&ServiceCd=780&Type=search", "url2": null }, "geometry": { "type": "Point", "coordinates": [ 135.833130960713163, 34.623340084756904 ] } },
{ "type": "Feature", "properties": { "内容": "リハプライド天理【地域密着型通所介護】奈良県天理市丹波市町295番地", "url": "https://www.kaigokensaku.mhlw.go.jp/29/index.php?action_kouhyou_detail_004_kani=true&JigyosyoCd=2990400125-00&ServiceCd=780&Type=search", "url2": "tenri@rehapride.co.jp" }, "geometry": { "type": "Point", "coordinates": [ 135.834506499999947, 34.5969386 ] } },
{ "type": "Feature", "properties": { "内容": "デイサービスみやぎ【地域密着型通所介護】丹波市町302番地2階", "url": "https://www.kaigokensaku.mhlw.go.jp/29/index.php?action_kouhyou_detail_004_kani=true&JigyosyoCd=2990400216-00&ServiceCd=780&Type=search", "url2": "http：//care-miyagi.net/miyagi/index.html" }, "geometry": { "type": "Point", "coordinates": [ 135.8359576, 34.5968227 ] } },
{ "type": "Feature", "properties": { "内容": "かぐやまの里【地域密着型通所介護】奈良県橿原市出垣内町５７－９", "url": "https://www.kaigokensaku.mhlw.go.jp/29/index.php?action_kouhyou_detail_004_kani=true&JigyosyoCd=2970501256-00&ServiceCd=780&Type=search", "url2": null }, "geometry": { "type": "Point", "coordinates": [ 135.823909100000037, 34.5108819 ] } },
{ "type": "Feature", "properties": { "内容": "デイサービスこころ日和【地域密着型通所介護】奈良県橿原市中曽司町62-1", "url": "https://www.kaigokensaku.mhlw.go.jp/29/index.php?action_kouhyou_detail_004_kani=true&JigyosyoCd=2990500122-00&ServiceCd=780&Type=search", "url2": null }, "geometry": { "type": "Point", "coordinates": [ 135.7707226, 34.5251651 ] } },
{ "type": "Feature", "properties": { "内容": "かみふうせん　ホープ【地域密着型通所介護】奈良県橿原市中曽司町106-6", "url": "https://www.kaigokensaku.mhlw.go.jp/29/index.php?action_kouhyou_detail_004_kani=true&JigyosyoCd=2970501934-00&ServiceCd=780&Type=search", "url2": "http://www.kami-riha.com" }, "geometry": { "type": "Point", "coordinates": [ 135.771566082631693, 34.523528957683055 ] } },
{ "type": "Feature", "properties": { "内容": "癒し空間フロッグス【地域密着型通所介護】奈良県橿原市久米町７３４－１ハイツ竹上１Ｆ", "url": "https://www.kaigokensaku.mhlw.go.jp/29/index.php?action_kouhyou_detail_004_kani=true&JigyosyoCd=2970502155-00&ServiceCd=780&Type=search", "url2": null }, "geometry": { "type": "Point", "coordinates": [ 135.794870700000047, 34.4858479 ] } },
{ "type": "Feature", "properties": { "内容": "ぽれぽれ中和【地域密着型通所介護】橿原市大久保町３３２－２", "url": "https://www.kaigokensaku.mhlw.go.jp/29/index.php?action_kouhyou_detail_004_kani=true&JigyosyoCd=2970500613-00&ServiceCd=780&Type=search", "url2": "http://www.porepore.co.jp/" }, "geometry": { "type": "Point", "coordinates": [ 135.794006699999954, 34.494258 ] } },
{ "type": "Feature", "properties": { "内容": "ケアクラフト弥生【地域密着型通所介護】奈良県橿原市上品寺町１９３番地の１", "url": "https://www.kaigokensaku.mhlw.go.jp/29/index.php?action_kouhyou_detail_004_kani=true&JigyosyoCd=2970500506-00&ServiceCd=780&Type=search", "url2": "http://www" }, "geometry": { "type": "Point", "coordinates": [ 135.792359581723105, 34.519007053355416 ] } },
{ "type": "Feature", "properties": { "内容": "デイホーム弥生【地域密着型通所介護】奈良県橿原市上品寺町３７０番地の２０", "url": "https://www.kaigokensaku.mhlw.go.jp/29/index.php?action_kouhyou_detail_004_kani=true&JigyosyoCd=2970501108-00&ServiceCd=780&Type=search", "url2": "https://www.caretayoi.com/" }, "geometry": { "type": "Point", "coordinates": [ 135.794458592590303, 34.521373861240598 ] } },
{ "type": "Feature", "properties": { "内容": "茶話本舗デイサービス南妙法寺亭【地域密着型通所介護】奈良県橿原市南妙法寺町3-8茶話本舗デイサービス南妙法寺亭", "url": "https://www.kaigokensaku.mhlw.go.jp/29/index.php?action_kouhyou_detail_004_kani=true&JigyosyoCd=2970501942-00&ServiceCd=780&Type=search", "url2": "http://www.837.co.jp" }, "geometry": { "type": "Point", "coordinates": [ 135.785683100000028, 34.4726327 ] } },
{ "type": "Feature", "properties": { "内容": "リハビリデイサービス　橿原の郷【地域密着型通所介護】奈良県橿原市飯高町７－１", "url": "https://www.kaigokensaku.mhlw.go.jp/29/index.php?action_kouhyou_detail_004_kani=true&JigyosyoCd=2970501629-00&ServiceCd=780&Type=search", "url2": "http://www.sanyofukushikai.com/" }, "geometry": { "type": "Point", "coordinates": [ 135.77985769999998, 34.5311449 ] } },
{ "type": "Feature", "properties": { "内容": "デイサービス花の家【地域密着型通所介護】橿原市久米町５２８－１", "url": "https://www.kaigokensaku.mhlw.go.jp/29/index.php?action_kouhyou_detail_004_kani=true&JigyosyoCd=2970500852-00&ServiceCd=780&Type=search", "url2": "http://hp.kaipoke.biz/n25" }, "geometry": { "type": "Point", "coordinates": [ 135.791538374868736, 34.482648662500161 ] } },
{ "type": "Feature", "properties": { "内容": "デイサービス　絆【地域密着型通所介護】奈良県橿原市上品寺町234-1", "url": "https://www.kaigokensaku.mhlw.go.jp/29/index.php?action_kouhyou_detail_004_kani=true&JigyosyoCd=2970501348-00&ServiceCd=780&Type=search", "url2": null }, "geometry": { "type": "Point", "coordinates": [ 135.795421, 34.5189945 ] } },
{ "type": "Feature", "properties": { "内容": "デイサービスセンター　季楽里ゆずりは【地域密着型通所介護】奈良県橿原市新賀町２７５－１５", "url": "https://www.kaigokensaku.mhlw.go.jp/29/index.php?action_kouhyou_detail_004_kani=true&JigyosyoCd=2970501660-00&ServiceCd=780&Type=search", "url2": null }, "geometry": { "type": "Point", "coordinates": [ 135.797839299999964, 34.5144585 ] } },
{ "type": "Feature", "properties": { "内容": "通所デイサービスセンター「季楽里ひだまり」【地域密着型通所介護】奈良県橿原市南山町３１８番地", "url": "https://www.kaigokensaku.mhlw.go.jp/29/index.php?action_kouhyou_detail_004_kani=true&JigyosyoCd=2970500910-00&ServiceCd=780&Type=search", "url2": null }, "geometry": { "type": "Point", "coordinates": [ 135.8275205, 34.4899788 ] } },
{ "type": "Feature", "properties": { "内容": "リハビリデイサービスハロー【地域密着型通所介護】奈良県橿原市上品寺町207-1", "url": "https://www.kaigokensaku.mhlw.go.jp/29/index.php?action_kouhyou_detail_004_kani=true&JigyosyoCd=2970501868-00&ServiceCd=780&Type=search", "url2": null }, "geometry": { "type": "Point", "coordinates": [ 135.794214600000032, 34.5192383 ] } },
{ "type": "Feature", "properties": { "内容": "デイサービスことりの里【地域密着型通所介護】奈良県桜井市初瀬2425-1デイサービスことりの里", "url": "https://www.kaigokensaku.mhlw.go.jp/29/index.php?action_kouhyou_detail_004_kani=true&JigyosyoCd=2990600179-00&ServiceCd=780&Type=search", "url2": null }, "geometry": { "type": "Point", "coordinates": [ 135.9033561, 34.5283363 ] } },
{ "type": "Feature", "properties": { "内容": "フリースペースみのり【地域密着型通所介護】奈良県桜井市大字外山402-3コモドヴィラⅢ102,101号", "url": "https://www.kaigokensaku.mhlw.go.jp/29/index.php?action_kouhyou_detail_004_kani=true&JigyosyoCd=2970600637-00&ServiceCd=780&Type=search", "url2": null }, "geometry": { "type": "Point", "coordinates": [ 135.85477602085416, 34.514285277630961 ] } },
{ "type": "Feature", "properties": { "内容": "デイサービスセンター　エル【地域密着型通所介護】奈良県桜井市上之宮9-1", "url": "https://www.kaigokensaku.mhlw.go.jp/29/index.php?action_kouhyou_detail_004_kani=true&JigyosyoCd=2970600454-00&ServiceCd=780&Type=search", "url2": null }, "geometry": { "type": "Point", "coordinates": [ 135.849932, 34.5019524 ] } },
{ "type": "Feature", "properties": { "内容": "デイサービス　小春日和【地域密着型通所介護】奈良県桜井市大字桜井924-1", "url": "https://www.kaigokensaku.mhlw.go.jp/29/index.php?action_kouhyou_detail_004_kani=true&JigyosyoCd=2970600686-00&ServiceCd=780&Type=search", "url2": "mymt-oil@nifty.com" }, "geometry": { "type": "Point", "coordinates": [ 135.849045805032375, 34.512581107325595 ] } },
{ "type": "Feature", "properties": { "内容": "合同会社　わかば【地域密着型通所介護】桜井市東新堂663-1", "url": "https://www.kaigokensaku.mhlw.go.jp/29/index.php?action_kouhyou_detail_004_kani=true&JigyosyoCd=2970600801-00&ServiceCd=780&Type=search", "url2": null }, "geometry": { "type": "Point", "coordinates": [ 135.832072, 34.5252746 ] } },
{ "type": "Feature", "properties": { "内容": "オリーブの里【地域密着型通所介護】奈良県桜井市橋本４６９－１", "url": "https://www.kaigokensaku.mhlw.go.jp/29/index.php?action_kouhyou_detail_004_kani=true&JigyosyoCd=2970600728-00&ServiceCd=780&Type=search", "url2": null }, "geometry": { "type": "Point", "coordinates": [ 135.838846900000021, 34.4989027 ] } },
{ "type": "Feature", "properties": { "内容": "デイサービスかしの木【地域密着型通所介護】大福702-1", "url": "https://www.kaigokensaku.mhlw.go.jp/29/index.php?action_kouhyou_detail_004_kani=true&JigyosyoCd=2970600785-00&ServiceCd=780&Type=search", "url2": null }, "geometry": { "type": "Point", "coordinates": [ 135.829294600000026, 34.5176644 ] } },
{ "type": "Feature", "properties": { "内容": "デイサービスいこいのもり【地域密着型通所介護】奈良県桜井市粟原６２－３", "url": "https://www.kaigokensaku.mhlw.go.jp/29/index.php?action_kouhyou_detail_004_kani=true&JigyosyoCd=2970600983-00&ServiceCd=780&Type=search", "url2": null }, "geometry": { "type": "Point", "coordinates": [ 135.877966199999946, 34.5018607 ] } },
{ "type": "Feature", "properties": { "内容": "リハビリテーションデイサービスよろこび広場【地域密着型通所介護】奈良県桜井市芝24-5", "url": "https://www.kaigokensaku.mhlw.go.jp/29/index.php?action_kouhyou_detail_004_kani=true&JigyosyoCd=2990600237-00&ServiceCd=780&Type=search", "url2": "https://yorokobi-hiroba.net" }, "geometry": { "type": "Point", "coordinates": [ 135.8420514, 34.5304979 ] } },
{ "type": "Feature", "properties": { "内容": "デイサービス四つ葉のクローバーサンテ【地域密着型通所介護】奈良県桜井市吉備572-1", "url": "https://www.kaigokensaku.mhlw.go.jp/29/index.php?action_kouhyou_detail_004_kani=true&JigyosyoCd=2990600211-00&ServiceCd=780&Type=search", "url2": "http://yotsuba-ckover.co.jp" }, "geometry": { "type": "Point", "coordinates": [ 135.837203772352638, 34.508175302621915 ] } },
{ "type": "Feature", "properties": { "内容": "デイサービスめぐり逢い【地域密着型通所介護】奈良県桜井市谷826-7", "url": "https://www.kaigokensaku.mhlw.go.jp/29/index.php?action_kouhyou_detail_004_kani=true&JigyosyoCd=2990600286-00&ServiceCd=780&Type=search", "url2": null }, "geometry": { "type": "Point", "coordinates": [ 135.8478824, 34.5057016 ] } },
{ "type": "Feature", "properties": { "内容": "デイサービス向日葵【地域密着型通所介護】奈良県桜井市大字池之内997番地", "url": "https://www.kaigokensaku.mhlw.go.jp/29/index.php?action_kouhyou_detail_004_kani=true&JigyosyoCd=2990600294-00&ServiceCd=780&Type=search", "url2": "https://raiku-kaigo.com/" }, "geometry": { "type": "Point", "coordinates": [ 135.8315886, 34.4985898 ] } },
{ "type": "Feature", "properties": { "内容": "通所介護事業所　音和舎善【地域密着型通所介護】奈良県五條市五條3丁目1-4", "url": "https://www.kaigokensaku.mhlw.go.jp/29/index.php?action_kouhyou_detail_004_kani=true&JigyosyoCd=2970700585-00&ServiceCd=780&Type=search", "url2": "http://www.seiwakai-gojo.or.jp/" }, "geometry": { "type": "Point", "coordinates": [ 135.699390200000039, 34.3529194 ] } },
{ "type": "Feature", "properties": { "内容": "デイサービスほほえみ五條【地域密着型通所介護】奈良県五條市今井１丁目2-32", "url": "https://www.kaigokensaku.mhlw.go.jp/29/index.php?action_kouhyou_detail_004_kani=true&JigyosyoCd=2970700593-00&ServiceCd=780&Type=search", "url2": null }, "geometry": { "type": "Point", "coordinates": [ 135.702078799999981, 34.3552747 ] } },
{ "type": "Feature", "properties": { "内容": "隅田クラブ（五條）【地域密着型通所介護】奈良県五條市今井４丁目1-1", "url": "https://www.kaigokensaku.mhlw.go.jp/29/index.php?action_kouhyou_detail_004_kani=true&JigyosyoCd=2970700510-00&ServiceCd=780&Type=search", "url2": "https://actcare-system.com/" }, "geometry": { "type": "Point", "coordinates": [ 135.705547900000056, 34.3557609 ] } },
{ "type": "Feature", "properties": { "内容": "デイサービスエリゼ西吉野【地域密着型通所介護】奈良県五條市西吉野町滝389", "url": "https://www.kaigokensaku.mhlw.go.jp/29/index.php?action_kouhyou_detail_004_kani=true&JigyosyoCd=2970700395-00&ServiceCd=780&Type=search", "url2": null }, "geometry": { "type": "Point", "coordinates": [ 135.714039899999989, 34.3127781 ] } },
{ "type": "Feature", "properties": { "内容": "デイサービスかがやき【地域密着型通所介護】奈良県五條市大津町226-1", "url": "https://www.kaigokensaku.mhlw.go.jp/29/index.php?action_kouhyou_detail_004_kani=true&JigyosyoCd=2990700102-00&ServiceCd=780&Type=search", "url2": "https://quankukou5.wixsite.com/-site-2" }, "geometry": { "type": "Point", "coordinates": [ 135.6725744, 34.330414648995074 ] } },
{ "type": "Feature", "properties": { "内容": "社会福祉法人五條市社会福祉事業団大塔ライフハウス【地域密着型通所介護】奈良県五條市大塔町宇井183番地", "url": "https://www.kaigokensaku.mhlw.go.jp/29/index.php?action_kouhyou_detail_004_kani=true&JigyosyoCd=2990700086-00&ServiceCd=780&Type=search", "url2": "https://www.otogojo.com/" }, "geometry": { "type": "Point", "coordinates": [ 135.746353123277942, 34.156875374462473 ] } },
{ "type": "Feature", "properties": { "内容": "デイサービスさらぎ野【地域密着型通所介護】蛇穴５２１番地１", "url": "https://www.kaigokensaku.mhlw.go.jp/29/index.php?action_kouhyou_detail_004_kani=true&JigyosyoCd=2970800492-00&ServiceCd=780&Type=search", "url2": null }, "geometry": { "type": "Point", "coordinates": [ 135.734421500000053, 34.4563618 ] } },
{ "type": "Feature", "properties": { "内容": "デイサービス　あゆみ【地域密着型通所介護】奈良県御所市大字元町374番地の2", "url": "https://www.kaigokensaku.mhlw.go.jp/29/index.php?action_kouhyou_detail_004_kani=true&JigyosyoCd=2990800043-00&ServiceCd=780&Type=search", "url2": null }, "geometry": { "type": "Point", "coordinates": [ 135.7310867, 34.4695142 ] } },
{ "type": "Feature", "properties": { "内容": "愛友ケアデイサービス　かがやき【地域密着型通所介護】奈良県生駒市小明町1057-4かがやき", "url": "https://www.kaigokensaku.mhlw.go.jp/29/index.php?action_kouhyou_detail_004_kani=true&JigyosyoCd=2970901498-00&ServiceCd=780&Type=search", "url2": null }, "geometry": { "type": "Point", "coordinates": [ 135.706608, 34.704167 ] } },
{ "type": "Feature", "properties": { "内容": "ゆりの会デイサービスセンター【地域密着型通所介護】生駒市高山町８０７５番地", "url": "https://www.kaigokensaku.mhlw.go.jp/29/index.php?action_kouhyou_detail_004_kani=true&JigyosyoCd=2970900847-00&ServiceCd=780&Type=search", "url2": "http://yurino-kai.jp/" }, "geometry": { "type": "Point", "coordinates": [ 135.72361449999994, 34.7289981 ] } },
{ "type": "Feature", "properties": { "内容": "デイサービスくつろぎの里壱分店【地域密着型通所介護】奈良県生駒市壱分町１１３０", "url": "https://www.kaigokensaku.mhlw.go.jp/29/index.php?action_kouhyou_detail_004_kani=true&JigyosyoCd=2990900165-00&ServiceCd=780&Type=search", "url2": "https://adult-day-care-center-1644.business.site/" }, "geometry": { "type": "Point", "coordinates": [ 135.7058635, 34.6786973 ] } },
{ "type": "Feature", "properties": { "内容": "リライズ生駒【地域密着型通所介護】奈良県生駒市北田原町1132-37", "url": "https://www.kaigokensaku.mhlw.go.jp/29/index.php?action_kouhyou_detail_004_kani=true&JigyosyoCd=2970901522-00&ServiceCd=780&Type=search", "url2": "https://rerize.jp/" }, "geometry": { "type": "Point", "coordinates": [ 135.71006269999998, 34.7389329 ] } },
{ "type": "Feature", "properties": { "内容": "菜の花デイサービス【地域密着型通所介護】生駒市中菜畑2丁目１１１７", "url": "https://www.kaigokensaku.mhlw.go.jp/29/index.php?action_kouhyou_detail_004_kani=true&JigyosyoCd=2970900409-00&ServiceCd=780&Type=search", "url2": "http://www.wellconsul.co.jp" }, "geometry": { "type": "Point", "coordinates": [ 135.7058945, 34.6818051 ] } },
{ "type": "Feature", "properties": { "内容": "医療法人和幸会　阪奈中央ｻﾝﾐｯﾄデイサービスセンター【地域密着型通所介護】奈良県生駒市山崎新町2-18-101", "url": "https://www.kaigokensaku.mhlw.go.jp/29/index.php?action_kouhyou_detail_004_kani=true&JigyosyoCd=2970901282-00&ServiceCd=780&Type=search", "url2": "http://www.wakoucai.or.jp" }, "geometry": { "type": "Point", "coordinates": [ 135.6970311, 34.690921 ] } },
{ "type": "Feature", "properties": { "内容": "愛友ケアデイサービス　さわらび【地域密着型通所介護】辻町373-1", "url": "https://www.kaigokensaku.mhlw.go.jp/29/index.php?action_kouhyou_detail_004_kani=true&JigyosyoCd=2970901340-00&ServiceCd=780&Type=search", "url2": "http：//iyou-care.net/" }, "geometry": { "type": "Point", "coordinates": [ 136.926506300000028, 35.2081523 ] } },
{ "type": "Feature", "properties": { "内容": "デイサービスセンターそうせい【地域密着型通所介護】奈良県生駒市萩の台４－４－１", "url": "https://www.kaigokensaku.mhlw.go.jp/29/index.php?action_kouhyou_detail_004_kani=true&JigyosyoCd=2970901175-00&ServiceCd=780&Type=search", "url2": "http://www.sousei-ikoma.com" }, "geometry": { "type": "Point", "coordinates": [ 135.714988400000038, 34.6547881 ] } },
{ "type": "Feature", "properties": { "内容": "デイサービスセンター萩の台ちどり【地域密着型通所介護】生駒市萩の台3丁目1-8", "url": "https://www.kaigokensaku.mhlw.go.jp/29/index.php?action_kouhyou_detail_004_kani=true&JigyosyoCd=2970901308-00&ServiceCd=780&Type=search", "url2": "http://www.chidori.or.jp" }, "geometry": { "type": "Point", "coordinates": [ 135.7101083, 34.6545104 ] } },
{ "type": "Feature", "properties": { "内容": "リハビリデイサービスいおり【地域密着型通所介護】奈良県生駒市壱分町83-55", "url": "https://www.kaigokensaku.mhlw.go.jp/29/index.php?action_kouhyou_detail_004_kani=true&JigyosyoCd=2970901530-00&ServiceCd=780&Type=search", "url2": null }, "geometry": { "type": "Point", "coordinates": [ 135.715452199999959, 34.6694063 ] } },
{ "type": "Feature", "properties": { "内容": "デイサービス　きずな【地域密着型通所介護】緑ヶ丘1426-92", "url": "https://www.kaigokensaku.mhlw.go.jp/29/index.php?action_kouhyou_detail_004_kani=true&JigyosyoCd=2990900116-00&ServiceCd=780&Type=search", "url2": null }, "geometry": { "type": "Point", "coordinates": [ 135.7003866, 34.6838661 ] } },
{ "type": "Feature", "properties": { "内容": "デイサービス　ロハスの春【地域密着型通所介護】奈良県生駒市東菜畑1-298-1メゾン東生駒106号", "url": "https://www.kaigokensaku.mhlw.go.jp/29/index.php?action_kouhyou_detail_004_kani=true&JigyosyoCd=2990900108-00&ServiceCd=780&Type=search", "url2": null }, "geometry": { "type": "Point", "coordinates": [ 135.714691, 34.6862131 ] } },
{ "type": "Feature", "properties": { "内容": "リハビリハウスてるてる【地域密着型通所介護】奈良県生駒市壱分町１２２０番地４", "url": "https://www.kaigokensaku.mhlw.go.jp/29/index.php?action_kouhyou_detail_004_kani=true&JigyosyoCd=2990900215-00&ServiceCd=780&Type=search", "url2": "https://www.teruteru-koh.com/" }, "geometry": { "type": "Point", "coordinates": [ 135.7062248, 34.6746596 ] } },
{ "type": "Feature", "properties": { "内容": "デイサービスほぅむ【地域密着型通所介護】奈良県香芝市白鳳台2-21-1", "url": "https://www.kaigokensaku.mhlw.go.jp/29/index.php?action_kouhyou_detail_004_kani=true&JigyosyoCd=2971000936-00&ServiceCd=780&Type=search", "url2": "http://irtp-home.com" }, "geometry": { "type": "Point", "coordinates": [ 135.695092100000011, 34.5703358 ] } },
{ "type": "Feature", "properties": { "内容": "リハビリデイサービス　つながり【地域密着型通所介護】五位堂2-582-1ブランドール壱番館1F　101", "url": "https://www.kaigokensaku.mhlw.go.jp/29/index.php?action_kouhyou_detail_004_kani=true&JigyosyoCd=2971001181-00&ServiceCd=780&Type=search", "url2": null }, "geometry": { "type": "Point", "coordinates": [ 135.714944880658436, 34.535537858545958 ] } },
{ "type": "Feature", "properties": { "内容": "よいしょデイサービスセンター【地域密着型通所介護】奈良県香芝市良福寺263-1", "url": "https://www.kaigokensaku.mhlw.go.jp/29/index.php?action_kouhyou_detail_004_kani=true&JigyosyoCd=2971000712-00&ServiceCd=780&Type=search", "url2": null }, "geometry": { "type": "Point", "coordinates": [ 135.70990519999998, 34.5291802 ] } },
{ "type": "Feature", "properties": { "内容": "デイサービスセンターきらぼし【地域密着型通所介護】奈良県香芝市五位堂６丁目２２０-１", "url": "https://www.kaigokensaku.mhlw.go.jp/29/index.php?action_kouhyou_detail_004_kani=true&JigyosyoCd=2991000098-00&ServiceCd=780&Type=search", "url2": "https://kiraboshi.katsuragi-care.com/" }, "geometry": { "type": "Point", "coordinates": [ 135.719293678505352, 34.529796534918944 ] } },
{ "type": "Feature", "properties": { "内容": "リハビリデイサービス笑瑠【地域密着型通所介護】上中８４１番地６", "url": "https://www.kaigokensaku.mhlw.go.jp/29/index.php?action_kouhyou_detail_004_kani=true&JigyosyoCd=2991000197-00&ServiceCd=780&Type=search", "url2": null }, "geometry": { "type": "Point", "coordinates": [ 135.699579300000011, 34.5529349 ] } },
{ "type": "Feature", "properties": { "内容": "デイサービスぐりーん【地域密着型通所介護】葛城市林堂404-1", "url": "https://www.kaigokensaku.mhlw.go.jp/29/index.php?action_kouhyou_detail_004_kani=true&JigyosyoCd=2974800407-00&ServiceCd=780&Type=search", "url2": "https://n-caring.jp/" }, "geometry": { "type": "Point", "coordinates": [ 135.719374735551469, 34.477622301012886 ] } },
{ "type": "Feature", "properties": { "内容": "満天【地域密着型通所介護】奈良県葛城市新在家286-1", "url": "https://www.kaigokensaku.mhlw.go.jp/29/index.php?action_kouhyou_detail_004_kani=true&JigyosyoCd=2994800023-00&ServiceCd=780&Type=search", "url2": "http://manten.katsuragi-care.com/" }, "geometry": { "type": "Point", "coordinates": [ 135.696507625058217, 34.52496998825729 ] } },
{ "type": "Feature", "properties": { "内容": "デイサービスセンター笛吹【地域密着型通所介護】奈良県葛城市笛吹546-1", "url": "https://www.kaigokensaku.mhlw.go.jp/29/index.php?action_kouhyou_detail_004_kani=true&JigyosyoCd=2974800399-00&ServiceCd=780&Type=search", "url2": "http://hp.kaipoke.biz/7nd/" }, "geometry": { "type": "Point", "coordinates": [ 135.712810400000023, 34.4709263 ] } },
{ "type": "Feature", "properties": { "内容": "デイサービスベルライフ葛城【地域密着型通所介護】奈良県葛城市北花内", "url": "https://www.kaigokensaku.mhlw.go.jp/29/index.php?action_kouhyou_detail_004_kani=true&JigyosyoCd=2974800506-00&ServiceCd=780&Type=search", "url2": "https://www.bellage.co.jp/" }, "geometry": { "type": "Point", "coordinates": [ 135.7319645, 34.4855183 ] } },
{ "type": "Feature", "properties": { "内容": "社会福祉法人葛城市社会福祉協議会【地域密着型通所介護】葛城市染野７８９番地１", "url": "https://www.kaigokensaku.mhlw.go.jp/29/index.php?action_kouhyou_detail_004_kani=true&JigyosyoCd=2974800019-00&ServiceCd=780&Type=search", "url2": "http://katsuragi-shakyo.jp/" }, "geometry": { "type": "Point", "coordinates": [ 135.693840300000033, 34.5203672 ] } },
{ "type": "Feature", "properties": { "内容": "デイサービス「和の里」【地域密着型通所介護】奈良県葛城市山田318-3", "url": "https://www.kaigokensaku.mhlw.go.jp/29/index.php?action_kouhyou_detail_004_kani=true&JigyosyoCd=2974800159-00&ServiceCd=780&Type=search", "url2": null }, "geometry": { "type": "Point", "coordinates": [ 135.71347830000002, 34.476681 ] } },
{ "type": "Feature", "properties": { "内容": "デイサービス悠花【地域密着型通所介護】奈良県葛城市染野205-3", "url": "https://www.kaigokensaku.mhlw.go.jp/29/index.php?action_kouhyou_detail_004_kani=true&JigyosyoCd=2994800031-00&ServiceCd=780&Type=search", "url2": null }, "geometry": { "type": "Point", "coordinates": [ 135.6989969, 34.5218188 ] } },
{ "type": "Feature", "properties": { "内容": "特定非営利活動法人サポートセンターきずな【地域密着型通所介護】宇陀市榛原萩原１７３番地の３", "url": "https://www.kaigokensaku.mhlw.go.jp/29/index.php?action_kouhyou_detail_004_kani=true&JigyosyoCd=2974900264-00&ServiceCd=780&Type=search", "url2": null }, "geometry": { "type": "Point", "coordinates": [ 135.9551467, 34.5286456 ] } },
{ "type": "Feature", "properties": { "内容": "ディサービス四つ葉のクローバー　榛原【地域密着型通所介護】奈良県宇陀市榛原下井足1933番17", "url": "https://www.kaigokensaku.mhlw.go.jp/29/index.php?action_kouhyou_detail_004_kani=true&JigyosyoCd=2974900405-00&ServiceCd=780&Type=search", "url2": "http://www.grandsoul.co.jp/clover" }, "geometry": { "type": "Point", "coordinates": [ 135.953726247746346, 34.529326202995719 ] } },
{ "type": "Feature", "properties": { "内容": "デイサービスひだまり【地域密着型通所介護】奈良県宇陀市榛原ひのき坂２丁目１番地の１０", "url": "https://www.kaigokensaku.mhlw.go.jp/29/index.php?action_kouhyou_detail_004_kani=true&JigyosyoCd=2974900280-00&ServiceCd=780&Type=search", "url2": null }, "geometry": { "type": "Point", "coordinates": [ 135.961301899999967, 34.5381863 ] } },
{ "type": "Feature", "properties": { "内容": "デイサービスちくま【地域密着型通所介護】榛原下井足8", "url": "https://www.kaigokensaku.mhlw.go.jp/29/index.php?action_kouhyou_detail_004_kani=true&JigyosyoCd=2974900363-00&ServiceCd=780&Type=search", "url2": null }, "geometry": { "type": "Point", "coordinates": [ 135.954169, 34.5289955 ] } },
{ "type": "Feature", "properties": { "内容": "デイサービス　ベルライフ榛原【地域密着型通所介護】奈良県宇陀市榛原萩原2431-2-101ベラージュ榛原駅前101号室", "url": "https://www.kaigokensaku.mhlw.go.jp/29/index.php?action_kouhyou_detail_004_kani=true&JigyosyoCd=2974900355-00&ServiceCd=780&Type=search", "url2": "www.bellage.co.jp" }, "geometry": { "type": "Point", "coordinates": [ 135.956104563229388, 34.529990261723555 ] } },
{ "type": "Feature", "properties": { "内容": "デイサービスセンターにこにこ【地域密着型通所介護】奈良県宇陀市菟田野岩崎238-6", "url": "https://www.kaigokensaku.mhlw.go.jp/29/index.php?action_kouhyou_detail_004_kani=true&JigyosyoCd=2974900116-00&ServiceCd=780&Type=search", "url2": "http://yagifukushikai.sitemix.jp" }, "geometry": { "type": "Point", "coordinates": [ 135.961955499999931, 34.4759327 ] } },
{ "type": "Feature", "properties": { "内容": "有限会社うだ介護サービス【地域密着型通所介護】奈良県宇陀市大宇陀春日330番医6", "url": "https://www.kaigokensaku.mhlw.go.jp/29/index.php?action_kouhyou_detail_004_kani=true&JigyosyoCd=2972100032-00&ServiceCd=780&Type=search", "url2": null }, "geometry": { "type": "Point", "coordinates": [ 135.932257827509716, 34.485367078681854 ] } },
{ "type": "Feature", "properties": { "内容": "デイサービスセンターゆうき【地域密着型通所介護】奈良県生駒郡平群町椹原496番地", "url": "https://www.kaigokensaku.mhlw.go.jp/29/index.php?action_kouhyou_detail_004_kani=true&JigyosyoCd=2971400383-00&ServiceCd=780&Type=search", "url2": null }, "geometry": { "type": "Point", "coordinates": [ 135.6912137, 34.6171746 ] } },
{ "type": "Feature", "properties": { "内容": "れぷす【地域密着型通所介護】奈良県生駒郡平群町初香台１－１－１３", "url": "https://www.kaigokensaku.mhlw.go.jp/29/index.php?action_kouhyou_detail_004_kani=true&JigyosyoCd=2971400359-00&ServiceCd=780&Type=search", "url2": null }, "geometry": { "type": "Point", "coordinates": [ 135.700181036029107, 34.628035440977669 ] } },
{ "type": "Feature", "properties": { "内容": "デイサービスセンターつくしの里【地域密着型通所介護】奈良県生駒郡平群町大字三里65番地", "url": "https://www.kaigokensaku.mhlw.go.jp/29/index.php?action_kouhyou_detail_004_kani=true&JigyosyoCd=2991400058-00&ServiceCd=780&Type=search", "url2": "https://www.instagram.com/tukusinosato.heguri/" }, "geometry": { "type": "Point", "coordinates": [ 135.7086213, 34.6255611 ] } },
{ "type": "Feature", "properties": { "内容": "ＳＡＹＡＫＡデイサービスセンター【地域密着型通所介護】奈良県生駒郡三郷町勢野東２丁目４番２２号", "url": "https://www.kaigokensaku.mhlw.go.jp/29/index.php?action_kouhyou_detail_004_kani=true&JigyosyoCd=2971500422-00&ServiceCd=780&Type=search", "url2": "http://www.sangocho.com" }, "geometry": { "type": "Point", "coordinates": [ 135.699812899999984, 34.6038125 ] } },
{ "type": "Feature", "properties": { "内容": "デイサービスあゆみの家【地域密着型通所介護】奈良県生駒郡三郷町立野北1-27-32", "url": "https://www.kaigokensaku.mhlw.go.jp/29/index.php?action_kouhyou_detail_004_kani=true&JigyosyoCd=2971500133-00&ServiceCd=780&Type=search", "url2": "http://www.grandhill.jp" }, "geometry": { "type": "Point", "coordinates": [ 135.692983199999958, 34.5955077 ] } },
{ "type": "Feature", "properties": { "内容": "デイサービスセンターあおぞら【地域密着型通所介護】奈良県生駒郡三郷町立野南2-19-24", "url": "https://www.kaigokensaku.mhlw.go.jp/29/index.php?action_kouhyou_detail_004_kani=true&JigyosyoCd=2971500414-00&ServiceCd=780&Type=search", "url2": null }, "geometry": { "type": "Point", "coordinates": [ 135.68339519999995, 34.5928942 ] } },
{ "type": "Feature", "properties": { "内容": "デイサービスセンター　くるみ【地域密着型通所介護】生駒郡三郷町東信貴ヶ丘　１-2-27", "url": "https://www.kaigokensaku.mhlw.go.jp/29/index.php?action_kouhyou_detail_004_kani=true&JigyosyoCd=2971500471-00&ServiceCd=780&Type=search", "url2": "www.3533house.com" }, "geometry": { "type": "Point", "coordinates": [ 135.702904200000035, 34.6067012 ] } },
{ "type": "Feature", "properties": { "内容": "でいさーびすあんどえん【地域密着型通所介護】奈良県生駒郡安堵町西安堵570-1", "url": "https://www.kaigokensaku.mhlw.go.jp/29/index.php?action_kouhyou_detail_004_kani=true&JigyosyoCd=2971700154-00&ServiceCd=780&Type=search", "url2": "http://dayserviceandoen.okoshi-yasu.com/" }, "geometry": { "type": "Point", "coordinates": [ 135.75309850093447, 34.605731973161589 ] } },
{ "type": "Feature", "properties": { "内容": "デイサービスどんどこ【地域密着型通所介護】奈良県生駒郡安堵町東安堵７番地の３０", "url": "https://www.kaigokensaku.mhlw.go.jp/29/index.php?action_kouhyou_detail_004_kani=true&JigyosyoCd=2971700105-00&ServiceCd=780&Type=search", "url2": null }, "geometry": { "type": "Point", "coordinates": [ 135.760154693254094, 34.61806555594039 ] } },
{ "type": "Feature", "properties": { "内容": "リハビリデイ結【地域密着型通所介護】奈良県磯城郡川西町結崎452-56", "url": "https://www.kaigokensaku.mhlw.go.jp/29/index.php?action_kouhyou_detail_004_kani=true&JigyosyoCd=2971800087-00&ServiceCd=780&Type=search", "url2": "https://casadelsole.jp" }, "geometry": { "type": "Point", "coordinates": [ 135.78195259765738, 34.585359796936885 ] } },
{ "type": "Feature", "properties": { "内容": "デイサービスセンー　うちの家【地域密着型通所介護】奈良県磯城郡三宅町石見５２３－６９", "url": "https://www.kaigokensaku.mhlw.go.jp/29/index.php?action_kouhyou_detail_004_kani=true&JigyosyoCd=2971900051-00&ServiceCd=780&Type=search", "url2": null }, "geometry": { "type": "Point", "coordinates": [ 135.789295700000025, 34.570521 ] } },
{ "type": "Feature", "properties": { "内容": "デイサービスしきの郷【地域密着型通所介護】奈良県磯城郡田原本町西竹田27-1", "url": "https://www.kaigokensaku.mhlw.go.jp/29/index.php?action_kouhyou_detail_004_kani=true&JigyosyoCd=2972000620-00&ServiceCd=780&Type=search", "url2": "http://sikinosato.org/" }, "geometry": { "type": "Point", "coordinates": [ 135.772258100000045, 34.5559722 ] } },
{ "type": "Feature", "properties": { "内容": "デイホーム　たんぽぽ【地域密着型通所介護】奈良県磯城郡田原本町黒田479－3", "url": "https://www.kaigokensaku.mhlw.go.jp/29/index.php?action_kouhyou_detail_004_kani=true&JigyosyoCd=2972000422-00&ServiceCd=780&Type=search", "url2": "https://www.tanpopo.nara.jp" }, "geometry": { "type": "Point", "coordinates": [ 135.781103622090114, 34.569392451823695 ] } },
{ "type": "Feature", "properties": { "内容": "社会福祉法人曽爾村社会福祉協議会【地域密着型通所介護】奈良県宇陀郡曽爾村伊賀見２３－１曽爾村蘇いの森", "url": "https://www.kaigokensaku.mhlw.go.jp/29/index.php?action_kouhyou_detail_004_kani=true&JigyosyoCd=2972500025-00&ServiceCd=780&Type=search", "url2": null }, "geometry": { "type": "Point", "coordinates": [ 136.142608900000027, 34.5276616 ] } },
{ "type": "Feature", "properties": { "内容": "社会福祉法人　明日香村社会福祉協議会【地域密着型通所介護】奈良県高市郡明日香村大字立部７４５番地", "url": "https://www.kaigokensaku.mhlw.go.jp/29/index.php?action_kouhyou_detail_004_kani=true&JigyosyoCd=2972800029-00&ServiceCd=780&Type=search", "url2": "http://web1.kcn.jp/asuka-shakyo" }, "geometry": { "type": "Point", "coordinates": [ 135.814255600000024, 34.4679562 ] } },
{ "type": "Feature", "properties": { "内容": "ライズ【地域密着型通所介護】奈良県北葛城郡上牧町米山台一丁目2-5-1", "url": "https://www.kaigokensaku.mhlw.go.jp/29/index.php?action_kouhyou_detail_004_kani=true&JigyosyoCd=2973100536-00&ServiceCd=780&Type=search", "url2": null }, "geometry": { "type": "Point", "coordinates": [ 135.714221135581965, 34.560251722414286 ] } },
{ "type": "Feature", "properties": { "内容": "介護のみき　西大和デイサービスセンター【地域密着型通所介護】奈良県北葛城郡上牧町桜ヶ丘3丁目35-11", "url": "https://www.kaigokensaku.mhlw.go.jp/29/index.php?action_kouhyou_detail_004_kani=true&JigyosyoCd=2973100239-00&ServiceCd=780&Type=search", "url2": "http://www.jcare.co.jp/" }, "geometry": { "type": "Point", "coordinates": [ 135.72144789999993, 34.5756082 ] } },
{ "type": "Feature", "properties": { "内容": "リハビリデイサービス春の樹【地域密着型通所介護】奈良県北葛城郡上牧町大字上牧3388番地2", "url": "https://www.kaigokensaku.mhlw.go.jp/29/index.php?action_kouhyou_detail_004_kani=true&JigyosyoCd=2973100528-00&ServiceCd=780&Type=search", "url2": "http://www.rehabili-harunoki.com" }, "geometry": { "type": "Point", "coordinates": [ 135.716984599999932, 34.564362199999977 ] } },
{ "type": "Feature", "properties": { "内容": "デイサービスセンターなないろ【地域密着型通所介護】奈良県北葛城郡王寺町明神４－２３－１３", "url": "https://www.kaigokensaku.mhlw.go.jp/29/index.php?action_kouhyou_detail_004_kani=true&JigyosyoCd=2973200427-00&ServiceCd=780&Type=search", "url2": null }, "geometry": { "type": "Point", "coordinates": [ 135.687106500000027, 34.5763794 ] } },
{ "type": "Feature", "properties": { "内容": "茶話本舗デイサービス笑陽畠田の家【地域密着型通所介護】奈良県北葛城郡王寺町畠田3-4-8", "url": "https://www.kaigokensaku.mhlw.go.jp/29/index.php?action_kouhyou_detail_004_kani=true&JigyosyoCd=2973200435-00&ServiceCd=780&Type=search", "url2": null }, "geometry": { "type": "Point", "coordinates": [ 135.705268700000033, 34.5795044 ] } },
{ "type": "Feature", "properties": { "内容": "デイサービスセンターてるてる【地域密着型通所介護】奈良県北葛城郡王寺町太子３－１－１２", "url": "https://www.kaigokensaku.mhlw.go.jp/29/index.php?action_kouhyou_detail_004_kani=true&JigyosyoCd=2973200336-00&ServiceCd=780&Type=search", "url2": null }, "geometry": { "type": "Point", "coordinates": [ 135.6918144, 34.5783097 ] } },
{ "type": "Feature", "properties": { "内容": "デイサービスセンター一真寺【地域密着型通所介護】奈良県北葛城郡広陵町古寺３７５", "url": "https://www.kaigokensaku.mhlw.go.jp/29/index.php?action_kouhyou_detail_004_kani=true&JigyosyoCd=2993300033-00&ServiceCd=780&Type=search", "url2": null }, "geometry": { "type": "Point", "coordinates": [ 135.751450699999964, 34.5520078 ] } },
{ "type": "Feature", "properties": { "内容": "エリシオン真美ヶ丘【地域密着型通所介護】奈良県北葛城郡広陵町馬見南4丁目1－19", "url": "https://www.kaigokensaku.mhlw.go.jp/29/index.php?action_kouhyou_detail_004_kani=true&JigyosyoCd=2993300066-00&ServiceCd=780&Type=search", "url2": "https://elysion.jp/" }, "geometry": { "type": "Point", "coordinates": [ 135.72859, 34.5380415 ] } },
{ "type": "Feature", "properties": { "内容": "デイサービス真美ヶ丘【地域密着型通所介護】奈良県北葛城郡広陵町馬見北3丁目12-11", "url": "https://www.kaigokensaku.mhlw.go.jp/29/index.php?action_kouhyou_detail_004_kani=true&JigyosyoCd=2973300094-00&ServiceCd=780&Type=search", "url2": null }, "geometry": { "type": "Point", "coordinates": [ 135.728644900000063, 34.5327606 ] } },
{ "type": "Feature", "properties": { "内容": "大和園　ちあふる【地域密着型通所介護】奈良県北葛城郡広陵町大字安部450-1", "url": "https://www.kaigokensaku.mhlw.go.jp/29/index.php?action_kouhyou_detail_004_kani=true&JigyosyoCd=2993300058-00&ServiceCd=780&Type=search", "url2": "www.yamatoen.or.jp" }, "geometry": { "type": "Point", "coordinates": [ 135.745287499999989, 34.5337316 ] } },
{ "type": "Feature", "properties": { "内容": "クレシェンドデイサービス【地域密着型通所介護】奈良県北葛城郡河合町星和台１－１０－１１", "url": "https://www.kaigokensaku.mhlw.go.jp/29/index.php?action_kouhyou_detail_004_kani=true&JigyosyoCd=2973400282-00&ServiceCd=780&Type=search", "url2": null }, "geometry": { "type": "Point", "coordinates": [ 135.714639799999986, 34.5869344 ] } },
{ "type": "Feature", "properties": { "内容": "南和病院デイサービスセンター【地域密着型通所介護】奈良県吉野郡大淀町福神１－１８１", "url": "https://www.kaigokensaku.mhlw.go.jp/29/index.php?action_kouhyou_detail_004_kani=true&JigyosyoCd=2973600279-00&ServiceCd=780&Type=search", "url2": "https://www.koujin.jp" }, "geometry": { "type": "Point", "coordinates": [ 135.754547716732759, 34.393540613513885 ] } },
{ "type": "Feature", "properties": { "内容": "デイサービスみなみやまと【地域密着型通所介護】奈良県吉野郡大淀町土田507-469", "url": "https://www.kaigokensaku.mhlw.go.jp/29/index.php?action_kouhyou_detail_004_kani=true&JigyosyoCd=2973600337-00&ServiceCd=780&Type=search", "url2": null }, "geometry": { "type": "Point", "coordinates": [ 135.8020338, 34.3985637 ] } },
{ "type": "Feature", "properties": { "内容": "デイサービスセンターかいんど【地域密着型通所介護】奈良県吉野郡下市町よ邑29-5", "url": "https://www.kaigokensaku.mhlw.go.jp/29/index.php?action_kouhyou_detail_004_kani=true&JigyosyoCd=2973700095-00&ServiceCd=780&Type=search", "url2": null }, "geometry": { "type": "Point", "coordinates": [ 135.804043099999944, 34.3543489 ] } },
{ "type": "Feature", "properties": { "内容": "黒滝村ディサービスセンター【地域密着型通所介護】奈良県吉野郡黒滝村大字寺戸１８７番地の２（黒滝村デイサービスセンター内）", "url": "https://www.kaigokensaku.mhlw.go.jp/29/index.php?action_kouhyou_detail_004_kani=true&JigyosyoCd=2973800044-00&ServiceCd=780&Type=search", "url2": "http://kurotakisyakyo.com/" }, "geometry": { "type": "Point", "coordinates": [ 135.8521422, 34.3093069 ] } },
{ "type": "Feature", "properties": { "内容": "社会福祉法人天川村社会福祉協議会【地域密着型通所介護】奈良県吉野郡天川村南日裏200番地ほほえみポート天川内", "url": "https://www.kaigokensaku.mhlw.go.jp/29/index.php?action_kouhyou_detail_004_kani=true&JigyosyoCd=2994000012-00&ServiceCd=780&Type=search", "url2": "https://tenkawasyakyou.jindo.com/" }, "geometry": { "type": "Point", "coordinates": [ 135.840980318385249, 34.227732492359003 ] } },
{ "type": "Feature", "properties": { "内容": "ふれあいサロン　太陽わらびお【地域密着型通所介護】奈良県吉野郡十津川平谷６９３番地", "url": "https://www.kaigokensaku.mhlw.go.jp/29/index.php?action_kouhyou_detail_004_kani=true&JigyosyoCd=2994300032-00&ServiceCd=780&Type=search", "url2": "http://www5.kcn.ne.jp/~ace-101/gaiyo.htm" }, "geometry": { "type": "Point", "coordinates": [ 135.7625123, 33.9386781 ] } },
{ "type": "Feature", "properties": { "内容": "あきの里　デイサービスセンター【地域密着型通所介護】奈良県吉野郡十津川村大字平谷459番地の1", "url": "https://www.kaigokensaku.mhlw.go.jp/29/index.php?action_kouhyou_detail_004_kani=true&JigyosyoCd=2974300101-00&ServiceCd=780&Type=search", "url2": null }, "geometry": { "type": "Point", "coordinates": [ 135.768655230092008, 33.940606017399702 ] } },
{ "type": "Feature", "properties": { "内容": "十津川村デイサービスセンター高森の郷【地域密着型通所介護】奈良県吉野郡十津川村猿飼308-2", "url": "https://www.kaigokensaku.mhlw.go.jp/29/index.php?action_kouhyou_detail_004_kani=true&JigyosyoCd=2994300040-00&ServiceCd=780&Type=search", "url2": "https://www.maywakai.info/" }, "geometry": { "type": "Point", "coordinates": [ 135.7656972, 33.934535 ] } },
{ "type": "Feature", "properties": { "内容": "社会福祉法人　川上村社会福祉協議会【地域密着型通所介護】奈良県吉野郡川上村大字迫1374番地の2", "url": "https://www.kaigokensaku.mhlw.go.jp/29/index.php?action_kouhyou_detail_004_kani=true&JigyosyoCd=2974600013-00&ServiceCd=780&Type=search", "url2": null }, "geometry": { "type": "Point", "coordinates": [ 135.9584357, 34.3337274 ] } }
]
}
