{
"type": "FeatureCollection",
"name": "geo_29_短期入所生活介護",
"crs": { "type": "name", "properties": { "name": "urn:ogc:def:crs:OGC:1.3:CRS84" } },
"features": [
{ "type": "Feature", "properties": { "内容": "特別養護老人ホームかがやきの苑（かがやきのその）【短期入所生活介護】奈良市奈良阪町２７８９－１", "url": "https://www.kaigokensaku.mhlw.go.jp/29/index.php?action_kouhyou_detail_004_kani=true&JigyosyoCd=2970103608-00&ServiceCd=210&Type=search", "url2": null }, "geometry": { "type": "Point", "coordinates": [ 135.837116199999969, 34.7033185 ] } },
{ "type": "Feature", "properties": { "内容": "ウェルライフ希【短期入所生活介護】奈良県奈良市大和田町1166", "url": "https://www.kaigokensaku.mhlw.go.jp/29/index.php?action_kouhyou_detail_004_kani=true&JigyosyoCd=2970106817-00&ServiceCd=210&Type=search", "url2": "www.wellconsul.co,jp" }, "geometry": { "type": "Point", "coordinates": [ 135.8050002, 34.6850869 ] } },
{ "type": "Feature", "properties": { "内容": "ル･エンゲージなかがわ3番館【短期入所生活介護】奈良市奈良阪町167番地", "url": "https://www.kaigokensaku.mhlw.go.jp/29/index.php?action_kouhyou_detail_004_kani=true&JigyosyoCd=2970105504-00&ServiceCd=210&Type=search", "url2": "https://frei-stadt.com/" }, "geometry": { "type": "Point", "coordinates": [ 135.829480600000011, 34.7089873 ] } },
{ "type": "Feature", "properties": { "内容": "特別養護老人ホームなら清寿苑【短期入所生活介護】奈良市田中町６０２番１", "url": "https://www.kaigokensaku.mhlw.go.jp/29/index.php?action_kouhyou_detail_004_kani=true&JigyosyoCd=2970101503-00&ServiceCd=210&Type=search", "url2": "http://www.fureai-net.com" }, "geometry": { "type": "Point", "coordinates": [ 135.843438900000024, 34.6383321 ] } },
{ "type": "Feature", "properties": { "内容": "ショートステイあじさい園宝【短期入所生活介護】奈良市南肘塚町99-1", "url": "https://www.kaigokensaku.mhlw.go.jp/29/index.php?action_kouhyou_detail_004_kani=true&JigyosyoCd=2970106866-00&ServiceCd=210&Type=search", "url2": "http://www.ajisaien.or.jp" }, "geometry": { "type": "Point", "coordinates": [ 135.831389899999976, 34.6657534 ] } },
{ "type": "Feature", "properties": { "内容": "ショートステイらくじ苑【短期入所生活介護】奈良県奈良市八条５丁目437-11", "url": "https://www.kaigokensaku.mhlw.go.jp/29/index.php?action_kouhyou_detail_004_kani=true&JigyosyoCd=2970103855-00&ServiceCd=210&Type=search", "url2": "http://s-rakuji.com" }, "geometry": { "type": "Point", "coordinates": [ 135.800034399999959, 34.6672196 ] } },
{ "type": "Feature", "properties": { "内容": "特別養護老人ホーム梅花苑【短期入所生活介護】奈良市大和田町2226番地", "url": "https://www.kaigokensaku.mhlw.go.jp/29/index.php?action_kouhyou_detail_004_kani=true&JigyosyoCd=2970104200-00&ServiceCd=210&Type=search", "url2": "http://www.wellconsul.co.jp/main/shisetu/tokubetuyougo.html" }, "geometry": { "type": "Point", "coordinates": [ 135.743710800000031, 34.6673793 ] } },
{ "type": "Feature", "properties": { "内容": "特別養護老人ホームサンライフ西大寺【短期入所生活介護】奈良県奈良市西大寺南町1-28", "url": "https://www.kaigokensaku.mhlw.go.jp/29/index.php?action_kouhyou_detail_004_kani=true&JigyosyoCd=2970106874-00&ServiceCd=210&Type=search", "url2": "http://www.seiwakai-group.or.jp/" }, "geometry": { "type": "Point", "coordinates": [ 135.781781490876739, 34.693886337757604 ] } },
{ "type": "Feature", "properties": { "内容": "特別養護老人ホーム和楽園ショートステイ【短期入所生活介護】奈良市古市町１８８６番地の１", "url": "https://www.kaigokensaku.mhlw.go.jp/29/index.php?action_kouhyou_detail_004_kani=true&JigyosyoCd=2970101560-00&ServiceCd=210&Type=search", "url2": "http://www.warakuen.or.jp/" }, "geometry": { "type": "Point", "coordinates": [ 135.842825, 34.6650677 ] } },
{ "type": "Feature", "properties": { "内容": "エリシオン登美ヶ丘【短期入所生活介護】奈良市松陽台２丁目３－３３", "url": "https://www.kaigokensaku.mhlw.go.jp/29/index.php?action_kouhyou_detail_004_kani=true&JigyosyoCd=2970190969-00&ServiceCd=210&Type=search", "url2": "https://elysion.jp/" }, "geometry": { "type": "Point", "coordinates": [ 135.738281199999989, 34.718598 ] } },
{ "type": "Feature", "properties": { "内容": "おうとくケアセンター【短期入所生活介護】奈良県奈良市神殿町西谷691-3", "url": "https://www.kaigokensaku.mhlw.go.jp/29/index.php?action_kouhyou_detail_004_kani=true&JigyosyoCd=2970105967-00&ServiceCd=210&Type=search", "url2": "//www.outoku.com/" }, "geometry": { "type": "Point", "coordinates": [ 135.825401599999964, 34.6620704 ] } },
{ "type": "Feature", "properties": { "内容": "奈良京終ケアセンターそよ風【短期入所生活介護】南京終町681番地", "url": "https://www.kaigokensaku.mhlw.go.jp/29/index.php?action_kouhyou_detail_004_kani=true&JigyosyoCd=2970190282-00&ServiceCd=210&Type=search", "url2": "http://www.sykz.co.jp" }, "geometry": { "type": "Point", "coordinates": [ 135.822560399999986, 34.6646521 ] } },
{ "type": "Feature", "properties": { "内容": "サンタ・マリア【短期入所生活介護】奈良市朱雀４丁目３番地１０", "url": "https://www.kaigokensaku.mhlw.go.jp/29/index.php?action_kouhyou_detail_004_kani=true&JigyosyoCd=2970100414-00&ServiceCd=210&Type=search", "url2": "http://www.yozefu-home.or.jp/" }, "geometry": { "type": "Point", "coordinates": [ 135.798941300000024, 34.721077200000011 ] } },
{ "type": "Feature", "properties": { "内容": "特別養護老人ホームサンライフ明日香【短期入所生活介護】奈良市紀寺町５５６－１", "url": "https://www.kaigokensaku.mhlw.go.jp/29/index.php?action_kouhyou_detail_004_kani=true&JigyosyoCd=2970103327-00&ServiceCd=210&Type=search", "url2": "sunlife.asuka@seiwakai-group.or.jp" }, "geometry": { "type": "Point", "coordinates": [ 135.834511799999973, 34.6715334 ] } },
{ "type": "Feature", "properties": { "内容": "短期入所生活介護事業所　光の桜【短期入所生活介護】奈良県奈良市石木町715-1", "url": "https://www.kaigokensaku.mhlw.go.jp/29/index.php?action_kouhyou_detail_004_kani=true&JigyosyoCd=2970106536-00&ServiceCd=210&Type=search", "url2": "http://www.narayamakai.jp/" }, "geometry": { "type": "Point", "coordinates": [ 135.763590454244962, 34.660238359957809 ] } },
{ "type": "Feature", "properties": { "内容": "あすならハイツあやめ池　ショートステイ【短期入所生活介護】奈良市あやめ池南2丁目2-16あすならハイツ　あやめ池", "url": "https://www.kaigokensaku.mhlw.go.jp/29/index.php?action_kouhyou_detail_004_kani=true&JigyosyoCd=2970106213-00&ServiceCd=210&Type=search", "url2": "http://www.asunaraen.com" }, "geometry": { "type": "Point", "coordinates": [ 135.762522900000022, 34.6974791 ] } },
{ "type": "Feature", "properties": { "内容": "あすならホーム富雄【短期入所生活介護】奈良市鳥見町3丁目11-1", "url": "https://www.kaigokensaku.mhlw.go.jp/29/index.php?action_kouhyou_detail_004_kani=true&JigyosyoCd=2970104713-00&ServiceCd=210&Type=search", "url2": "http://www.asunaraen.com" }, "geometry": { "type": "Point", "coordinates": [ 135.724943, 34.6939735 ] } },
{ "type": "Feature", "properties": { "内容": "あすならハイツ恋の窪　ショートステイ【短期入所生活介護】奈良県奈良市恋の窪1丁目2番2号", "url": "https://www.kaigokensaku.mhlw.go.jp/29/index.php?action_kouhyou_detail_004_kani=true&JigyosyoCd=2970107385-00&ServiceCd=210&Type=search", "url2": "https://asunaraen.or.jp" }, "geometry": { "type": "Point", "coordinates": [ 135.808075199999962, 34.6766907 ] } },
{ "type": "Feature", "properties": { "内容": "特別養護老人ホーム　あじさい園【短期入所生活介護】奈良市茗荷町808-1", "url": "https://www.kaigokensaku.mhlw.go.jp/29/index.php?action_kouhyou_detail_004_kani=true&JigyosyoCd=2970100281-00&ServiceCd=210&Type=search", "url2": "http://www.ajisaien.or.jp" }, "geometry": { "type": "Point", "coordinates": [ 135.902224700000033, 34.6570114 ] } },
{ "type": "Feature", "properties": { "内容": "特別養護老人ホーム　リノ【短期入所生活介護】奈良市窪之庄町１１６－１", "url": "https://www.kaigokensaku.mhlw.go.jp/29/index.php?action_kouhyou_detail_004_kani=true&JigyosyoCd=2970103947-00&ServiceCd=210&Type=search", "url2": "https://www.shimeikai.or.jp" }, "geometry": { "type": "Point", "coordinates": [ 135.832600899999989, 34.6386178 ] } },
{ "type": "Feature", "properties": { "内容": "特別養護老人ホームこがねの里【短期入所生活介護】奈良県奈良市西大寺赤田町1丁目7番1-2号", "url": "https://www.kaigokensaku.mhlw.go.jp/29/index.php?action_kouhyou_detail_004_kani=true&JigyosyoCd=2970101289-00&ServiceCd=210&Type=search", "url2": "https://akishino-akane.com/" }, "geometry": { "type": "Point", "coordinates": [ 135.772386, 34.699843 ] } },
{ "type": "Feature", "properties": { "内容": "特別養護老人ホーム　長曽根寮【短期入所生活介護】奈良市大倭町４番１号", "url": "https://www.kaigokensaku.mhlw.go.jp/29/index.php?action_kouhyou_detail_004_kani=true&JigyosyoCd=2970100232-00&ServiceCd=210&Type=search", "url2": "http://www.asukaen.net/" }, "geometry": { "type": "Point", "coordinates": [ 135.758187200000066, 34.680781 ] } },
{ "type": "Feature", "properties": { "内容": "特別養護老人ホーム　こまどりと丘【短期入所生活介護】奈良県奈良市二名1丁目2356-1", "url": "https://www.kaigokensaku.mhlw.go.jp/29/index.php?action_kouhyou_detail_004_kani=true&JigyosyoCd=2970106429-00&ServiceCd=210&Type=search", "url2": "http://www.komadoritooka.jp/" }, "geometry": { "type": "Point", "coordinates": [ 135.736576701605259, 34.706865422201084 ] } },
{ "type": "Feature", "properties": { "内容": "特別養護老人ホーム　西ノ京苑【短期入所生活介護】奈良市六条西五丁目１７番４３号", "url": "https://www.kaigokensaku.mhlw.go.jp/29/index.php?action_kouhyou_detail_004_kani=true&JigyosyoCd=2970100943-00&ServiceCd=210&Type=search", "url2": null }, "geometry": { "type": "Point", "coordinates": [ 135.765362, 34.6646052 ] } },
{ "type": "Feature", "properties": { "内容": "特別養護老人ホーム　トマトホーム【短期入所生活介護】奈良市横井町906-12", "url": "https://www.kaigokensaku.mhlw.go.jp/29/index.php?action_kouhyou_detail_004_kani=true&JigyosyoCd=2970104416-00&ServiceCd=210&Type=search", "url2": "https://www.tomato-home.or.jp" }, "geometry": { "type": "Point", "coordinates": [ 135.850966, 34.656619 ] } },
{ "type": "Feature", "properties": { "内容": "ならやま園ショートステイサービス【短期入所生活介護】奈良市山陵町1085", "url": "https://www.kaigokensaku.mhlw.go.jp/29/index.php?action_kouhyou_detail_004_kani=true&JigyosyoCd=2970101057-00&ServiceCd=210&Type=search", "url2": "http://fukujukai.or.jp" }, "geometry": { "type": "Point", "coordinates": [ 135.781954199999973, 34.7116197 ] } },
{ "type": "Feature", "properties": { "内容": "ユニット型特別養護老人ホーム平城園【短期入所生活介護】奈良県奈良市秋篠町１５６７番地", "url": "https://www.kaigokensaku.mhlw.go.jp/29/index.php?action_kouhyou_detail_004_kani=true&JigyosyoCd=2970108086-00&ServiceCd=210&Type=search", "url2": "https://fukujukai.or.jp/" }, "geometry": { "type": "Point", "coordinates": [ 135.779213499999969, 34.7121351 ] } },
{ "type": "Feature", "properties": { "内容": "特別養護老人ホーム平城園【短期入所生活介護】奈良市秋篠町１５６７番地", "url": "https://www.kaigokensaku.mhlw.go.jp/29/index.php?action_kouhyou_detail_004_kani=true&JigyosyoCd=2970100315-00&ServiceCd=210&Type=search", "url2": "http://fukujukai.or.jp/heijyo" }, "geometry": { "type": "Point", "coordinates": [ 135.7789239, 34.7121751 ] } },
{ "type": "Feature", "properties": { "内容": "万葉苑ショートステイサービス【短期入所生活介護】奈良市川上町875番地の1", "url": "https://www.kaigokensaku.mhlw.go.jp/29/index.php?action_kouhyou_detail_004_kani=true&JigyosyoCd=2970100612-00&ServiceCd=210&Type=search", "url2": "http://www.manyoen.jp/" }, "geometry": { "type": "Point", "coordinates": [ 135.84409340000002, 34.70238 ] } },
{ "type": "Feature", "properties": { "内容": "香梅苑短期入所生活介護事業所【短期入所生活介護】奈良県奈良市月ヶ瀬尾山817-5", "url": "https://www.kaigokensaku.mhlw.go.jp/29/index.php?action_kouhyou_detail_004_kani=true&JigyosyoCd=2971100058-00&ServiceCd=210&Type=search", "url2": null }, "geometry": { "type": "Point", "coordinates": [ 136.047117100000037, 34.7148687 ] } },
{ "type": "Feature", "properties": { "内容": "都祁すずらん苑【短期入所生活介護】奈良県奈良市都祁友田町１４３７番地", "url": "https://www.kaigokensaku.mhlw.go.jp/29/index.php?action_kouhyou_detail_004_kani=true&JigyosyoCd=2971200023-00&ServiceCd=210&Type=search", "url2": "https://www.yamatokai-suzuran.com" }, "geometry": { "type": "Point", "coordinates": [ 135.945615099999941, 34.6017347 ] } },
{ "type": "Feature", "properties": { "内容": "学園前西ショートステイ【短期入所生活介護】奈良市二名三丁目１１５１番地１", "url": "https://www.kaigokensaku.mhlw.go.jp/29/index.php?action_kouhyou_detail_004_kani=true&JigyosyoCd=2970101651-00&ServiceCd=210&Type=search", "url2": "https://www.naraen.or.jp" }, "geometry": { "type": "Point", "coordinates": [ 135.726017800000022, 34.7040559 ] } },
{ "type": "Feature", "properties": { "内容": "社会福祉法人甘樫会　あまがし苑高田【短期入所生活介護】奈良県大和高田市神楽3丁目11番13号", "url": "https://www.kaigokensaku.mhlw.go.jp/29/index.php?action_kouhyou_detail_004_kani=true&JigyosyoCd=2970201550-00&ServiceCd=210&Type=search", "url2": "http://amagashi-t.com/" }, "geometry": { "type": "Point", "coordinates": [ 135.7453116, 34.5240057 ] } },
{ "type": "Feature", "properties": { "内容": "特別養護老人ホーム　慈光園【短期入所生活介護】大和高田市大字池田444番地", "url": "https://www.kaigokensaku.mhlw.go.jp/29/index.php?action_kouhyou_detail_004_kani=true&JigyosyoCd=2970200115-00&ServiceCd=210&Type=search", "url2": "http://www.jikohen.com/" }, "geometry": { "type": "Point", "coordinates": [ 135.73168110000006, 34.5203789 ] } },
{ "type": "Feature", "properties": { "内容": "和里（にこり）【短期入所生活介護】奈良県大和高田市野口325番3", "url": "https://www.kaigokensaku.mhlw.go.jp/29/index.php?action_kouhyou_detail_004_kani=true&JigyosyoCd=2970200750-00&ServiceCd=210&Type=search", "url2": "http://www.nicori.or.jp/" }, "geometry": { "type": "Point", "coordinates": [ 135.721026199999983, 34.5250476 ] } },
{ "type": "Feature", "properties": { "内容": "特別養護老人ホーム　きづなの里【短期入所生活介護】奈良県大和郡山市山田町３３７－２", "url": "https://www.kaigokensaku.mhlw.go.jp/29/index.php?action_kouhyou_detail_004_kani=true&JigyosyoCd=2970301475-00&ServiceCd=210&Type=search", "url2": "http://kidunanosato.com/" }, "geometry": { "type": "Point", "coordinates": [ 135.740064500000017, 34.6333295 ] } },
{ "type": "Feature", "properties": { "内容": "特別養護老人ホームウェルケアはるか【短期入所生活介護】奈良県大和郡山市天井町227-1", "url": "https://www.kaigokensaku.mhlw.go.jp/29/index.php?action_kouhyou_detail_004_kani=true&JigyosyoCd=2970301673-00&ServiceCd=210&Type=search", "url2": "http://www.wellgroup.jp" }, "geometry": { "type": "Point", "coordinates": [ 135.786850800000025, 34.6388774 ] } },
{ "type": "Feature", "properties": { "内容": "特別養護老人ホーム瑞祥苑【短期入所生活介護】奈良県大和郡山市矢田町端田4739番地の4", "url": "https://www.kaigokensaku.mhlw.go.jp/29/index.php?action_kouhyou_detail_004_kani=true&JigyosyoCd=2970300162-00&ServiceCd=210&Type=search", "url2": "https://zuishouen.or.jp" }, "geometry": { "type": "Point", "coordinates": [ 135.750059982170143, 34.649095452127419 ] } },
{ "type": "Feature", "properties": { "内容": "あすなら苑【短期入所生活介護】奈良県大和郡山市宮堂町字青木160番7", "url": "https://www.kaigokensaku.mhlw.go.jp/29/index.php?action_kouhyou_detail_004_kani=true&JigyosyoCd=2970300121-00&ServiceCd=210&Type=search", "url2": "https://asunaraen.or.jp" }, "geometry": { "type": "Point", "coordinates": [ 135.786481099999946, 34.6019069 ] } },
{ "type": "Feature", "properties": { "内容": "あすならホーム郡山　ショートステイ【短期入所生活介護】奈良県大和郡山市新木町365-1", "url": "https://www.kaigokensaku.mhlw.go.jp/29/index.php?action_kouhyou_detail_004_kani=true&JigyosyoCd=2970301491-00&ServiceCd=210&Type=search", "url2": "http://www.asunaraen.com" }, "geometry": { "type": "Point", "coordinates": [ 135.7735117, 34.6420519 ] } },
{ "type": "Feature", "properties": { "内容": "千年希望の杜大和郡山【短期入所生活介護】奈良県大和郡山市矢田町６８６番１", "url": "https://www.kaigokensaku.mhlw.go.jp/29/index.php?action_kouhyou_detail_004_kani=true&JigyosyoCd=2970301822-00&ServiceCd=210&Type=search", "url2": "http://keishukai.or.jp/" }, "geometry": { "type": "Point", "coordinates": [ 135.740254, 34.6533296 ] } },
{ "type": "Feature", "properties": { "内容": "特別養護老人ホーム大和園平和【短期入所生活介護】奈良県大和郡山市美濃庄町236-1", "url": "https://www.kaigokensaku.mhlw.go.jp/29/index.php?action_kouhyou_detail_004_kani=true&JigyosyoCd=2970300089-00&ServiceCd=210&Type=search", "url2": "http://www.yamatoen.or.jp/" }, "geometry": { "type": "Point", "coordinates": [ 135.806342200000017, 34.6393253 ] } },
{ "type": "Feature", "properties": { "内容": "矢田の郷【短期入所生活介護】大和郡山市新町９９１", "url": "https://www.kaigokensaku.mhlw.go.jp/29/index.php?action_kouhyou_detail_004_kani=true&JigyosyoCd=2970300626-00&ServiceCd=210&Type=search", "url2": "http.//www.fukushiin.com/" }, "geometry": { "type": "Point", "coordinates": [ 135.738631199999986, 34.6350154 ] } },
{ "type": "Feature", "properties": { "内容": "短期入所生活介護　あいの郷【短期入所生活介護】奈良県大和郡山市発志院町184-2", "url": "https://www.kaigokensaku.mhlw.go.jp/29/index.php?action_kouhyou_detail_004_kani=true&JigyosyoCd=2970301202-00&ServiceCd=210&Type=search", "url2": "http://ainosato-nara.com/" }, "geometry": { "type": "Point", "coordinates": [ 135.803189800000041, 34.6275293 ] } },
{ "type": "Feature", "properties": { "内容": "天理市立特別養護老人ホームふるさと園【短期入所生活介護】天理市遠田町４７３", "url": "https://www.kaigokensaku.mhlw.go.jp/29/index.php?action_kouhyou_detail_004_kani=true&JigyosyoCd=2970400137-00&ServiceCd=210&Type=search", "url2": "http://www.tenrifurusatoen.or.jp/" }, "geometry": { "type": "Point", "coordinates": [ 135.822991699999989, 34.5625201 ] } },
{ "type": "Feature", "properties": { "内容": "社会福祉法人天寿会特別養護老人ホームひびきの郷【短期入所生活介護】天理市岸田町１１９９", "url": "https://www.kaigokensaku.mhlw.go.jp/29/index.php?action_kouhyou_detail_004_kani=true&JigyosyoCd=2970400095-00&ServiceCd=210&Type=search", "url2": "http://www.tenjukai.jp" }, "geometry": { "type": "Point", "coordinates": [ 135.824313800000027, 34.5662086 ] } },
{ "type": "Feature", "properties": { "内容": "特別養護老人ホームやすらぎ園【短期入所生活介護】奈良県天理市福住町５５０４", "url": "https://www.kaigokensaku.mhlw.go.jp/29/index.php?action_kouhyou_detail_004_kani=true&JigyosyoCd=2970400020-00&ServiceCd=210&Type=search", "url2": "http://www.yasuragien.jp" }, "geometry": { "type": "Point", "coordinates": [ 135.908993, 34.59829 ] } },
{ "type": "Feature", "properties": { "内容": "特別養護老人ホーム　清寿苑【短期入所生活介護】奈良県天理市中之庄町532-1", "url": "https://www.kaigokensaku.mhlw.go.jp/29/index.php?action_kouhyou_detail_004_kani=true&JigyosyoCd=2970400012-00&ServiceCd=210&Type=search", "url2": "http://www/fureai-net.com" }, "geometry": { "type": "Point", "coordinates": [ 135.842686100000037, 34.6365684 ] } },
{ "type": "Feature", "properties": { "内容": "シンシア奈良ショートステイ【短期入所生活介護】奈良県天理市田部町160-1", "url": "https://www.kaigokensaku.mhlw.go.jp/29/index.php?action_kouhyou_detail_004_kani=true&JigyosyoCd=2970401416-00&ServiceCd=210&Type=search", "url2": "https://www.sincere-gri.com/037_narads/index.html" }, "geometry": { "type": "Point", "coordinates": [ 135.831379805848201, 34.60507521977236 ] } },
{ "type": "Feature", "properties": { "内容": "あすならホーム檪本【短期入所生活介護】天理市櫟本町3012-1", "url": "https://www.kaigokensaku.mhlw.go.jp/29/index.php?action_kouhyou_detail_004_kani=true&JigyosyoCd=2970401069-00&ServiceCd=210&Type=search", "url2": "http://www.asunaraenn/com" }, "geometry": { "type": "Point", "coordinates": [ 135.832528700000012, 34.6190169 ] } },
{ "type": "Feature", "properties": { "内容": "福住光明苑短期入所生活介護事業所【短期入所生活介護】奈良県天理市福住町6328番地", "url": "https://www.kaigokensaku.mhlw.go.jp/29/index.php?action_kouhyou_detail_004_kani=true&JigyosyoCd=2970400665-00&ServiceCd=210&Type=search", "url2": "http://fukusumikai.jp/" }, "geometry": { "type": "Point", "coordinates": [ 135.918092200000046, 34.6050198 ] } },
{ "type": "Feature", "properties": { "内容": "ぽれぽれケアセンター白橿【短期入所生活介護】奈良県橿原市北越智町322番地", "url": "https://www.kaigokensaku.mhlw.go.jp/29/index.php?action_kouhyou_detail_004_kani=true&JigyosyoCd=2970501694-00&ServiceCd=210&Type=search", "url2": "http://www.porepore.co.jp/" }, "geometry": { "type": "Point", "coordinates": [ 135.778175199999964, 34.48079 ] } },
{ "type": "Feature", "properties": { "内容": "ショートステイバンデ（絆）【短期入所生活介護】奈良県橿原市東竹田町１０４番１", "url": "https://www.kaigokensaku.mhlw.go.jp/29/index.php?action_kouhyou_detail_004_kani=true&JigyosyoCd=2970502122-00&ServiceCd=210&Type=search", "url2": "http://www.bande.or.jp/" }, "geometry": { "type": "Point", "coordinates": [ 135.824572499999931, 34.5256967 ] } },
{ "type": "Feature", "properties": { "内容": "特別養護老人ホーム　橿原の郷【短期入所生活介護】奈良県橿原市飯高町７－１", "url": "https://www.kaigokensaku.mhlw.go.jp/29/index.php?action_kouhyou_detail_004_kani=true&JigyosyoCd=2970501025-00&ServiceCd=210&Type=search", "url2": "www.sanyofukushikai.com/" }, "geometry": { "type": "Point", "coordinates": [ 135.7798077, 34.5311171 ] } },
{ "type": "Feature", "properties": { "内容": "特別養護老人ホーム香久山インパレス【短期入所生活介護】奈良県橿原市戒外町７番地特別養護老人ホーム香久山インパレス", "url": "https://www.kaigokensaku.mhlw.go.jp/29/index.php?action_kouhyou_detail_004_kani=true&JigyosyoCd=2970500027-00&ServiceCd=210&Type=search", "url2": "http://shoufukukai.or.jp/" }, "geometry": { "type": "Point", "coordinates": [ 135.823465100000021, 34.4945838 ] } },
{ "type": "Feature", "properties": { "内容": "特別養護老人ホームかなはし苑【短期入所生活介護】橿原市雲梯町９４－１", "url": "https://www.kaigokensaku.mhlw.go.jp/29/index.php?action_kouhyou_detail_004_kani=true&JigyosyoCd=2970500035-00&ServiceCd=210&Type=search", "url2": "http://kanahashien.iinaa.net/" }, "geometry": { "type": "Point", "coordinates": [ 135.767925500000047, 34.5021375 ] } },
{ "type": "Feature", "properties": { "内容": "桃寿園【短期入所生活介護】奈良県橿原市北越智町345番地", "url": "https://www.kaigokensaku.mhlw.go.jp/29/index.php?action_kouhyou_detail_004_kani=true&JigyosyoCd=2970500076-00&ServiceCd=210&Type=search", "url2": "http://choseikai.or.jp" }, "geometry": { "type": "Point", "coordinates": [ 135.777492100000018, 34.4740131 ] } },
{ "type": "Feature", "properties": { "内容": "短期入所生活介護事業所きび秀華苑【短期入所生活介護】奈良県桜井市吉備542-2542-2", "url": "https://www.kaigokensaku.mhlw.go.jp/29/index.php?action_kouhyou_detail_004_kani=true&JigyosyoCd=2970600926-00&ServiceCd=210&Type=search", "url2": "http://www.seikoukai-fukushi.or.jp" }, "geometry": { "type": "Point", "coordinates": [ 135.833277229499771, 34.508620601699654 ] } },
{ "type": "Feature", "properties": { "内容": "短期入所生活介護事業所　秀華苑【短期入所生活介護】奈良県桜井市出雲１６４２番地", "url": "https://www.kaigokensaku.mhlw.go.jp/29/index.php?action_kouhyou_detail_004_kani=true&JigyosyoCd=2970600553-00&ServiceCd=210&Type=search", "url2": "http://www.seikoukai-fukushi.or.jp" }, "geometry": { "type": "Point", "coordinates": [ 135.8956485, 34.5217756 ] } },
{ "type": "Feature", "properties": { "内容": "ショートステイグランビレッジ倉橋【短期入所生活介護】奈良県桜井市倉橋1088-1", "url": "https://www.kaigokensaku.mhlw.go.jp/29/index.php?action_kouhyou_detail_004_kani=true&JigyosyoCd=2970601155-00&ServiceCd=210&Type=search", "url2": "https://www.taiyounomura.org/kurahashi/" }, "geometry": { "type": "Point", "coordinates": [ 135.863166663481877, 34.492474820782114 ] } },
{ "type": "Feature", "properties": { "内容": "社会福祉法人　大和桜井園【短期入所生活介護】奈良県桜井市大字阿部１０７３番地", "url": "https://www.kaigokensaku.mhlw.go.jp/29/index.php?action_kouhyou_detail_004_kani=true&JigyosyoCd=2970600017-00&ServiceCd=210&Type=search", "url2": "http://www.sakuraien.jp/" }, "geometry": { "type": "Point", "coordinates": [ 135.844502812303176, 34.501491454965048 ] } },
{ "type": "Feature", "properties": { "内容": "特別養護老人ホーム祥水園【短期入所生活介護】五條市野原西３丁目３番４１号", "url": "https://www.kaigokensaku.mhlw.go.jp/29/index.php?action_kouhyou_detail_004_kani=true&JigyosyoCd=2970700049-00&ServiceCd=210&Type=search", "url2": "http://www.shousuien.com" }, "geometry": { "type": "Point", "coordinates": [ 135.717705199999955, 34.342535 ] } },
{ "type": "Feature", "properties": { "内容": "短期入所生活介護　水杜【短期入所生活介護】奈良県五條市野原西3丁目3番41号", "url": "https://www.kaigokensaku.mhlw.go.jp/29/index.php?action_kouhyou_detail_004_kani=true&JigyosyoCd=2970700635-00&ServiceCd=210&Type=search", "url2": "http://www.shousuien.or.jp" }, "geometry": { "type": "Point", "coordinates": [ 135.702540101544827, 34.34598648380873 ] } },
{ "type": "Feature", "properties": { "内容": "ハートランド五條　短期入所施設【短期入所生活介護】奈良県五條市二見5丁目3番63号", "url": "https://www.kaigokensaku.mhlw.go.jp/29/index.php?action_kouhyou_detail_004_kani=true&JigyosyoCd=2970700569-00&ServiceCd=210&Type=search", "url2": "http://www.heartland.or.jp/gojo/" }, "geometry": { "type": "Point", "coordinates": [ 135.691500932154923, 34.340630180760847 ] } },
{ "type": "Feature", "properties": { "内容": "介護老人福祉施設　友喜苑【短期入所生活介護】奈良県五條市住川町１１６５－４", "url": "https://www.kaigokensaku.mhlw.go.jp/29/index.php?action_kouhyou_detail_004_kani=true&JigyosyoCd=2970700429-00&ServiceCd=210&Type=search", "url2": "http://www.sanju.or.jp/yukien/" }, "geometry": { "type": "Point", "coordinates": [ 135.726637200000027, 34.3879692 ] } },
{ "type": "Feature", "properties": { "内容": "友語苑ショートステイ【短期入所生活介護】奈良県五條市住川町１４２６番地", "url": "https://www.kaigokensaku.mhlw.go.jp/29/index.php?action_kouhyou_detail_004_kani=true&JigyosyoCd=2970700197-00&ServiceCd=210&Type=search", "url2": "http://www.sanju.or.jp/" }, "geometry": { "type": "Point", "coordinates": [ 135.723966447221386, 34.38744447422787 ] } },
{ "type": "Feature", "properties": { "内容": "特別養護老人ホーム　まきの苑【短期入所生活介護】奈良県五條市大沢町５番地の２５", "url": "https://www.kaigokensaku.mhlw.go.jp/29/index.php?action_kouhyou_detail_004_kani=true&JigyosyoCd=2970700031-00&ServiceCd=210&Type=search", "url2": "http://www.seiwakai-gojo.or.jp/" }, "geometry": { "type": "Point", "coordinates": [ 135.668242500000019, 34.361936799999981 ] } },
{ "type": "Feature", "properties": { "内容": "社会福祉法人　双葉会【短期入所生活介護】奈良県御所市三室725-1", "url": "https://www.kaigokensaku.mhlw.go.jp/29/index.php?action_kouhyou_detail_004_kani=true&JigyosyoCd=2970800666-00&ServiceCd=210&Type=search", "url2": "https://futabakai-nara.com/" }, "geometry": { "type": "Point", "coordinates": [ 135.7299133, 34.453431 ] } },
{ "type": "Feature", "properties": { "内容": "特別養護老人ホームせせらぎの園【短期入所生活介護】奈良県御所市増33-3", "url": "https://www.kaigokensaku.mhlw.go.jp/29/index.php?action_kouhyou_detail_004_kani=true&JigyosyoCd=2970800682-00&ServiceCd=210&Type=search", "url2": "http://www.seseragikai.or.jp" }, "geometry": { "type": "Point", "coordinates": [ 135.712015800000017, 34.4368023 ] } },
{ "type": "Feature", "properties": { "内容": "介護老人福祉施設友幸苑【短期入所生活介護】奈良県御所市重阪７７１番１", "url": "https://www.kaigokensaku.mhlw.go.jp/29/index.php?action_kouhyou_detail_004_kani=true&JigyosyoCd=2970800427-00&ServiceCd=210&Type=search", "url2": "http://www.sanju.or.jp/" }, "geometry": { "type": "Point", "coordinates": [ 135.725928899999985, 34.3884914 ] } },
{ "type": "Feature", "properties": { "内容": "さうす国見【短期入所生活介護】奈良県御所市柏原1320", "url": "https://www.kaigokensaku.mhlw.go.jp/29/index.php?action_kouhyou_detail_004_kani=true&JigyosyoCd=2970800278-00&ServiceCd=210&Type=search", "url2": "http://www.jinnankai.jp/" }, "geometry": { "type": "Point", "coordinates": [ 135.764913299999989, 34.4520129 ] } },
{ "type": "Feature", "properties": { "内容": "国見苑【短期入所生活介護】奈良県御所市柏原１５９４－１", "url": "https://www.kaigokensaku.mhlw.go.jp/29/index.php?action_kouhyou_detail_004_kani=true&JigyosyoCd=2970800021-00&ServiceCd=210&Type=search", "url2": "http://www.jinnankai.jp" }, "geometry": { "type": "Point", "coordinates": [ 135.765591200000017, 34.4471968 ] } },
{ "type": "Feature", "properties": { "内容": "テンダーヒル御所【短期入所生活介護】奈良県御所市船路415", "url": "https://www.kaigokensaku.mhlw.go.jp/29/index.php?action_kouhyou_detail_004_kani=true&JigyosyoCd=2970800013-00&ServiceCd=210&Type=search", "url2": "http://www.tender.or.jp" }, "geometry": { "type": "Point", "coordinates": [ 135.720190099999968, 34.4107779 ] } },
{ "type": "Feature", "properties": { "内容": "テンダーヒル御所みのり館【短期入所生活介護】船路415番地", "url": "https://www.kaigokensaku.mhlw.go.jp/29/index.php?action_kouhyou_detail_004_kani=true&JigyosyoCd=2970800633-00&ServiceCd=210&Type=search", "url2": "http://www.tender.or.jp" }, "geometry": { "type": "Point", "coordinates": [ 135.720176199999969, 34.4107585 ] } },
{ "type": "Feature", "properties": { "内容": "高山ちどり【短期入所生活介護】奈良県生駒市高山町8030番地", "url": "https://www.kaigokensaku.mhlw.go.jp/29/index.php?action_kouhyou_detail_004_kani=true&JigyosyoCd=2970900946-00&ServiceCd=210&Type=search", "url2": "https://www.chidori.or.jp" }, "geometry": { "type": "Point", "coordinates": [ 135.726281, 34.7279288 ] } },
{ "type": "Feature", "properties": { "内容": "高山ちどり別館【短期入所生活介護】奈良県生駒市高山町8030", "url": "https://www.kaigokensaku.mhlw.go.jp/29/index.php?action_kouhyou_detail_004_kani=true&JigyosyoCd=2970901738-00&ServiceCd=210&Type=search", "url2": "http://www.chidori.or.jp/" }, "geometry": { "type": "Point", "coordinates": [ 135.7263838, 34.7280649 ] } },
{ "type": "Feature", "properties": { "内容": "萩の台ちどり【短期入所生活介護】生駒市萩の台3丁目1-8", "url": "https://www.kaigokensaku.mhlw.go.jp/29/index.php?action_kouhyou_detail_004_kani=true&JigyosyoCd=2970901290-00&ServiceCd=210&Type=search", "url2": "http://www.chidori.or.jp" }, "geometry": { "type": "Point", "coordinates": [ 135.710034952778642, 34.654206039474701 ] } },
{ "type": "Feature", "properties": { "内容": "特別養護老人ホーム　フォレストホーム【短期入所生活介護】生駒市北田原町2429-4", "url": "https://www.kaigokensaku.mhlw.go.jp/29/index.php?action_kouhyou_detail_004_kani=true&JigyosyoCd=2970900029-00&ServiceCd=210&Type=search", "url2": "http://www.cyomeisou.or.jp" }, "geometry": { "type": "Point", "coordinates": [ 135.710779399999979, 34.7328586 ] } },
{ "type": "Feature", "properties": { "内容": "短期入所　延寿【短期入所生活介護】奈良県生駒市小瀬町１１００", "url": "https://www.kaigokensaku.mhlw.go.jp/29/index.php?action_kouhyou_detail_004_kani=true&JigyosyoCd=2970900284-00&ServiceCd=210&Type=search", "url2": "http://www.enju.net" }, "geometry": { "type": "Point", "coordinates": [ 135.723170900000014, 34.6646762 ] } },
{ "type": "Feature", "properties": { "内容": "特別養護老人ホーム梅寿荘【短期入所生活介護】生駒市門前町８－７", "url": "https://www.kaigokensaku.mhlw.go.jp/29/index.php?action_kouhyou_detail_004_kani=true&JigyosyoCd=2970900102-00&ServiceCd=210&Type=search", "url2": "http://www.baijyuso.or.jp/" }, "geometry": { "type": "Point", "coordinates": [ 135.688959599999947, 34.6866853 ] } },
{ "type": "Feature", "properties": { "内容": "和里（にこり）香芝Ⅱ【短期入所生活介護】奈良県香芝市鎌田602", "url": "https://www.kaigokensaku.mhlw.go.jp/29/index.php?action_kouhyou_detail_004_kani=true&JigyosyoCd=2971001470-00&ServiceCd=210&Type=search", "url2": "http://www.nicori.or.jp" }, "geometry": { "type": "Point", "coordinates": [ 135.716193500000031, 34.5240726 ] } },
{ "type": "Feature", "properties": { "内容": "ショートステイ　すばる【短期入所生活介護】奈良県香芝市鎌田157-1", "url": "https://www.kaigokensaku.mhlw.go.jp/29/index.php?action_kouhyou_detail_004_kani=true&JigyosyoCd=2971000225-00&ServiceCd=210&Type=search", "url2": "https://s-subaru.com" }, "geometry": { "type": "Point", "coordinates": [ 135.712563300000056, 34.5218367 ] } },
{ "type": "Feature", "properties": { "内容": "奈良香芝ケアセンターそよ風【短期入所生活介護】奈良県香芝市瓦口16-2", "url": "https://www.kaigokensaku.mhlw.go.jp/29/index.php?action_kouhyou_detail_004_kani=true&JigyosyoCd=2971001769-00&ServiceCd=210&Type=search", "url2": "https://www.sykz.co.jp/" }, "geometry": { "type": "Point", "coordinates": [ 135.717757400000011, 34.5371052 ] } },
{ "type": "Feature", "properties": { "内容": "特別養護老人ホーム大和園白鳳【短期入所生活介護】奈良県香芝市尼寺５９４－２", "url": "https://www.kaigokensaku.mhlw.go.jp/29/index.php?action_kouhyou_detail_004_kani=true&JigyosyoCd=2971000043-00&ServiceCd=210&Type=search", "url2": "http://www.yamatoen.or.jp/" }, "geometry": { "type": "Point", "coordinates": [ 135.687076100000013, 34.5707495 ] } },
{ "type": "Feature", "properties": { "内容": "特別養護老人ホームぬくもり香芝【短期入所生活介護】奈良県香芝市下田西2-7-61", "url": "https://www.kaigokensaku.mhlw.go.jp/29/index.php?action_kouhyou_detail_004_kani=true&JigyosyoCd=2971000910-00&ServiceCd=210&Type=search", "url2": "http://www.nukumori-group.jp/" }, "geometry": { "type": "Point", "coordinates": [ 135.703258499999947, 34.5438726 ] } },
{ "type": "Feature", "properties": { "内容": "和里（にこり）香芝【短期入所生活介護】奈良県香芝市鎌田594", "url": "https://www.kaigokensaku.mhlw.go.jp/29/index.php?action_kouhyou_detail_004_kani=true&JigyosyoCd=2971000852-00&ServiceCd=210&Type=search", "url2": "http://www.nicori.or.jp" }, "geometry": { "type": "Point", "coordinates": [ 135.716381928836086, 34.524617203496646 ] } },
{ "type": "Feature", "properties": { "内容": "特別養護老人ホーム大和葛城苑【短期入所生活介護】奈良県葛城市平岡441番地１", "url": "https://www.kaigokensaku.mhlw.go.jp/29/index.php?action_kouhyou_detail_004_kani=true&JigyosyoCd=2974800613-00&ServiceCd=210&Type=search", "url2": "www.yo-ko-kai.or.jp" }, "geometry": { "type": "Point", "coordinates": [ 135.709935800000039, 34.4800806 ] } },
{ "type": "Feature", "properties": { "内容": "特別養護老人ホーム　ウォームヴィラ新庄園【短期入所生活介護】奈良県葛城市平岡５２８", "url": "https://www.kaigokensaku.mhlw.go.jp/29/index.php?action_kouhyou_detail_004_kani=true&JigyosyoCd=2972900019-00&ServiceCd=210&Type=search", "url2": "http://www.geocities.jp/shinjyouen/" }, "geometry": { "type": "Point", "coordinates": [ 135.705521988993837, 34.473363732749881 ] } },
{ "type": "Feature", "properties": { "内容": "特別養護老人ホーム当麻園【短期入所生活介護】奈良県葛城市南今市372番地", "url": "https://www.kaigokensaku.mhlw.go.jp/29/index.php?action_kouhyou_detail_004_kani=true&JigyosyoCd=2973000017-00&ServiceCd=210&Type=search", "url2": "http://www.taimaen.com/" }, "geometry": { "type": "Point", "coordinates": [ 135.7119166, 34.5011227 ] } },
{ "type": "Feature", "properties": { "内容": "ショートステイ　「和の里」【短期入所生活介護】奈良県葛城市山田318-3", "url": "https://www.kaigokensaku.mhlw.go.jp/29/index.php?action_kouhyou_detail_004_kani=true&JigyosyoCd=2974800167-00&ServiceCd=210&Type=search", "url2": null }, "geometry": { "type": "Point", "coordinates": [ 135.71347830000002, 34.476681 ] } },
{ "type": "Feature", "properties": { "内容": "ショートステイやまびこ【短期入所生活介護】奈良県宇陀市菟田野平井135番地", "url": "https://www.kaigokensaku.mhlw.go.jp/29/index.php?action_kouhyou_detail_004_kani=true&JigyosyoCd=2972200063-00&ServiceCd=210&Type=search", "url2": "http://yamabiko.sub.jp/" }, "geometry": { "type": "Point", "coordinates": [ 135.97850440000002, 34.4895093 ] } },
{ "type": "Feature", "properties": { "内容": "介護付有料老人ホーム四つ葉のクローバー【短期入所生活介護】奈良県宇陀市菟田野区松井1－1", "url": "https://www.kaigokensaku.mhlw.go.jp/29/index.php?action_kouhyou_detail_004_kani=true&JigyosyoCd=2974900256-00&ServiceCd=210&Type=search", "url2": "http://www.yotsuba-clover.co.jp/" }, "geometry": { "type": "Point", "coordinates": [ 135.975287917765826, 34.473598607989381 ] } },
{ "type": "Feature", "properties": { "内容": "大宇陀特別養護老人ホームラガール【短期入所生活介護】奈良県宇陀市大宇陀拾生２５０－６", "url": "https://www.kaigokensaku.mhlw.go.jp/29/index.php?action_kouhyou_detail_004_kani=true&JigyosyoCd=2972100024-00&ServiceCd=210&Type=search", "url2": "https://oouda.koudoukai.or.jp/" }, "geometry": { "type": "Point", "coordinates": [ 135.9267549, 34.4716571 ] } },
{ "type": "Feature", "properties": { "内容": "特別養護老人ホーム　室生園【短期入所生活介護】奈良県宇陀市室生下田口１２１６番地", "url": "https://www.kaigokensaku.mhlw.go.jp/29/index.php?action_kouhyou_detail_004_kani=true&JigyosyoCd=2972400028-00&ServiceCd=210&Type=search", "url2": "http://www.murouen.jp/" }, "geometry": { "type": "Point", "coordinates": [ 136.051681, 34.5251934 ] } },
{ "type": "Feature", "properties": { "内容": "特別養護老人ホーム悠楽園　悠楽園ショートステイ【短期入所生活介護】奈良県宇陀市榛原檜牧５８４番地", "url": "https://www.kaigokensaku.mhlw.go.jp/29/index.php?action_kouhyou_detail_004_kani=true&JigyosyoCd=2972300020-00&ServiceCd=210&Type=search", "url2": "www.yuurakuen.jp" }, "geometry": { "type": "Point", "coordinates": [ 135.96503789999997, 34.5157697 ] } },
{ "type": "Feature", "properties": { "内容": "ゆぁほうむ榛原【短期入所生活介護】奈良県宇陀市榛原長峯200番地の1", "url": "https://www.kaigokensaku.mhlw.go.jp/29/index.php?action_kouhyou_detail_004_kani=true&JigyosyoCd=2972300012-00&ServiceCd=210&Type=search", "url2": "http://www.e-yourhome.com" }, "geometry": { "type": "Point", "coordinates": [ 135.964204399999971, 34.5414637 ] } },
{ "type": "Feature", "properties": { "内容": "つつじの丘【短期入所生活介護】大西１１８１番地", "url": "https://www.kaigokensaku.mhlw.go.jp/29/index.php?action_kouhyou_detail_004_kani=true&JigyosyoCd=2971300047-00&ServiceCd=210&Type=search", "url2": "https://www.yamatokai-tsutsuji.com/" }, "geometry": { "type": "Point", "coordinates": [ 136.042002, 34.680801 ] } },
{ "type": "Feature", "properties": { "内容": "特別養護老人ホームせせらぎ苑【短期入所生活介護】山辺郡山添村広瀬８２３", "url": "https://www.kaigokensaku.mhlw.go.jp/29/index.php?action_kouhyou_detail_004_kani=true&JigyosyoCd=2971300013-00&ServiceCd=210&Type=search", "url2": null }, "geometry": { "type": "Point", "coordinates": [ 136.081627300000036, 34.6817505 ] } },
{ "type": "Feature", "properties": { "内容": "ショートステイ　グレース【短期入所生活介護】奈良県生駒郡平群町越木塚336-1", "url": "https://www.kaigokensaku.mhlw.go.jp/29/index.php?action_kouhyou_detail_004_kani=true&JigyosyoCd=2971400177-00&ServiceCd=210&Type=search", "url2": "https://shinaikai.net/" }, "geometry": { "type": "Point", "coordinates": [ 135.685953, 34.6224022 ] } },
{ "type": "Feature", "properties": { "内容": "とくべつようごろうじんほーむだいにぐれーすのさと【短期入所生活介護】奈良県生駒郡平群町椿井244", "url": "https://www.kaigokensaku.mhlw.go.jp/29/index.php?action_kouhyou_detail_004_kani=true&JigyosyoCd=2971400466-00&ServiceCd=210&Type=search", "url2": "http://shinaikai.net/" }, "geometry": { "type": "Point", "coordinates": [ 135.707666900000049, 34.6166974 ] } },
{ "type": "Feature", "properties": { "内容": "短期入所事業所　ビオスの丘三郷【短期入所生活介護】奈良県生駒郡三郷町信貴南畑1-7-26ビオスの丘三郷", "url": "https://www.kaigokensaku.mhlw.go.jp/29/index.php?action_kouhyou_detail_004_kani=true&JigyosyoCd=2971500612-00&ServiceCd=210&Type=search", "url2": "http://www.jinpu-kai.jp" }, "geometry": { "type": "Point", "coordinates": [ 135.656316299999958, 34.6047843 ] } },
{ "type": "Feature", "properties": { "内容": "特別養護老人ホーム三室園【短期入所生活介護】奈良県生駒郡三郷町信貴南畑１丁目１番１号", "url": "https://www.kaigokensaku.mhlw.go.jp/29/index.php?action_kouhyou_detail_004_kani=true&JigyosyoCd=2971500042-00&ServiceCd=210&Type=search", "url2": "https://mimuroen.sakura.ne.jp" }, "geometry": { "type": "Point", "coordinates": [ 135.666882500000042, 34.6039323 ] } },
{ "type": "Feature", "properties": { "内容": "ショートステイ　一樹【短期入所生活介護】奈良県生駒郡斑鳩町目安3-4-36", "url": "https://www.kaigokensaku.mhlw.go.jp/29/index.php?action_kouhyou_detail_004_kani=true&JigyosyoCd=2971600545-00&ServiceCd=210&Type=search", "url2": "http://www.ichiju.or.jp/" }, "geometry": { "type": "Point", "coordinates": [ 135.738519986508209, 34.595001795483967 ] } },
{ "type": "Feature", "properties": { "内容": "特別養護老人ホーム第二慈母園【短期入所生活介護】奈良県生駒郡斑鳩町法隆寺2091-1", "url": "https://www.kaigokensaku.mhlw.go.jp/29/index.php?action_kouhyou_detail_004_kani=true&JigyosyoCd=2971600057-00&ServiceCd=210&Type=search", "url2": "http://www.shutokukai.or.jp/" }, "geometry": { "type": "Point", "coordinates": [ 135.72975729999996, 34.6140648 ] } },
{ "type": "Feature", "properties": { "内容": "特別養護老人ホーム　もちの木【短期入所生活介護】奈良県生駒郡安堵町大字東安堵218番1", "url": "https://www.kaigokensaku.mhlw.go.jp/29/index.php?action_kouhyou_detail_004_kani=true&JigyosyoCd=2971700246-00&ServiceCd=210&Type=search", "url2": "info@mochinoki-nara.com" }, "geometry": { "type": "Point", "coordinates": [ -87.72709, 41.116513 ] } },
{ "type": "Feature", "properties": { "内容": "特別養護老人ホームゆいの里あすか【短期入所生活介護】奈良県磯城郡結崎町下永543番地1", "url": "https://www.kaigokensaku.mhlw.go.jp/29/index.php?action_kouhyou_detail_004_kani=true&JigyosyoCd=2971800129-00&ServiceCd=210&Type=search", "url2": "http://yuinosato-asuka.jp" }, "geometry": { "type": "Point", "coordinates": [ 135.7772533716238, 34.590470424073899 ] } },
{ "type": "Feature", "properties": { "内容": "特別養護老人ホーム　田原本園【短期入所生活介護】奈良県磯城郡田原本町大字味間５２３－１", "url": "https://www.kaigokensaku.mhlw.go.jp/29/index.php?action_kouhyou_detail_004_kani=true&JigyosyoCd=2972000067-00&ServiceCd=210&Type=search", "url2": "https://tawaramotoen.jp" }, "geometry": { "type": "Point", "coordinates": [ 135.816692399999965, 34.5354676 ] } },
{ "type": "Feature", "properties": { "内容": "ショートステイしきの郷【短期入所生活介護】奈良県磯城郡田原本町西竹田27-1", "url": "https://www.kaigokensaku.mhlw.go.jp/29/index.php?action_kouhyou_detail_004_kani=true&JigyosyoCd=2972000638-00&ServiceCd=210&Type=search", "url2": "http://sikinosato.org/" }, "geometry": { "type": "Point", "coordinates": [ 135.772262224081516, 34.555945261905357 ] } },
{ "type": "Feature", "properties": { "内容": "特別養護老人ホームぬくもり磯城【短期入所生活介護】奈良県磯城郡田原本町宮古741-1", "url": "https://www.kaigokensaku.mhlw.go.jp/29/index.php?action_kouhyou_detail_004_kani=true&JigyosyoCd=2972000893-00&ServiceCd=210&Type=search", "url2": "https://nukumori-group.jp/" }, "geometry": { "type": "Point", "coordinates": [ 135.7801962, 34.5690127 ] } },
{ "type": "Feature", "properties": { "内容": "曽爾村ケアハウス【短期入所生活介護】宇陀郡曽爾村伊賀見17曽爾村蘇いの森", "url": "https://www.kaigokensaku.mhlw.go.jp/29/index.php?action_kouhyou_detail_004_kani=true&JigyosyoCd=2982500015-00&ServiceCd=210&Type=search", "url2": null }, "geometry": { "type": "Point", "coordinates": [ 136.145091699999966, 34.535316200000011 ] } },
{ "type": "Feature", "properties": { "内容": "短期入所生活介護事業所　みつえ秀華苑【短期入所生活介護】奈良県宇陀郡御杖村大字神末５８０番地", "url": "https://www.kaigokensaku.mhlw.go.jp/29/index.php?action_kouhyou_detail_004_kani=true&JigyosyoCd=2972600072-00&ServiceCd=210&Type=search", "url2": "http://www.seikoukai-fukushi.or.jp" }, "geometry": { "type": "Point", "coordinates": [ 136.193259600000033, 34.498697 ] } },
{ "type": "Feature", "properties": { "内容": "ショートステイたかとり【短期入所生活介護】奈良県高市郡高取町大字兵庫196番地", "url": "https://www.kaigokensaku.mhlw.go.jp/29/index.php?action_kouhyou_detail_004_kani=true&JigyosyoCd=2972700195-00&ServiceCd=210&Type=search", "url2": "http://www.heisei-fukushi.or.jp/index.html" }, "geometry": { "type": "Point", "coordinates": [ 135.776039252809113, 34.44709126758525 ] } },
{ "type": "Feature", "properties": { "内容": "特別養護老人ホーム光明園【短期入所生活介護】奈良県高市郡高取町清水谷150-5", "url": "https://www.kaigokensaku.mhlw.go.jp/29/index.php?action_kouhyou_detail_004_kani=true&JigyosyoCd=2972700021-00&ServiceCd=210&Type=search", "url2": "http://www.shutokukai.or.jp/koumyouen/index.html" }, "geometry": { "type": "Point", "coordinates": [ 135.795227599999947, 34.4418754 ] } },
{ "type": "Feature", "properties": { "内容": "特別養護老人ホームあまがし苑【短期入所生活介護】奈良県高市郡明日香村大字栗原４２１番地２", "url": "https://www.kaigokensaku.mhlw.go.jp/29/index.php?action_kouhyou_detail_004_kani=true&JigyosyoCd=2972800011-00&ServiceCd=210&Type=search", "url2": "http://www.amagashien.com" }, "geometry": { "type": "Point", "coordinates": [ 135.806265100000019, 34.455988 ] } },
{ "type": "Feature", "properties": { "内容": "ショートステイあすかの里【短期入所生活介護】奈良県高市郡明日香村大字越280番地", "url": "https://www.kaigokensaku.mhlw.go.jp/29/index.php?action_kouhyou_detail_004_kani=true&JigyosyoCd=2972800086-00&ServiceCd=210&Type=search", "url2": "http://web1.kcn.jp/asukarakuen/" }, "geometry": { "type": "Point", "coordinates": [ 135.795154700000012, 34.465667 ] } },
{ "type": "Feature", "properties": { "内容": "介護老人保健施設　グランディまきば【短期入所生活介護】上牧899-7介護老人保健施設　グランディまきば", "url": "https://www.kaigokensaku.mhlw.go.jp/29/index.php?action_kouhyou_detail_004_kani=true&JigyosyoCd=2953180011-00&ServiceCd=210&Type=search", "url2": "http://makiba.jp/grandi" }, "geometry": { "type": "Point", "coordinates": [ 135.715908215344257, 34.555525052173849 ] } },
{ "type": "Feature", "properties": { "内容": "特別養護老人ホーム郁愛苑【短期入所生活介護】奈良県北葛城郡上牧町大字上牧４２４４番地", "url": "https://www.kaigokensaku.mhlw.go.jp/29/index.php?action_kouhyou_detail_004_kani=true&JigyosyoCd=2973100064-00&ServiceCd=210&Type=search", "url2": "http://wwwikujikai.or.jp" }, "geometry": { "type": "Point", "coordinates": [ 135.716629099999977, 34.5627485 ] } },
{ "type": "Feature", "properties": { "内容": "特別養護老人ホーム　郁楽苑【短期入所生活介護】奈良県北葛城郡上牧町大字上牧4244番地", "url": "https://www.kaigokensaku.mhlw.go.jp/29/index.php?action_kouhyou_detail_004_kani=true&JigyosyoCd=2973100056-00&ServiceCd=210&Type=search", "url2": "http://www.ikujikai.or.jp/" }, "geometry": { "type": "Point", "coordinates": [ 135.710277133560112, 34.558006751477684 ] } },
{ "type": "Feature", "properties": { "内容": "特別養護老人ホーム郁慈苑【短期入所生活介護】北葛城郡上牧町大字上牧4244番地", "url": "https://www.kaigokensaku.mhlw.go.jp/29/index.php?action_kouhyou_detail_004_kani=true&JigyosyoCd=2973100049-00&ServiceCd=210&Type=search", "url2": "http://www.ikujikai.or.jp/" }, "geometry": { "type": "Point", "coordinates": [ 135.710122060929848, 34.558604662528126 ] } },
{ "type": "Feature", "properties": { "内容": "特別養護老人ホーム郁徳苑【短期入所生活介護】奈良県北葛城郡上牧町大字上牧４２４４", "url": "https://www.kaigokensaku.mhlw.go.jp/29/index.php?action_kouhyou_detail_004_kani=true&JigyosyoCd=2973100031-00&ServiceCd=210&Type=search", "url2": "http://www.ikujikai.or.jp/" }, "geometry": { "type": "Point", "coordinates": [ 135.710079800000017, 34.558421 ] } },
{ "type": "Feature", "properties": { "内容": "ショートステイてんとう虫【短期入所生活介護】奈良県北葛城郡王寺町畠田8丁目1507番地", "url": "https://www.kaigokensaku.mhlw.go.jp/29/index.php?action_kouhyou_detail_004_kani=true&JigyosyoCd=2973200484-00&ServiceCd=210&Type=search", "url2": null }, "geometry": { "type": "Point", "coordinates": [ 135.701391300000068, 34.5757742 ] } },
{ "type": "Feature", "properties": { "内容": "特別養護老人ホーム　大和園【短期入所生活介護】奈良県北葛城郡広陵町大字三吉１６９番地", "url": "https://www.kaigokensaku.mhlw.go.jp/29/index.php?action_kouhyou_detail_004_kani=true&JigyosyoCd=2973300045-00&ServiceCd=210&Type=search", "url2": "http://www.yamatoen.or.jp" }, "geometry": { "type": "Point", "coordinates": [ 135.745607299999961, 34.5574187 ] } },
{ "type": "Feature", "properties": { "内容": "ショートステイおきなの杜【短期入所生活介護】奈良県北葛城郡広陵町南郷84番地1特別養護老人ホームおきなの杜", "url": "https://www.kaigokensaku.mhlw.go.jp/29/index.php?action_kouhyou_detail_004_kani=true&JigyosyoCd=2973300466-00&ServiceCd=210&Type=search", "url2": "https://carehouse.jp/" }, "geometry": { "type": "Point", "coordinates": [ 135.754459900000029, 34.5330634 ] } },
{ "type": "Feature", "properties": { "内容": "ショートステイさみた【短期入所生活介護】奈良県北葛城郡河合町佐味田198-1", "url": "https://www.kaigokensaku.mhlw.go.jp/29/index.php?action_kouhyou_detail_004_kani=true&JigyosyoCd=2973400449-00&ServiceCd=210&Type=search", "url2": "http://www.yamabikokai-samita.com/" }, "geometry": { "type": "Point", "coordinates": [ 135.732822331973011, 34.569330265006215 ] } },
{ "type": "Feature", "properties": { "内容": "特別養護老人ホーム　大和の里【短期入所生活介護】奈良県北葛城郡河合町池部３丁目５番５号", "url": "https://www.kaigokensaku.mhlw.go.jp/29/index.php?action_kouhyou_detail_004_kani=true&JigyosyoCd=2973400308-00&ServiceCd=210&Type=search", "url2": "http://www.yamatonosato.com" }, "geometry": { "type": "Point", "coordinates": [ 135.735921599999983, 34.5776718 ] } },
{ "type": "Feature", "properties": { "内容": "吉野三町村老人福祉施設【短期入所生活介護】奈良県吉野郡吉野町楢井605-1", "url": "https://www.kaigokensaku.mhlw.go.jp/29/index.php?action_kouhyou_detail_004_kani=true&JigyosyoCd=2973500024-00&ServiceCd=210&Type=search", "url2": null }, "geometry": { "type": "Point", "coordinates": [ 135.888135899999952, 34.3837253 ] } },
{ "type": "Feature", "properties": { "内容": "ショートステイ柳光【短期入所生活介護】奈良県吉野郡吉野町大字柳1395番１", "url": "https://www.kaigokensaku.mhlw.go.jp/29/index.php?action_kouhyou_detail_004_kani=true&JigyosyoCd=2973500172-00&ServiceCd=210&Type=search", "url2": "https://www.taiyounomura.org/ryuko/" }, "geometry": { "type": "Point", "coordinates": [ 135.918507546032743, 34.417703244330617 ] } },
{ "type": "Feature", "properties": { "内容": "特別養護老人ホーム柳光【短期入所生活介護】奈良県吉野郡吉野町大字柳１３９５番地１", "url": "https://www.kaigokensaku.mhlw.go.jp/29/index.php?action_kouhyou_detail_004_kani=true&JigyosyoCd=2973500164-00&ServiceCd=210&Type=search", "url2": "https://www.taiyounomura.org/ryuko/" }, "geometry": { "type": "Point", "coordinates": [ 135.919001072491483, 34.418167901333703 ] } },
{ "type": "Feature", "properties": { "内容": "社会福祉法人綜合施設美吉野園【短期入所生活介護】奈良県吉野郡大淀町下渕629番地", "url": "https://www.kaigokensaku.mhlw.go.jp/29/index.php?action_kouhyou_detail_004_kani=true&JigyosyoCd=2973600030-00&ServiceCd=210&Type=search", "url2": "http://www.miyoshinoen.jp/" }, "geometry": { "type": "Point", "coordinates": [ 135.7805998, 34.3888172 ] } },
{ "type": "Feature", "properties": { "内容": "ショートステイ彩の里【短期入所生活介護】奈良県吉野郡下市町阿知賀１１２２番１", "url": "https://www.kaigokensaku.mhlw.go.jp/29/index.php?action_kouhyou_detail_004_kani=true&JigyosyoCd=2973700152-00&ServiceCd=210&Type=search", "url2": "http://www.irodorinosato.com/" }, "geometry": { "type": "Point", "coordinates": [ 135.7949711, 34.3800265 ] } },
{ "type": "Feature", "properties": { "内容": "社会福祉法人黒滝村社会福祉協議会【短期入所生活介護】奈良県吉野郡黒滝村寺戸１８７番地の２", "url": "https://www.kaigokensaku.mhlw.go.jp/29/index.php?action_kouhyou_detail_004_kani=true&JigyosyoCd=2983800026-00&ServiceCd=210&Type=search", "url2": "http://www5.kcn.ne.jp/~kurosya/" }, "geometry": { "type": "Point", "coordinates": [ 135.850106200000027, 34.3108234 ] } },
{ "type": "Feature", "properties": { "内容": "十津川村短期入所生活介護高森の郷【短期入所生活介護】奈良県吉野郡十津川村大字猿飼308-2", "url": "https://www.kaigokensaku.mhlw.go.jp/29/index.php?action_kouhyou_detail_004_kani=true&JigyosyoCd=2974300135-00&ServiceCd=210&Type=search", "url2": "http://www.maywakai.info" }, "geometry": { "type": "Point", "coordinates": [ 135.764833528697238, 33.934103278226978 ] } },
{ "type": "Feature", "properties": { "内容": "社会福祉法人　下北山村社会福祉協議会【短期入所生活介護】奈良県吉野郡下北山村大字浦向３７１番地", "url": "https://www.kaigokensaku.mhlw.go.jp/29/index.php?action_kouhyou_detail_004_kani=true&JigyosyoCd=2984400016-00&ServiceCd=210&Type=search", "url2": null }, "geometry": { "type": "Point", "coordinates": [ 135.95661640000003, 34.0006632 ] } },
{ "type": "Feature", "properties": { "内容": "特別養護老人ホーム　オアシス東吉野【短期入所生活介護】奈良県吉野郡東吉野村大字小394番1の2", "url": "https://www.kaigokensaku.mhlw.go.jp/29/index.php?action_kouhyou_detail_004_kani=true&JigyosyoCd=2974700136-00&ServiceCd=210&Type=search", "url2": "http://www.yasuraginosato2011.or.jp" }, "geometry": { "type": "Point", "coordinates": [ 135.974098300000037, 34.3918062 ] } },
{ "type": "Feature", "properties": { "内容": "ショートステイオアシス東吉野【短期入所生活介護】奈良県吉野郡東吉野村大字小394番1の2", "url": "https://www.kaigokensaku.mhlw.go.jp/29/index.php?action_kouhyou_detail_004_kani=true&JigyosyoCd=2974700151-00&ServiceCd=210&Type=search", "url2": "http:/www.yasuraginosato2011.or.jp" }, "geometry": { "type": "Point", "coordinates": [ 135.980072989505743, 34.390945471127111 ] } }
]
}
