{
"type": "FeatureCollection",
"name": "geo_29_訪問入浴介護",
"crs": { "type": "name", "properties": { "name": "urn:ogc:def:crs:OGC:1.3:CRS84" } },
"features": [
{ "type": "Feature", "properties": { "内容": "アスケア訪問入浴　奈良【訪問入浴介護】奈良県奈良市法蓮町390番地の1サンモール新大宮101号", "url": "https://www.kaigokensaku.mhlw.go.jp/29/index.php?action_kouhyou_detail_004_kani=true&JigyosyoCd=2970104804-00&ServiceCd=120&Type=search", "url2": "https://www.as-care.co.jp/" }, "geometry": { "type": "Point", "coordinates": [ 135.812689288851033, 34.69053170743085 ] } },
{ "type": "Feature", "properties": { "内容": "ケアファーム未来新大宮【訪問入浴介護】奈良県奈良市大宮町3丁目4-10矢埜ハイツ204号", "url": "https://www.kaigokensaku.mhlw.go.jp/29/index.php?action_kouhyou_detail_004_kani=true&JigyosyoCd=2970107179-00&ServiceCd=120&Type=search", "url2": "https://cf-mirai.jp" }, "geometry": { "type": "Point", "coordinates": [ 135.813738300000068, 34.6839176 ] } },
{ "type": "Feature", "properties": { "内容": "有限会社　ソフト【訪問入浴介護】奈良県大和高田市曙町１４番２－７号", "url": "https://www.kaigokensaku.mhlw.go.jp/29/index.php?action_kouhyou_detail_004_kani=true&JigyosyoCd=2970200339-00&ServiceCd=120&Type=search", "url2": null }, "geometry": { "type": "Point", "coordinates": [ 135.755579103179912, 34.514479678177047 ] } },
{ "type": "Feature", "properties": { "内容": "はるす・訪問入浴サービス高田【訪問入浴介護】奈良県大和高田市根成柿178-3", "url": "https://www.kaigokensaku.mhlw.go.jp/29/index.php?action_kouhyou_detail_004_kani=true&JigyosyoCd=2970200800-00&ServiceCd=120&Type=search", "url2": "http://hals-hals.co.jp/" }, "geometry": { "type": "Point", "coordinates": [ 135.7599073, 34.4845535 ] } },
{ "type": "Feature", "properties": { "内容": "アスケア訪問入浴大和郡山【訪問入浴介護】奈良県大和郡山市南郡山町330-1吉田テナント１階1号室", "url": "https://www.kaigokensaku.mhlw.go.jp/29/index.php?action_kouhyou_detail_004_kani=true&JigyosyoCd=2970301343-00&ServiceCd=120&Type=search", "url2": "https://www.as-care.co.jp/" }, "geometry": { "type": "Point", "coordinates": [ 135.773378399999956, 34.6457849 ] } },
{ "type": "Feature", "properties": { "内容": "アスケア訪問入浴天理【訪問入浴介護】奈良県天理市川原城町812-1今西ビル2階201号室", "url": "https://www.kaigokensaku.mhlw.go.jp/29/index.php?action_kouhyou_detail_004_kani=true&JigyosyoCd=2970401234-00&ServiceCd=120&Type=search", "url2": "https://www.as-care.co.jp/" }, "geometry": { "type": "Point", "coordinates": [ 135.829726104214473, 34.602041588793128 ] } },
{ "type": "Feature", "properties": { "内容": "在宅サービス事業所やすらぎ園　訪問入浴介護事業【訪問入浴介護】奈良県天理市東井戸堂町372-12", "url": "https://www.kaigokensaku.mhlw.go.jp/29/index.php?action_kouhyou_detail_004_kani=true&JigyosyoCd=2970400855-00&ServiceCd=120&Type=search", "url2": "http://www.yasuragien.jp" }, "geometry": { "type": "Point", "coordinates": [ 135.82304380000005, 34.5918666 ] } },
{ "type": "Feature", "properties": { "内容": "訪問入浴介護ケアサポート夢【訪問入浴介護】奈良県天理市西長柄町453-2", "url": "https://www.kaigokensaku.mhlw.go.jp/29/index.php?action_kouhyou_detail_004_kani=true&JigyosyoCd=2970401739-00&ServiceCd=120&Type=search", "url2": "https://www.yume-gp.com/" }, "geometry": { "type": "Point", "coordinates": [ 135.821763299999986, 34.5724518 ] } },
{ "type": "Feature", "properties": { "内容": "アスケア訪問入浴橿原【訪問入浴介護】奈良県橿原市中曽司町132-14", "url": "https://www.kaigokensaku.mhlw.go.jp/29/index.php?action_kouhyou_detail_004_kani=true&JigyosyoCd=2970501553-00&ServiceCd=120&Type=search", "url2": "https://www.as-care.co.jp/" }, "geometry": { "type": "Point", "coordinates": [ 135.771637839976194, 34.522161400515586 ] } },
{ "type": "Feature", "properties": { "内容": "ケアセンターこころ【訪問入浴介護】奈良県橿原市慈明寺町370番地", "url": "https://www.kaigokensaku.mhlw.go.jp/29/index.php?action_kouhyou_detail_004_kani=true&JigyosyoCd=2970501520-00&ServiceCd=120&Type=search", "url2": null }, "geometry": { "type": "Point", "coordinates": [ 135.777203316979069, 34.496008082668553 ] } },
{ "type": "Feature", "properties": { "内容": "ケアファーム未来【訪問入浴介護】橿原市縄手町411番地", "url": "https://www.kaigokensaku.mhlw.go.jp/29/index.php?action_kouhyou_detail_004_kani=true&JigyosyoCd=2970500753-00&ServiceCd=120&Type=search", "url2": "https://cf-mirai.jp" }, "geometry": { "type": "Point", "coordinates": [ 135.800664099999949, 34.5052208 ] } },
{ "type": "Feature", "properties": { "内容": "万葉介護サービスセンター【訪問入浴介護】奈良県桜井市吉備151", "url": "https://www.kaigokensaku.mhlw.go.jp/29/index.php?action_kouhyou_detail_004_kani=true&JigyosyoCd=2970600207-00&ServiceCd=120&Type=search", "url2": "https://www.manyou-kaigo.co.jp" }, "geometry": { "type": "Point", "coordinates": [ 135.826565953673054, 34.507260057881794 ] } },
{ "type": "Feature", "properties": { "内容": "オアシス五條【訪問入浴介護】釜窪町1405", "url": "https://www.kaigokensaku.mhlw.go.jp/29/index.php?action_kouhyou_detail_004_kani=true&JigyosyoCd=2970700809-00&ServiceCd=120&Type=search", "url2": "https://c-oasis.jp/" }, "geometry": { "type": "Point", "coordinates": [ 135.6650744, 34.3368096 ] } },
{ "type": "Feature", "properties": { "内容": "訪問入浴延寿【訪問入浴介護】生駒市小瀬町１１００", "url": "https://www.kaigokensaku.mhlw.go.jp/29/index.php?action_kouhyou_detail_004_kani=true&JigyosyoCd=2970900144-00&ServiceCd=120&Type=search", "url2": "http://www.enju.net" }, "geometry": { "type": "Point", "coordinates": [ 135.723170900000014, 34.6646762 ] } },
{ "type": "Feature", "properties": { "内容": "大宇陀特別養護老人ホームラガール【訪問入浴介護】奈良県宇陀市大宇陀拾生２５０－６", "url": "https://www.kaigokensaku.mhlw.go.jp/29/index.php?action_kouhyou_detail_004_kani=true&JigyosyoCd=2972100024-00&ServiceCd=120&Type=search", "url2": "http://www.koudoukai.or.jp/oouda/" }, "geometry": { "type": "Point", "coordinates": [ 135.9267549, 34.4716571 ] } },
{ "type": "Feature", "properties": { "内容": "社会福祉法人山添村社会福祉協議会【訪問入浴介護】奈良県山辺郡山添村大字大西１３９５番地の１", "url": "https://www.kaigokensaku.mhlw.go.jp/29/index.php?action_kouhyou_detail_004_kani=true&JigyosyoCd=2971300021-00&ServiceCd=120&Type=search", "url2": "http://www.yamazoeshakyo.com" }, "geometry": { "type": "Point", "coordinates": [ 136.040299600000026, 34.6847188 ] } },
{ "type": "Feature", "properties": { "内容": "特別養護老人ホーム　田原本園【訪問入浴介護】奈良県磯城郡田原本町味間５２３－１", "url": "https://www.kaigokensaku.mhlw.go.jp/29/index.php?action_kouhyou_detail_004_kani=true&JigyosyoCd=2972000067-00&ServiceCd=120&Type=search", "url2": "https://tawaramotoen.jp" }, "geometry": { "type": "Point", "coordinates": [ 135.816692399999965, 34.5354676 ] } },
{ "type": "Feature", "properties": { "内容": "特別養護老人ホーム大和園【訪問入浴介護】奈良県北葛城郡広陵町三吉１６９番地", "url": "https://www.kaigokensaku.mhlw.go.jp/29/index.php?action_kouhyou_detail_004_kani=true&JigyosyoCd=2973300045-00&ServiceCd=120&Type=search", "url2": "http://www.yamatoen.or.jp" }, "geometry": { "type": "Point", "coordinates": [ 135.746900124745139, 34.557811893079723 ] } }
]
}
