{
"type": "FeatureCollection",
"name": "geo_29_介護老人保健施設",
"crs": { "type": "name", "properties": { "name": "urn:ogc:def:crs:OGC:1.3:CRS84" } },
"features": [
{ "type": "Feature", "properties": { "内容": "介護老人保険施設　秋篠【介護老人保健施設】奈良県奈良市秋篠町１４３２－１", "url": "https://www.kaigokensaku.mhlw.go.jp/29/index.php?action_kouhyou_detail_004_kani=true&JigyosyoCd=2950180030-00&ServiceCd=520&Type=search", "url2": "http://taizankai.org" }, "geometry": { "type": "Point", "coordinates": [ 135.778557500000034, 34.7074368 ] } },
{ "type": "Feature", "properties": { "内容": "介護老人保健施設アンジェロ【介護老人保健施設】奈良市帝塚山2丁目21番21号", "url": "https://www.kaigokensaku.mhlw.go.jp/29/index.php?action_kouhyou_detail_004_kani=true&JigyosyoCd=2950180022-00&ServiceCd=520&Type=search", "url2": "https://asukakai.or.jp" }, "geometry": { "type": "Point", "coordinates": [ 135.730900799999972, 34.6854938 ] } },
{ "type": "Feature", "properties": { "内容": "医療法人岡谷会介護老人保健施設やくしの里【介護老人保健施設】奈良市高畑町２１０番地", "url": "https://www.kaigokensaku.mhlw.go.jp/29/index.php?action_kouhyou_detail_004_kani=true&JigyosyoCd=2950180048-00&ServiceCd=520&Type=search", "url2": "http://www.okatani.or.jp/yakushi/index.htm" }, "geometry": { "type": "Point", "coordinates": [ 135.8463524, 34.6724364 ] } },
{ "type": "Feature", "properties": { "内容": "介護老人保健施設サンライフ奈良【介護老人保健施設】奈良県奈良市南肘塚町205-1", "url": "https://www.kaigokensaku.mhlw.go.jp/29/index.php?action_kouhyou_detail_004_kani=true&JigyosyoCd=2950180089-00&ServiceCd=520&Type=search", "url2": "//www.seiwakai-group.or.jp/" }, "geometry": { "type": "Point", "coordinates": [ 135.8327954, 34.6676088 ] } },
{ "type": "Feature", "properties": { "内容": "介護老人保健施設ハビリス【介護老人保健施設】上町88番地1", "url": "https://www.kaigokensaku.mhlw.go.jp/29/index.php?action_kouhyou_detail_004_kani=true&JigyosyoCd=2950980033-00&ServiceCd=520&Type=search", "url2": "https://asukakai.or.jp" }, "geometry": { "type": "Point", "coordinates": [ 135.7254809, 34.7122253 ] } },
{ "type": "Feature", "properties": { "内容": "介護老人保健施設　サンライフ学園前【介護老人保健施設】学園大和町5丁目724-4介護老人保健施設　サンライフ学園前", "url": "https://www.kaigokensaku.mhlw.go.jp/29/index.php?action_kouhyou_detail_004_kani=true&JigyosyoCd=2950189106-00&ServiceCd=520&Type=search", "url2": "https://seiwakai-group.or.jp/" }, "geometry": { "type": "Point", "coordinates": [ 135.742208830688469, 34.688504303173062 ] } },
{ "type": "Feature", "properties": { "内容": "介護老人保健施設ロイヤルフェニックス【介護老人保健施設】奈良市六条町９９の２", "url": "https://www.kaigokensaku.mhlw.go.jp/29/index.php?action_kouhyou_detail_004_kani=true&JigyosyoCd=2950180105-00&ServiceCd=520&Type=search", "url2": "http://www.nishinokyo.or.jp/" }, "geometry": { "type": "Point", "coordinates": [ 135.789979799999969, 34.6657086 ] } },
{ "type": "Feature", "properties": { "内容": "介護老人保健施設　エリシオン石木の里【介護老人保健施設】奈良県奈良市石木町800", "url": "https://www.kaigokensaku.mhlw.go.jp/29/index.php?action_kouhyou_detail_004_kani=true&JigyosyoCd=2950180063-00&ServiceCd=520&Type=search", "url2": "http://nrh.elysion-gr.com/" }, "geometry": { "type": "Point", "coordinates": [ 135.75790417113339, 34.664977187742686 ] } },
{ "type": "Feature", "properties": { "内容": "医療法人宝山会介護老人保健施設「桜の里」【介護老人保健施設】奈良県奈良市八条５丁目４３７－１０", "url": "https://www.kaigokensaku.mhlw.go.jp/29/index.php?action_kouhyou_detail_004_kani=true&JigyosyoCd=2950180055-00&ServiceCd=520&Type=search", "url2": "https://houzankai-nara/jp" }, "geometry": { "type": "Point", "coordinates": [ 135.799134500000036, 34.6665669 ] } },
{ "type": "Feature", "properties": { "内容": "医療法人宝山会　介護老人保健施設　「佐保の里」【介護老人保健施設】奈良市八条５丁目４３７番地の８", "url": "https://www.kaigokensaku.mhlw.go.jp/29/index.php?action_kouhyou_detail_004_kani=true&JigyosyoCd=2950180014-00&ServiceCd=520&Type=search", "url2": "http://houzankai.jp/" }, "geometry": { "type": "Point", "coordinates": [ 135.799203900000037, 34.667024157075353 ] } },
{ "type": "Feature", "properties": { "内容": "介護老人保健施設アップル学園前【介護老人保健施設】奈良市中登美ヶ丘四丁目３番", "url": "https://www.kaigokensaku.mhlw.go.jp/29/index.php?action_kouhyou_detail_004_kani=true&JigyosyoCd=2950180139-00&ServiceCd=520&Type=search", "url2": "http://www.apple-g.or.jp" }, "geometry": { "type": "Point", "coordinates": [ 135.7445351, 34.7216432 ] } },
{ "type": "Feature", "properties": { "内容": "社会医療法人松本快生会介護老人保健施設大和田の里【介護老人保健施設】奈良市丸山２丁目１２２０－１６３", "url": "https://www.kaigokensaku.mhlw.go.jp/29/index.php?action_kouhyou_detail_004_kani=true&JigyosyoCd=2950180006-00&ServiceCd=520&Type=search", "url2": "http://oowada.m-kaiseikai.jp/" }, "geometry": { "type": "Point", "coordinates": [ 135.749907500000063, 34.666974 ] } },
{ "type": "Feature", "properties": { "内容": "介護老人保健施設ももたろう【介護老人保健施設】奈良県奈良市都祁友田町515番地の1", "url": "https://www.kaigokensaku.mhlw.go.jp/29/index.php?action_kouhyou_detail_004_kani=true&JigyosyoCd=2951180146-00&ServiceCd=520&Type=search", "url2": "https://kaigo-momotaro.jp/" }, "geometry": { "type": "Point", "coordinates": [ 135.953214500000058, 34.6006045 ] } },
{ "type": "Feature", "properties": { "内容": "介護老人保健施設やくしの里【介護老人保健施設】奈良県奈良市高畑町210番地", "url": "https://www.kaigokensaku.mhlw.go.jp/29/index.php?action_kouhyou_detail_004_kani=true&JigyosyoCd=2950189114-00&ServiceCd=520&Type=search", "url2": "https://okatani.or.jp/yakushi" }, "geometry": { "type": "Point", "coordinates": [ 135.8463467, 34.672484500000024 ] } },
{ "type": "Feature", "properties": { "内容": "介護老人保健施設光陽【介護老人保健施設】奈良県大和高田市根成柿321－1", "url": "https://www.kaigokensaku.mhlw.go.jp/29/index.php?action_kouhyou_detail_004_kani=true&JigyosyoCd=2950280004-00&ServiceCd=520&Type=search", "url2": "https://nishiikai.com/" }, "geometry": { "type": "Point", "coordinates": [ 135.765154, 34.4859116 ] } },
{ "type": "Feature", "properties": { "内容": "介護老人保健施設ふれあい【介護老人保健施設】奈良県大和高田市日之出町13-15", "url": "https://www.kaigokensaku.mhlw.go.jp/29/index.php?action_kouhyou_detail_004_kani=true&JigyosyoCd=2950880175-00&ServiceCd=520&Type=search", "url2": "http://www.kenseikai-nara.jp/" }, "geometry": { "type": "Point", "coordinates": [ 135.748864347221343, 34.522050085598529 ] } },
{ "type": "Feature", "properties": { "内容": "介護老人保健施設ピュアネス藍【介護老人保健施設】奈良県大和郡山市本庄町1番地の5", "url": "https://www.kaigokensaku.mhlw.go.jp/29/index.php?action_kouhyou_detail_004_kani=true&JigyosyoCd=2950280111-00&ServiceCd=520&Type=search", "url2": "http://www.seiran.or.jp/pureness/index.html" }, "geometry": { "type": "Point", "coordinates": [ 135.785436677909843, 34.63739239073832 ] } },
{ "type": "Feature", "properties": { "内容": "介護老人保健施設夢眠やまざくら【介護老人保健施設】奈良県大和郡山市矢田町686番地4", "url": "https://www.kaigokensaku.mhlw.go.jp/29/index.php?action_kouhyou_detail_004_kani=true&JigyosyoCd=2950380028-00&ServiceCd=520&Type=search", "url2": "https://meijyukai.net/" }, "geometry": { "type": "Point", "coordinates": [ 135.754206117116155, 34.649168324676744 ] } },
{ "type": "Feature", "properties": { "内容": "介護老人保健施設　ウェルケア悠【介護老人保健施設】大和郡山市田中町728番地", "url": "https://www.kaigokensaku.mhlw.go.jp/29/index.php?action_kouhyou_detail_004_kani=true&JigyosyoCd=2950380010-00&ServiceCd=520&Type=search", "url2": "https://wellgroup-service.jp/" }, "geometry": { "type": "Point", "coordinates": [ 135.76841479999996, 34.6480262 ] } },
{ "type": "Feature", "properties": { "内容": "介護老人保健施設　幸寿苑【介護老人保健施設】奈良県大和郡山市城南町2-13", "url": "https://www.kaigokensaku.mhlw.go.jp/29/index.php?action_kouhyou_detail_004_kani=true&JigyosyoCd=2950280079-00&ServiceCd=520&Type=search", "url2": "http://www.takitakai.or.jp/" }, "geometry": { "type": "Point", "coordinates": [ 135.775892, 34.6461294 ] } },
{ "type": "Feature", "properties": { "内容": "介護老人保健施設ならふくじゅ荘【介護老人保健施設】奈良県天理市中之庄町493-1", "url": "https://www.kaigokensaku.mhlw.go.jp/29/index.php?action_kouhyou_detail_004_kani=true&JigyosyoCd=2950980124-00&ServiceCd=520&Type=search", "url2": "http://www.fureai-net.com" }, "geometry": { "type": "Point", "coordinates": [ 135.843425, 34.6366156 ] } },
{ "type": "Feature", "properties": { "内容": "介護老人保健施設花橿【介護老人保健施設】奈良県橿原市古川町３９５－１", "url": "https://www.kaigokensaku.mhlw.go.jp/29/index.php?action_kouhyou_detail_004_kani=true&JigyosyoCd=2950580007-00&ServiceCd=520&Type=search", "url2": "http://www.nanfu.or.jp/hanakashi.html" }, "geometry": { "type": "Point", "coordinates": [ 135.7690202, 34.4874503 ] } },
{ "type": "Feature", "properties": { "内容": "介護老人保健施設　万葉テラス【介護老人保健施設】橿原市五井町247番地", "url": "https://www.kaigokensaku.mhlw.go.jp/29/index.php?action_kouhyou_detail_004_kani=true&JigyosyoCd=2950580049-00&ServiceCd=520&Type=search", "url2": "http://www.nanfu.or.jp/manyo-terrace.html" }, "geometry": { "type": "Point", "coordinates": [ 135.7770246, 34.5041816 ] } },
{ "type": "Feature", "properties": { "内容": "介護老人保健施設大和三山【介護老人保健施設】奈良県橿原市膳夫町477-17", "url": "https://www.kaigokensaku.mhlw.go.jp/29/index.php?action_kouhyou_detail_004_kani=true&JigyosyoCd=2950580056-00&ServiceCd=520&Type=search", "url2": "http://yushinkai-nara.com" }, "geometry": { "type": "Point", "coordinates": [ 135.822501234918235, 34.507897866078167 ] } },
{ "type": "Feature", "properties": { "内容": "介護老人保健施設　鷺栖の里【介護老人保健施設】奈良県橿原市四分町85-1", "url": "https://www.kaigokensaku.mhlw.go.jp/29/index.php?action_kouhyou_detail_004_kani=true&JigyosyoCd=2950580064-00&ServiceCd=520&Type=search", "url2": "http://www.heisei-h.or.jp/sagisu/index.html" }, "geometry": { "type": "Point", "coordinates": [ 135.797845488854819, 34.496541568889583 ] } },
{ "type": "Feature", "properties": { "内容": "介護老人保健施設ケアステージみみなし【介護老人保健施設】奈良県橿原市常盤町１５８番地１", "url": "https://www.kaigokensaku.mhlw.go.jp/29/index.php?action_kouhyou_detail_004_kani=true&JigyosyoCd=2950580023-00&ServiceCd=520&Type=search", "url2": "http://shoufukukai.or.jp/" }, "geometry": { "type": "Point", "coordinates": [ 135.81619569999998, 34.5187085 ] } },
{ "type": "Feature", "properties": { "内容": "介護老人保健施設リンク橿原【介護老人保健施設】奈良県橿原市雲梯町28番地", "url": "https://www.kaigokensaku.mhlw.go.jp/29/index.php?action_kouhyou_detail_004_kani=true&JigyosyoCd=2951280201-00&ServiceCd=520&Type=search", "url2": "http://kanahashien.iinaa.net/" }, "geometry": { "type": "Point", "coordinates": [ 135.7670561, 34.5027235 ] } },
{ "type": "Feature", "properties": { "内容": "介護老人保健施設　まきむく草庵【介護老人保健施設】奈良県桜井市草川58番地", "url": "https://www.kaigokensaku.mhlw.go.jp/29/index.php?action_kouhyou_detail_004_kani=true&JigyosyoCd=2950680013-00&ServiceCd=520&Type=search", "url2": "https://www.yamanobe.or.jp/makimuku-souan" }, "geometry": { "type": "Point", "coordinates": [ 135.83841535316472, 34.549096483185444 ] } },
{ "type": "Feature", "properties": { "内容": "介護老人保健施設やまのべグリーンヒルズ【介護老人保健施設】奈良県桜井市大豆越１０４－１", "url": "https://www.kaigokensaku.mhlw.go.jp/29/index.php?action_kouhyou_detail_004_kani=true&JigyosyoCd=2950480091-00&ServiceCd=520&Type=search", "url2": "https://www.yamanobe.or.jp" }, "geometry": { "type": "Point", "coordinates": [ 135.836887899999965, 34.549308 ] } },
{ "type": "Feature", "properties": { "内容": "介護老人保健施設シルバーケアまほろば【介護老人保健施設】桜井市阿部323", "url": "https://www.kaigokensaku.mhlw.go.jp/29/index.php?action_kouhyou_detail_004_kani=true&JigyosyoCd=2950480067-00&ServiceCd=520&Type=search", "url2": "https://sc-mahoroba.jp/" }, "geometry": { "type": "Point", "coordinates": [ 135.839174500000013, 34.5077045 ] } },
{ "type": "Feature", "properties": { "内容": "介護老人保健施設　ローズ【介護老人保健施設】奈良県　五條市　二見　5丁目　3番　64号", "url": "https://www.kaigokensaku.mhlw.go.jp/29/index.php?action_kouhyou_detail_004_kani=true&JigyosyoCd=2950780003-00&ServiceCd=520&Type=search", "url2": "http://www.hajime-kai.com/" }, "geometry": { "type": "Point", "coordinates": [ 135.691993599999932, 34.3417371 ] } },
{ "type": "Feature", "properties": { "内容": "介護老人保健施設　ルポゼまきの【介護老人保健施設】奈良県五條市大沢町９－８", "url": "https://www.kaigokensaku.mhlw.go.jp/29/index.php?action_kouhyou_detail_004_kani=true&JigyosyoCd=2951480157-00&ServiceCd=520&Type=search", "url2": "http://www.seiwakai-gojo.or.jp/" }, "geometry": { "type": "Point", "coordinates": [ 135.6681036, 34.360648 ] } },
{ "type": "Feature", "properties": { "内容": "介護老人保健施設　鴻池荘　サテライト蜻蛉【介護老人保健施設】奈良県御所市茅原168-1", "url": "https://www.kaigokensaku.mhlw.go.jp/29/index.php?action_kouhyou_detail_004_kani=true&JigyosyoCd=2950880019-00&ServiceCd=520&Type=search", "url2": "https://www.kounoikekai.com/" }, "geometry": { "type": "Point", "coordinates": [ 135.748828399999979, 34.4623643 ] } },
{ "type": "Feature", "properties": { "内容": "介護老人保健施設　鴻池荘【介護老人保健施設】奈良県御所市池之内１０６４番地", "url": "https://www.kaigokensaku.mhlw.go.jp/29/index.php?action_kouhyou_detail_004_kani=true&JigyosyoCd=2951380001-00&ServiceCd=520&Type=search", "url2": "https://www.kounoikekai.com/" }, "geometry": { "type": "Point", "coordinates": [ 135.751217399999973, 34.450824 ] } },
{ "type": "Feature", "properties": { "内容": "介護老人保健施設　グランファミリア【介護老人保健施設】生駒市小明町１１３０－１１１", "url": "https://www.kaigokensaku.mhlw.go.jp/29/index.php?action_kouhyou_detail_004_kani=true&JigyosyoCd=2950380168-00&ServiceCd=520&Type=search", "url2": "http://www.matsushita-kai.or.jp/" }, "geometry": { "type": "Point", "coordinates": [ 135.705047, 34.70217 ] } },
{ "type": "Feature", "properties": { "内容": "生駒市介護老人保健施設　やすらぎの杜優楽【介護老人保健施設】奈良県生駒市小瀬町３２４番地２", "url": "https://www.kaigokensaku.mhlw.go.jp/29/index.php?action_kouhyou_detail_004_kani=true&JigyosyoCd=2950980025-00&ServiceCd=520&Type=search", "url2": "https://www.ikoma-yuraku.com/" }, "geometry": { "type": "Point", "coordinates": [ 135.722518199999968, 34.664154 ] } },
{ "type": "Feature", "properties": { "内容": "介護老人保健施設オークピア鹿芝【介護老人保健施設】香芝市穴虫８８５－１", "url": "https://www.kaigokensaku.mhlw.go.jp/29/index.php?action_kouhyou_detail_004_kani=true&JigyosyoCd=2951080007-00&ServiceCd=520&Type=search", "url2": "http://www.suiyuukai.or.jp/kashiba" }, "geometry": { "type": "Point", "coordinates": [ 135.686918399999968, 34.5497853 ] } },
{ "type": "Feature", "properties": { "内容": "介護老人保健施設てんとう虫【介護老人保健施設】奈良県香芝市平野２３－１", "url": "https://www.kaigokensaku.mhlw.go.jp/29/index.php?action_kouhyou_detail_004_kani=true&JigyosyoCd=2951080015-00&ServiceCd=520&Type=search", "url2": "http://www.hakujukai.or.jp/" }, "geometry": { "type": "Point", "coordinates": [ 135.696078199999988, 34.5661224 ] } },
{ "type": "Feature", "properties": { "内容": "介護老人保健施設　ぬくもり葛城【介護老人保健施設】奈良県葛城市西室150-8", "url": "https://www.kaigokensaku.mhlw.go.jp/29/index.php?action_kouhyou_detail_004_kani=true&JigyosyoCd=2954880015-00&ServiceCd=520&Type=search", "url2": "http://www.nukumori-group.jp/" }, "geometry": { "type": "Point", "coordinates": [ 135.7282765, 34.492685 ] } },
{ "type": "Feature", "properties": { "内容": "医療法人博愛会　介護老人保健施設かつらぎ【介護老人保健施設】奈良県葛城市林堂360-1", "url": "https://www.kaigokensaku.mhlw.go.jp/29/index.php?action_kouhyou_detail_004_kani=true&JigyosyoCd=2954880007-00&ServiceCd=520&Type=search", "url2": "https://kakuaikai-k.or.jp/" }, "geometry": { "type": "Point", "coordinates": [ 135.718986, 34.481230600000011 ] } },
{ "type": "Feature", "properties": { "内容": "介護老人保健施設かつらぎ東館【介護老人保健施設】奈良県葛城市林堂360-1", "url": "https://www.kaigokensaku.mhlw.go.jp/29/index.php?action_kouhyou_detail_004_kani=true&JigyosyoCd=2974800456-00&ServiceCd=520&Type=search", "url2": "https://hakuaikai-k.or.jp" }, "geometry": { "type": "Point", "coordinates": [ 135.719495619712774, 34.481274819513466 ] } },
{ "type": "Feature", "properties": { "内容": "宇陀市介護老人保健施設さんとぴあ榛原【介護老人保健施設】奈良県宇陀市榛原萩原801番地の１", "url": "https://www.kaigokensaku.mhlw.go.jp/29/index.php?action_kouhyou_detail_004_kani=true&JigyosyoCd=2950680187-00&ServiceCd=520&Type=search", "url2": "http://www.city.uda.nara.jp/santopia/index.html" }, "geometry": { "type": "Point", "coordinates": [ 135.954722, 34.529884 ] } },
{ "type": "Feature", "properties": { "内容": "介護老人保健施設悠々の郷【介護老人保健施設】奈良県生駒郡平群町上庄1-15-1", "url": "https://www.kaigokensaku.mhlw.go.jp/29/index.php?action_kouhyou_detail_004_kani=true&JigyosyoCd=2951480009-00&ServiceCd=520&Type=search", "url2": "http://www.yawaragikai.jp/" }, "geometry": { "type": "Point", "coordinates": [ 135.703495400000065, 34.6410616 ] } },
{ "type": "Feature", "properties": { "内容": "介護老人保健施設もののみの郷【介護老人保健施設】奈良県生駒郡三郷町信貴山東４番１０号", "url": "https://www.kaigokensaku.mhlw.go.jp/29/index.php?action_kouhyou_detail_004_kani=true&JigyosyoCd=2951580006-00&ServiceCd=520&Type=search", "url2": "http://www.mononomi.jp" }, "geometry": { "type": "Point", "coordinates": [ 135.676396142991649, 34.606214136245043 ] } },
{ "type": "Feature", "properties": { "内容": "介護老人保健施設若草園【介護老人保健施設】奈良県生駒郡安堵町岡崎５８番地", "url": "https://www.kaigokensaku.mhlw.go.jp/29/index.php?action_kouhyou_detail_004_kani=true&JigyosyoCd=2950580031-00&ServiceCd=520&Type=search", "url2": "http://www.wakakusaen324.com/" }, "geometry": { "type": "Point", "coordinates": [ 135.763383100000027, 34.6039386 ] } },
{ "type": "Feature", "properties": { "内容": "介護老人保健施設　サンライフ田原本【介護老人保健施設】磯城郡田原本町小阪305-1", "url": "https://www.kaigokensaku.mhlw.go.jp/29/index.php?action_kouhyou_detail_004_kani=true&JigyosyoCd=2950780193-00&ServiceCd=520&Type=search", "url2": "http://www.seiwakai-group.or.jp/sunlife-tawaramoto.html" }, "geometry": { "type": "Point", "coordinates": [ 135.797061399999961, 34.5605029 ] } },
{ "type": "Feature", "properties": { "内容": "介護老人保健施設　ぬくもり田原本【介護老人保健施設】奈良県磯城郡田原本町黒田285-1", "url": "https://www.kaigokensaku.mhlw.go.jp/29/index.php?action_kouhyou_detail_004_kani=true&JigyosyoCd=2952080014-00&ServiceCd=520&Type=search", "url2": "http://www.nukumori-group.jp/" }, "geometry": { "type": "Point", "coordinates": [ 135.777680515483098, 34.569055236550057 ] } },
{ "type": "Feature", "properties": { "内容": "介護老人保健施設　萩の里あすか【介護老人保健施設】高市郡高取町松山６８５番地介護老人保健施設　萩の里あすか", "url": "https://www.kaigokensaku.mhlw.go.jp/29/index.php?action_kouhyou_detail_004_kani=true&JigyosyoCd=2952780019-00&ServiceCd=520&Type=search", "url2": "www.asuka-hp.or.jp/hagi/index.php" }, "geometry": { "type": "Point", "coordinates": [ 135.792836993701144, 34.441015333232073 ] } },
{ "type": "Feature", "properties": { "内容": "介護老人保健施設　グランディまきば【介護老人保健施設】奈良県北葛城郡上牧町上牧899-7", "url": "https://www.kaigokensaku.mhlw.go.jp/29/index.php?action_kouhyou_detail_004_kani=true&JigyosyoCd=2953180011-00&ServiceCd=520&Type=search", "url2": "http://makiba.jp/" }, "geometry": { "type": "Point", "coordinates": [ 135.715886757672138, 34.555525052173849 ] } },
{ "type": "Feature", "properties": { "内容": "介護老人保健施設　ユートピア・ゆり【介護老人保健施設】奈良県北葛城郡上牧町上牧4244番地", "url": "https://www.kaigokensaku.mhlw.go.jp/29/index.php?action_kouhyou_detail_004_kani=true&JigyosyoCd=2951580014-00&ServiceCd=520&Type=search", "url2": "http://www.ikujikai.or.jp" }, "geometry": { "type": "Point", "coordinates": [ 135.70925367962343, 34.558562371303275 ] } },
{ "type": "Feature", "properties": { "内容": "介護老人保健施設こころ上牧【介護老人保健施設】奈良県北葛城郡上牧町上牧2768-2", "url": "https://www.kaigokensaku.mhlw.go.jp/29/index.php?action_kouhyou_detail_004_kani=true&JigyosyoCd=2953180003-00&ServiceCd=520&Type=search", "url2": "http://www.chowahukushikai.or.jp/kanmaki.html" }, "geometry": { "type": "Point", "coordinates": [ 135.723175699999956, 34.5687785 ] } },
{ "type": "Feature", "properties": { "内容": "介護老人保健施設ぬくもり広陵【介護老人保健施設】奈良県北葛城郡広陵町馬見北５－１３－１１", "url": "https://www.kaigokensaku.mhlw.go.jp/29/index.php?action_kouhyou_detail_004_kani=true&JigyosyoCd=2953380025-00&ServiceCd=520&Type=search", "url2": "https://nukumori-group.jp/" }, "geometry": { "type": "Point", "coordinates": [ 135.7264514, 34.5540732 ] } },
{ "type": "Feature", "properties": { "内容": "介護老人保健施設　かぐやの里【介護老人保健施設】奈良県北葛城郡広陵町大字三吉１７９９番１", "url": "https://www.kaigokensaku.mhlw.go.jp/29/index.php?action_kouhyou_detail_004_kani=true&JigyosyoCd=2953380017-00&ServiceCd=520&Type=search", "url2": "http://www.kaguyanosato.jp" }, "geometry": { "type": "Point", "coordinates": [ 135.749543099999983, 34.5536692 ] } },
{ "type": "Feature", "properties": { "内容": "介護老人保健施設奈良ベテルホーム【介護老人保健施設】奈良県北葛城郡河合町高塚台1丁目8番地1", "url": "https://www.kaigokensaku.mhlw.go.jp/29/index.php?action_kouhyou_detail_004_kani=true&JigyosyoCd=2951580055-00&ServiceCd=520&Type=search", "url2": "https://www.nissay-seirei.org/nara/facilities/betel.php" }, "geometry": { "type": "Point", "coordinates": [ 135.722236998008754, 34.579681817477713 ] } },
{ "type": "Feature", "properties": { "内容": "介護老人保健施設でぃあほうむ吉野【介護老人保健施設】奈良県吉野郡大淀町矢走６６６番地の６", "url": "https://www.kaigokensaku.mhlw.go.jp/29/index.php?action_kouhyou_detail_004_kani=true&JigyosyoCd=2953680002-00&ServiceCd=520&Type=search", "url2": "http://www.e-dearhome.com" }, "geometry": { "type": "Point", "coordinates": [ 135.785576799999944, 34.4043685 ] } },
{ "type": "Feature", "properties": { "内容": "介護老人保健施設そよ風荘【介護老人保健施設】奈良県吉野郡下市町阿知賀621-1", "url": "https://www.kaigokensaku.mhlw.go.jp/29/index.php?action_kouhyou_detail_004_kani=true&JigyosyoCd=2951780028-00&ServiceCd=520&Type=search", "url2": "http://www.nanfu.or.jp/soyokaze.html" }, "geometry": { "type": "Point", "coordinates": [ 135.793824299999983, 34.3716773 ] } }
]
}
