{
"type": "FeatureCollection",
"name": "geo_29_特定施設入居者生活介護（有料老人ホーム（サービス付き高齢者向け住宅））",
"crs": { "type": "name", "properties": { "name": "urn:ogc:def:crs:OGC:1.3:CRS84" } },
"features": [
{ "type": "Feature", "properties": { "内容": "うぇるらいふのぞみ【特定施設入居者生活介護（有料老人ホーム（サービス付き高齢者向け住宅））】奈良県奈良市大和田町1166", "url": "https://www.kaigokensaku.mhlw.go.jp/29/index.php?action_kouhyou_detail_004_kani=true&JigyosyoCd=2970106817-00&ServiceCd=&Type=search", "url2": "https://wellgroup-service.jp/" }, "geometry": { "type": "Point", "coordinates": [ 135.754745899999989, 34.6663881 ] } },
{ "type": "Feature", "properties": { "内容": "介護付き有料老人ホーム　寿福の郷　大和高田【特定施設入居者生活介護（有料老人ホーム（サービス付き高齢者向け住宅））】奈良県大和高田市南今里町1-30寿福の郷　大和高田", "url": "https://www.kaigokensaku.mhlw.go.jp/29/index.php?action_kouhyou_detail_004_kani=true&JigyosyoCd=2970201527-00&ServiceCd=&Type=search", "url2": "www/kent-medical.com" }, "geometry": { "type": "Point", "coordinates": [ 135.749534312828075, 34.50576956536851 ] } },
{ "type": "Feature", "properties": { "内容": "介護付き有料老人ホーム「チェリー・ワン大和高田」【特定施設入居者生活介護（有料老人ホーム（サービス付き高齢者向け住宅））】奈良県大和高田市神楽2丁目13-25チェリー・ワン大和高田", "url": "https://www.kaigokensaku.mhlw.go.jp/29/index.php?action_kouhyou_detail_004_kani=true&JigyosyoCd=2970201725-00&ServiceCd=&Type=search", "url2": "http://www.nihon-kaigo.com/" }, "geometry": { "type": "Point", "coordinates": [ 135.7426572, 34.5240467 ] } },
{ "type": "Feature", "properties": { "内容": "介護付有料老人ホーム　倖寿の丘【特定施設入居者生活介護（有料老人ホーム（サービス付き高齢者向け住宅））】奈良県香芝市藤山２丁目１２２０－１", "url": "https://www.kaigokensaku.mhlw.go.jp/29/index.php?action_kouhyou_detail_004_kani=true&JigyosyoCd=2971001306-00&ServiceCd=&Type=search", "url2": null }, "geometry": { "type": "Point", "coordinates": [ 135.699487, 34.545539 ] } },
{ "type": "Feature", "properties": { "内容": "チャーム奈良三郷【特定施設入居者生活介護（有料老人ホーム（サービス付き高齢者向け住宅））】奈良県生駒郡三郷町勢野東6-8-6", "url": "https://www.kaigokensaku.mhlw.go.jp/29/index.php?action_kouhyou_detail_004_kani=true&JigyosyoCd=2971500596-00&ServiceCd=&Type=search", "url2": "http://www.charmcc.jp/" }, "geometry": { "type": "Point", "coordinates": [ 135.70775278465581, 34.60237904243845 ] } },
{ "type": "Feature", "properties": { "内容": "介護付有料老人ホーム　ベルライフ田原本【特定施設入居者生活介護（有料老人ホーム（サービス付き高齢者向け住宅））】奈良県磯城郡田原本町宮森87-1ベルライフ田原本", "url": "https://www.kaigokensaku.mhlw.go.jp/29/index.php?action_kouhyou_detail_004_kani=true&JigyosyoCd=2972000927-00&ServiceCd=&Type=search", "url2": "http:/www.bellage.co.jp" }, "geometry": { "type": "Point", "coordinates": [ 135.785135427712618, 34.537818345569647 ] } },
{ "type": "Feature", "properties": { "内容": "介護付有料老人ホームあんしん館【特定施設入居者生活介護（有料老人ホーム（サービス付き高齢者向け住宅））】奈良県北葛城郡上牧町中筋出作56-1", "url": "https://www.kaigokensaku.mhlw.go.jp/29/index.php?action_kouhyou_detail_004_kani=true&JigyosyoCd=2973100445-00&ServiceCd=&Type=search", "url2": null }, "geometry": { "type": "Point", "coordinates": [ 135.706481272877454, 34.556372727178584 ] } },
{ "type": "Feature", "properties": { "内容": "介護付有料老人ホームなごみ館【特定施設入居者生活介護（有料老人ホーム（サービス付き高齢者向け住宅））】奈良県北葛城郡上牧町中筋出作60-1", "url": "https://www.kaigokensaku.mhlw.go.jp/29/index.php?action_kouhyou_detail_004_kani=true&JigyosyoCd=2973100650-00&ServiceCd=&Type=search", "url2": null }, "geometry": { "type": "Point", "coordinates": [ 135.707291299999952, 34.5493081 ] } },
{ "type": "Feature", "properties": { "内容": "介護付有料老人ホーム　だるま苑【特定施設入居者生活介護（有料老人ホーム（サービス付き高齢者向け住宅））】奈良県北葛城郡王寺町本町２丁目４－２３", "url": "https://www.kaigokensaku.mhlw.go.jp/29/index.php?action_kouhyou_detail_004_kani=true&JigyosyoCd=2973200518-00&ServiceCd=&Type=search", "url2": "http://www.kokori.net" }, "geometry": { "type": "Point", "coordinates": [ 135.70761182579497, 34.588478593572695 ] } }
]
}
