{
"type": "FeatureCollection",
"name": "geo_29_4",
"crs": { "type": "name", "properties": { "name": "urn:ogc:def:crs:OGC:1.3:CRS84" } },
"features": [
{ "type": "Feature", "properties": { "ID": 2945100300000, "正式名称": "水山　助産所", "機関区分": 4, "都道府県コード": 29, "市区町村コード": 201, "所在地": "奈良県奈良市六条二丁目２０番８５号", "緯度": 34.670039, "経度": 135.776252, "url": "https://www.iryou.teikyouseido.mhlw.go.jp/znk-web/juminkanja/S2430/initialize?prefCd=29&kikanCd=5100300000&kikanKbn=4", "url2": null, "内容": "水山　助産所【4:助産院】奈良県奈良市六条二丁目２０番８５号" }, "geometry": { "type": "Point", "coordinates": [ 135.776252, 34.670039 ] } },
{ "type": "Feature", "properties": { "ID": 2945100600000, "正式名称": "青柳助産院", "機関区分": 4, "都道府県コード": 29, "市区町村コード": 201, "所在地": "奈良県奈良市五条畑１丁目１７番１０－１号", "緯度": 34.678066, "経度": 135.769197, "url": "https://www.iryou.teikyouseido.mhlw.go.jp/znk-web/juminkanja/S2430/initialize?prefCd=29&kikanCd=5100600000&kikanKbn=4", "url2": "https://aoyagijosanin.com", "内容": "青柳助産院【4:助産院】奈良県奈良市五条畑１丁目１７番１０－１号" }, "geometry": { "type": "Point", "coordinates": [ 135.769197, 34.678066 ] } },
{ "type": "Feature", "properties": { "ID": 2945101400000, "正式名称": "助産所　わ", "機関区分": 4, "都道府県コード": 29, "市区町村コード": 201, "所在地": "奈良県奈良市朱雀１－１３－１０", "緯度": 34.713896, "経度": 135.794082, "url": "https://www.iryou.teikyouseido.mhlw.go.jp/znk-web/juminkanja/S2430/initialize?prefCd=29&kikanCd=5101400000&kikanKbn=4", "url2": "https://jyosansyowa.com/", "内容": "助産所　わ【4:助産院】奈良県奈良市朱雀１－１３－１０" }, "geometry": { "type": "Point", "coordinates": [ 135.794082, 34.713896 ] } },
{ "type": "Feature", "properties": { "ID": 2945101700000, "正式名称": "石井助産院", "機関区分": 4, "都道府県コード": 29, "市区町村コード": 201, "所在地": "奈良県奈良市奈保町５番２１号", "緯度": 34.703537, "経度": 135.829663, "url": "https://www.iryou.teikyouseido.mhlw.go.jp/znk-web/juminkanja/S2430/initialize?prefCd=29&kikanCd=5101700000&kikanKbn=4", "url2": "https://nara-baby-ishii.jp/", "内容": "石井助産院【4:助産院】奈良県奈良市奈保町５番２１号" }, "geometry": { "type": "Point", "coordinates": [ 135.829663, 34.703537 ] } },
{ "type": "Feature", "properties": { "ID": 2945102300000, "正式名称": "岡橋助産所", "機関区分": 4, "都道府県コード": 29, "市区町村コード": 209, "所在地": "奈良県生駒市真弓南１丁目１１番１２号", "緯度": 34.7187, "経度": 135.730837, "url": "https://www.iryou.teikyouseido.mhlw.go.jp/znk-web/juminkanja/S2430/initialize?prefCd=29&kikanCd=5102300000&kikanKbn=4", "url2": null, "内容": "岡橋助産所【4:助産院】奈良県生駒市真弓南１丁目１１番１２号" }, "geometry": { "type": "Point", "coordinates": [ 135.730837, 34.7187 ] } },
{ "type": "Feature", "properties": { "ID": 2945103200000, "正式名称": "芽愛助産院", "機関区分": 4, "都道府県コード": 29, "市区町村コード": 204, "所在地": "奈良県天理市前栽町２７４－１", "緯度": 34.599825, "経度": 135.818696, "url": "https://www.iryou.teikyouseido.mhlw.go.jp/znk-web/juminkanja/S2430/initialize?prefCd=29&kikanCd=5103200000&kikanKbn=4", "url2": "https://www.mei-baby.net", "内容": "芽愛助産院【4:助産院】奈良県天理市前栽町２７４－１" }, "geometry": { "type": "Point", "coordinates": [ 135.818696, 34.599825 ] } },
{ "type": "Feature", "properties": { "ID": 2945103300000, "正式名称": "カヌシャガマ高杉助産院", "機関区分": 4, "都道府県コード": 29, "市区町村コード": 209, "所在地": "奈良県生駒市白庭台３丁目１５番１０", "緯度": 34.724282, "経度": 135.715699, "url": "https://www.iryou.teikyouseido.mhlw.go.jp/znk-web/juminkanja/S2430/initialize?prefCd=29&kikanCd=5103300000&kikanKbn=4", "url2": "web1.kcn.jp/takasugijyosanin", "内容": "カヌシャガマ高杉助産院【4:助産院】奈良県生駒市白庭台３丁目１５番１０" }, "geometry": { "type": "Point", "coordinates": [ 135.715699, 34.724282 ] } },
{ "type": "Feature", "properties": { "ID": 2945104600000, "正式名称": "りりい出張助産所", "機関区分": 4, "都道府県コード": 29, "市区町村コード": 442, "所在地": "奈良県吉野郡大淀町北野８７－３", "緯度": 34.402069, "経度": 135.823677, "url": "https://www.iryou.teikyouseido.mhlw.go.jp/znk-web/juminkanja/S2430/initialize?prefCd=29&kikanCd=5104600000&kikanKbn=4", "url2": null, "内容": "りりい出張助産所【4:助産院】奈良県吉野郡大淀町北野８７－３" }, "geometry": { "type": "Point", "coordinates": [ 135.823677, 34.402069 ] } },
{ "type": "Feature", "properties": { "ID": 2945104900000, "正式名称": "心友助産院", "機関区分": 4, "都道府県コード": 29, "市区町村コード": 426, "所在地": "奈良県北葛城郡広陵町三吉２６０－３", "緯度": 34.551912, "経度": 135.736927, "url": "https://www.iryou.teikyouseido.mhlw.go.jp/znk-web/juminkanja/S2430/initialize?prefCd=29&kikanCd=5104900000&kikanKbn=4", "url2": "https://koto-baby.com", "内容": "心友助産院【4:助産院】奈良県北葛城郡広陵町三吉２６０－３" }, "geometry": { "type": "Point", "coordinates": [ 135.736927, 34.551912 ] } },
{ "type": "Feature", "properties": { "ID": 2945105000000, "正式名称": "ふじ助産院", "機関区分": 4, "都道府県コード": 29, "市区町村コード": 204, "所在地": "奈良県天理市西長柄町３８８ー２", "緯度": 34.576068, "経度": 135.823021, "url": "https://www.iryou.teikyouseido.mhlw.go.jp/znk-web/juminkanja/S2430/initialize?prefCd=29&kikanCd=5105000000&kikanKbn=4", "url2": "http://www.jyosanin.con/fuji/purofir-ru.html", "内容": "ふじ助産院【4:助産院】奈良県天理市西長柄町３８８ー２" }, "geometry": { "type": "Point", "coordinates": [ 135.823021, 34.576068 ] } },
{ "type": "Feature", "properties": { "ID": 2945348000000, "正式名称": "みかた助産院", "機関区分": 4, "都道府県コード": 29, "市区町村コード": 201, "所在地": "奈良県奈良市三条添川町", "緯度": 34.681226, "経度": 135.81094, "url": "https://www.iryou.teikyouseido.mhlw.go.jp/znk-web/juminkanja/S2430/initialize?prefCd=29&kikanCd=5348000000&kikanKbn=4", "url2": "https://mikatajosanin.wixsite.com/easy-safety", "内容": "みかた助産院【4:助産院】奈良県奈良市三条添川町" }, "geometry": { "type": "Point", "coordinates": [ 135.81094, 34.681226 ] } },
{ "type": "Feature", "properties": { "ID": 2945362900000, "正式名称": "助産院まる眼鏡ママ相談室", "機関区分": 4, "都道府県コード": 29, "市区町村コード": 204, "所在地": "奈良県天理市二階堂上ノ庄町１７－４", "緯度": 34.599986, "経度": 135.796829, "url": "https://www.iryou.teikyouseido.mhlw.go.jp/znk-web/juminkanja/S2430/initialize?prefCd=29&kikanCd=5362900000&kikanKbn=4", "url2": "www.marumeganemama.com", "内容": "助産院まる眼鏡ママ相談室【4:助産院】奈良県天理市二階堂上ノ庄町１７－４" }, "geometry": { "type": "Point", "coordinates": [ 135.796829, 34.599986 ] } },
{ "type": "Feature", "properties": { "ID": 2945373900000, "正式名称": "かすみそう助産院", "機関区分": 4, "都道府県コード": 29, "市区町村コード": 201, "所在地": "奈良県奈良市学園朝日元町１丁目１８９１－２４", "緯度": 34.704119, "経度": 135.757253, "url": "https://www.iryou.teikyouseido.mhlw.go.jp/znk-web/juminkanja/S2430/initialize?prefCd=29&kikanCd=5373900000&kikanKbn=4", "url2": null, "内容": "かすみそう助産院【4:助産院】奈良県奈良市学園朝日元町１丁目１８９１－２４" }, "geometry": { "type": "Point", "coordinates": [ 135.757253, 34.704119 ] } },
{ "type": "Feature", "properties": { "ID": 2945382500000, "正式名称": "産前産後ケアハウスふゆき助産院", "機関区分": 4, "都道府県コード": 29, "市区町村コード": 201, "所在地": "奈良県奈良市宝来町１３１０－３８", "緯度": 34.686178, "経度": 135.763914, "url": "https://www.iryou.teikyouseido.mhlw.go.jp/znk-web/juminkanja/S2430/initialize?prefCd=29&kikanCd=5382500000&kikanKbn=4", "url2": null, "内容": "産前産後ケアハウスふゆき助産院【4:助産院】奈良県奈良市宝来町１３１０－３８" }, "geometry": { "type": "Point", "coordinates": [ 135.763914, 34.686178 ] } }
]
}
