{
"type": "FeatureCollection",
"name": "geo_29_介護老人福祉施設",
"crs": { "type": "name", "properties": { "name": "urn:ogc:def:crs:OGC:1.3:CRS84" } },
"features": [
{ "type": "Feature", "properties": { "内容": "特別養護老人ホームかがやきの苑（かがやきのその）【介護老人福祉施設】奈良市奈良阪町２７８９－１", "url": "https://www.kaigokensaku.mhlw.go.jp/29/index.php?action_kouhyou_detail_004_kani=true&JigyosyoCd=2970103608-00&ServiceCd=510&Type=search", "url2": null }, "geometry": { "type": "Point", "coordinates": [ 135.837116199999969, 34.7033185 ] } },
{ "type": "Feature", "properties": { "内容": "特別養護老人ホームサンライフ西大寺【介護老人福祉施設】奈良県奈良市西大寺南町1-28", "url": "https://www.kaigokensaku.mhlw.go.jp/29/index.php?action_kouhyou_detail_004_kani=true&JigyosyoCd=2970106874-00&ServiceCd=510&Type=search", "url2": "http://www.seiwakai-group.or.jp/" }, "geometry": { "type": "Point", "coordinates": [ 135.781658109262054, 34.693943676189768 ] } },
{ "type": "Feature", "properties": { "内容": "特別養護老人ホーム梅花苑【介護老人福祉施設】奈良市大和田町2226番地", "url": "https://www.kaigokensaku.mhlw.go.jp/29/index.php?action_kouhyou_detail_004_kani=true&JigyosyoCd=2970104200-00&ServiceCd=510&Type=search", "url2": "http://www.wellconsul.co.jp/main/shisetu/tokubetuyougo.html" }, "geometry": { "type": "Point", "coordinates": [ 135.743710800000031, 34.6673793 ] } },
{ "type": "Feature", "properties": { "内容": "特別養護老人ホーム和楽園【介護老人福祉施設】奈良市古市町１８８６番地の１", "url": "https://www.kaigokensaku.mhlw.go.jp/29/index.php?action_kouhyou_detail_004_kani=true&JigyosyoCd=2970101578-00&ServiceCd=510&Type=search", "url2": "https://www.warakuen.or.jp" }, "geometry": { "type": "Point", "coordinates": [ 135.842825, 34.6650677 ] } },
{ "type": "Feature", "properties": { "内容": "サンタ・マリア【介護老人福祉施設】奈良市朱雀４丁目３番地１０", "url": "https://www.kaigokensaku.mhlw.go.jp/29/index.php?action_kouhyou_detail_004_kani=true&JigyosyoCd=2970100414-00&ServiceCd=510&Type=search", "url2": "http://www.yozefu-home.or.jp/" }, "geometry": { "type": "Point", "coordinates": [ 135.798941300000024, 34.721077200000011 ] } },
{ "type": "Feature", "properties": { "内容": "特別養護老人ホームサンライフ明日香【介護老人福祉施設】奈良市紀寺町５５６－１", "url": "https://www.kaigokensaku.mhlw.go.jp/29/index.php?action_kouhyou_detail_004_kani=true&JigyosyoCd=2970103327-00&ServiceCd=510&Type=search", "url2": "http://www.seiwakai-group.or.jp/" }, "geometry": { "type": "Point", "coordinates": [ 135.834511799999973, 34.6715334 ] } },
{ "type": "Feature", "properties": { "内容": "特別養護老人ホーム　光の桜【介護老人福祉施設】奈良県奈良市石木町715-1", "url": "https://www.kaigokensaku.mhlw.go.jp/29/index.php?action_kouhyou_detail_004_kani=true&JigyosyoCd=2970106411-00&ServiceCd=510&Type=search", "url2": "http://nrayamakai.jp/" }, "geometry": { "type": "Point", "coordinates": [ 135.761691450262418, 34.667139132731506 ] } },
{ "type": "Feature", "properties": { "内容": "特別養護老人ホームらくじ苑【介護老人福祉施設】奈良県奈良市八条５丁目437-11", "url": "https://www.kaigokensaku.mhlw.go.jp/29/index.php?action_kouhyou_detail_004_kani=true&JigyosyoCd=2970103848-00&ServiceCd=510&Type=search", "url2": "http://s-rakuji.com" }, "geometry": { "type": "Point", "coordinates": [ 135.800034399999959, 34.6672196 ] } },
{ "type": "Feature", "properties": { "内容": "特別養護老人ホームあじさい園宝【介護老人福祉施設】奈良県奈良市南肘塚町99-1", "url": "https://www.kaigokensaku.mhlw.go.jp/29/index.php?action_kouhyou_detail_004_kani=true&JigyosyoCd=2970106866-00&ServiceCd=510&Type=search", "url2": "http://www.ajisaien.or.jp" }, "geometry": { "type": "Point", "coordinates": [ 135.831434469975278, 34.66582627660749 ] } },
{ "type": "Feature", "properties": { "内容": "特別養護老人ホーム　あじさい園【介護老人福祉施設】奈良市茗荷町808-1", "url": "https://www.kaigokensaku.mhlw.go.jp/29/index.php?action_kouhyou_detail_004_kani=true&JigyosyoCd=2970100281-00&ServiceCd=510&Type=search", "url2": "http://www.ajisaien.or.jp" }, "geometry": { "type": "Point", "coordinates": [ 135.902224700000033, 34.6570114 ] } },
{ "type": "Feature", "properties": { "内容": "特別養護老人ホーム　リノ【介護老人福祉施設】奈良市窪之庄町１１６－１", "url": "https://www.kaigokensaku.mhlw.go.jp/29/index.php?action_kouhyou_detail_004_kani=true&JigyosyoCd=2970103947-00&ServiceCd=510&Type=search", "url2": "https://www.shimeikai.or.jp" }, "geometry": { "type": "Point", "coordinates": [ 135.832600899999989, 34.6386178 ] } },
{ "type": "Feature", "properties": { "内容": "特別養護老人ホーム　こがねの里【介護老人福祉施設】奈良県奈良市西大寺赤田町1丁目7番1-2号", "url": "https://www.kaigokensaku.mhlw.go.jp/29/index.php?action_kouhyou_detail_004_kani=true&JigyosyoCd=2970101289-00&ServiceCd=510&Type=search", "url2": "https://akishino-akane.com/" }, "geometry": { "type": "Point", "coordinates": [ 135.772042677246077, 34.698688235050838 ] } },
{ "type": "Feature", "properties": { "内容": "特別養護老人ホーム　長曽根寮【介護老人福祉施設】奈良市大倭町４番１号", "url": "https://www.kaigokensaku.mhlw.go.jp/29/index.php?action_kouhyou_detail_004_kani=true&JigyosyoCd=2970100232-00&ServiceCd=510&Type=search", "url2": "https://www.asukaen.net/" }, "geometry": { "type": "Point", "coordinates": [ 135.758187200000066, 34.680781 ] } },
{ "type": "Feature", "properties": { "内容": "特別養護老人ホームなら清寿苑【介護老人福祉施設】奈良市田中町６０２番１", "url": "https://www.kaigokensaku.mhlw.go.jp/29/index.php?action_kouhyou_detail_004_kani=true&JigyosyoCd=2970101503-00&ServiceCd=510&Type=search", "url2": "https://www.fureai-net.com" }, "geometry": { "type": "Point", "coordinates": [ 135.8434416, 34.6383015 ] } },
{ "type": "Feature", "properties": { "内容": "特別養護老人ホーム　こまどりと丘【介護老人福祉施設】奈良県奈良市二名1丁目2356-1", "url": "https://www.kaigokensaku.mhlw.go.jp/29/index.php?action_kouhyou_detail_004_kani=true&JigyosyoCd=2970106429-00&ServiceCd=510&Type=search", "url2": "http://www.komadoritooka.jp/" }, "geometry": { "type": "Point", "coordinates": [ 135.736604864799915, 34.706727610887285 ] } },
{ "type": "Feature", "properties": { "内容": "ル・エンゲージなかがわ3番館【介護老人福祉施設】奈良市奈良阪町167番地", "url": "https://www.kaigokensaku.mhlw.go.jp/29/index.php?action_kouhyou_detail_004_kani=true&JigyosyoCd=2970105504-00&ServiceCd=510&Type=search", "url2": "https://frei-stadt.com/" }, "geometry": { "type": "Point", "coordinates": [ 135.829480600000011, 34.7089873 ] } },
{ "type": "Feature", "properties": { "内容": "特別養護老人ホーム　西ノ京苑【介護老人福祉施設】奈良市六条西五丁目17番43号", "url": "https://www.kaigokensaku.mhlw.go.jp/29/index.php?action_kouhyou_detail_004_kani=true&JigyosyoCd=2970100943-00&ServiceCd=510&Type=search", "url2": "https://nisinokyoen.org/" }, "geometry": { "type": "Point", "coordinates": [ 135.765362, 34.6646052 ] } },
{ "type": "Feature", "properties": { "内容": "特別養護老人ホーム　トマトホーム【介護老人福祉施設】奈良市横井町906-12", "url": "https://www.kaigokensaku.mhlw.go.jp/29/index.php?action_kouhyou_detail_004_kani=true&JigyosyoCd=2970104416-00&ServiceCd=510&Type=search", "url2": "https://www.tomato-home.or.jp" }, "geometry": { "type": "Point", "coordinates": [ 135.850966, 34.656619 ] } },
{ "type": "Feature", "properties": { "内容": "特別養護老人ホームならやま園【介護老人福祉施設】奈良市山陵町1085", "url": "https://www.kaigokensaku.mhlw.go.jp/29/index.php?action_kouhyou_detail_004_kani=true&JigyosyoCd=2970100190-00&ServiceCd=510&Type=search", "url2": "http://fukujukai.or.jp" }, "geometry": { "type": "Point", "coordinates": [ 135.7822706, 34.712070400000016 ] } },
{ "type": "Feature", "properties": { "内容": "ユニット型　特別養護老人ホーム　平城園【介護老人福祉施設】奈良市秋篠町1567番地", "url": "https://www.kaigokensaku.mhlw.go.jp/29/index.php?action_kouhyou_detail_004_kani=true&JigyosyoCd=2970108086-00&ServiceCd=510&Type=search", "url2": "http://fukujukai.or.jp/" }, "geometry": { "type": "Point", "coordinates": [ 135.779213499999969, 34.7121351 ] } },
{ "type": "Feature", "properties": { "内容": "特別養護老人ホーム平城園【介護老人福祉施設】奈良市秋篠町１５６７番地", "url": "https://www.kaigokensaku.mhlw.go.jp/29/index.php?action_kouhyou_detail_004_kani=true&JigyosyoCd=2970100315-00&ServiceCd=510&Type=search", "url2": "http://fukujukai.or.jp/heijyo" }, "geometry": { "type": "Point", "coordinates": [ 135.7789239, 34.7121751 ] } },
{ "type": "Feature", "properties": { "内容": "特別養護老人ホーム万葉苑【介護老人福祉施設】奈良市川上町875番地の1", "url": "https://www.kaigokensaku.mhlw.go.jp/29/index.php?action_kouhyou_detail_004_kani=true&JigyosyoCd=2970100646-00&ServiceCd=510&Type=search", "url2": "http://www.manyoen.jp/" }, "geometry": { "type": "Point", "coordinates": [ 135.84409340000002, 34.70238 ] } },
{ "type": "Feature", "properties": { "内容": "特別養護老人ホーム香梅苑【介護老人福祉施設】奈良県奈良市月ヶ瀬尾山８１７番地５", "url": "https://www.kaigokensaku.mhlw.go.jp/29/index.php?action_kouhyou_detail_004_kani=true&JigyosyoCd=2971100066-00&ServiceCd=510&Type=search", "url2": null }, "geometry": { "type": "Point", "coordinates": [ 136.047117100000037, 34.7148687 ] } },
{ "type": "Feature", "properties": { "内容": "都祁すずらん苑【介護老人福祉施設】奈良県奈良市都祁友田町１４３７番地", "url": "https://www.kaigokensaku.mhlw.go.jp/29/index.php?action_kouhyou_detail_004_kani=true&JigyosyoCd=2971200023-00&ServiceCd=510&Type=search", "url2": "https://www.yamatokai-suzuran.com" }, "geometry": { "type": "Point", "coordinates": [ 135.945615099999941, 34.6017347 ] } },
{ "type": "Feature", "properties": { "内容": "学園前西特別養護老人ホーム【介護老人福祉施設】奈良市二名三丁目１１５１番地１", "url": "https://www.kaigokensaku.mhlw.go.jp/29/index.php?action_kouhyou_detail_004_kani=true&JigyosyoCd=2970101545-00&ServiceCd=510&Type=search", "url2": "https://www.naraen.or.jp" }, "geometry": { "type": "Point", "coordinates": [ 135.726017800000022, 34.7040559 ] } },
{ "type": "Feature", "properties": { "内容": "学園前西特別養護老人ホーム（ユニット型）【介護老人福祉施設】奈良県奈良市二名三丁目１１５１番地１", "url": "https://www.kaigokensaku.mhlw.go.jp/29/index.php?action_kouhyou_detail_004_kani=true&JigyosyoCd=2970106775-00&ServiceCd=510&Type=search", "url2": "https://www.naraen.or.jp" }, "geometry": { "type": "Point", "coordinates": [ 135.726017800000022, 34.7040559 ] } },
{ "type": "Feature", "properties": { "内容": "特別養護老人ホーム　慈光園【介護老人福祉施設】大和高田市大字池田444番地", "url": "https://www.kaigokensaku.mhlw.go.jp/29/index.php?action_kouhyou_detail_004_kani=true&JigyosyoCd=2970200115-00&ServiceCd=510&Type=search", "url2": "http://www.jikohen.com" }, "geometry": { "type": "Point", "coordinates": [ 135.73168110000006, 34.520290502425169 ] } },
{ "type": "Feature", "properties": { "内容": "和里（にこり）【介護老人福祉施設】奈良県大和高田市野口325番3", "url": "https://www.kaigokensaku.mhlw.go.jp/29/index.php?action_kouhyou_detail_004_kani=true&JigyosyoCd=2970200750-00&ServiceCd=510&Type=search", "url2": "http://www.nicori.or.jp/" }, "geometry": { "type": "Point", "coordinates": [ 135.721026199999983, 34.5250476 ] } },
{ "type": "Feature", "properties": { "内容": "特別養護老人ホーム　きづなの里【介護老人福祉施設】山田町３３７－２特別養護老人ホーム　きづなの里", "url": "https://www.kaigokensaku.mhlw.go.jp/29/index.php?action_kouhyou_detail_004_kani=true&JigyosyoCd=2970301475-00&ServiceCd=510&Type=search", "url2": "www.kidunanosato.com/" }, "geometry": { "type": "Point", "coordinates": [ 135.739422362102459, 34.634194700063091 ] } },
{ "type": "Feature", "properties": { "内容": "特別養護老人ホームウェルケアはるか【介護老人福祉施設】奈良県大和郡山市天井町227-1", "url": "https://www.kaigokensaku.mhlw.go.jp/29/index.php?action_kouhyou_detail_004_kani=true&JigyosyoCd=2970301673-00&ServiceCd=510&Type=search", "url2": "http://www.wellgroup.jp" }, "geometry": { "type": "Point", "coordinates": [ 135.786850800000025, 34.6388774 ] } },
{ "type": "Feature", "properties": { "内容": "特別養護老人ホーム瑞祥苑【介護老人福祉施設】奈良県大和郡山市矢田町4739番地の4", "url": "https://www.kaigokensaku.mhlw.go.jp/29/index.php?action_kouhyou_detail_004_kani=true&JigyosyoCd=2970300162-00&ServiceCd=510&Type=search", "url2": "https://zuishouen.or.jp/" }, "geometry": { "type": "Point", "coordinates": [ 135.750169, 34.6490312 ] } },
{ "type": "Feature", "properties": { "内容": "あすなら苑【介護老人福祉施設】奈良県大和郡山市宮堂町字青木160番7", "url": "https://www.kaigokensaku.mhlw.go.jp/29/index.php?action_kouhyou_detail_004_kani=true&JigyosyoCd=2970300121-00&ServiceCd=510&Type=search", "url2": "https://asunaraen.or.jp" }, "geometry": { "type": "Point", "coordinates": [ 135.786481099999946, 34.6019069 ] } },
{ "type": "Feature", "properties": { "内容": "特別養護老人ホーム　千年希望の杜大和郡山【介護老人福祉施設】奈良県大和郡山市矢田町６８６番１", "url": "https://www.kaigokensaku.mhlw.go.jp/29/index.php?action_kouhyou_detail_004_kani=true&JigyosyoCd=2970301822-00&ServiceCd=510&Type=search", "url2": "http://keishukai.or.jp/" }, "geometry": { "type": "Point", "coordinates": [ 135.754420431879026, 34.64981367737424 ] } },
{ "type": "Feature", "properties": { "内容": "特別養護老人ホーム大和園平和【介護老人福祉施設】奈良県大和郡山市美濃庄町236-1", "url": "https://www.kaigokensaku.mhlw.go.jp/29/index.php?action_kouhyou_detail_004_kani=true&JigyosyoCd=2970300089-00&ServiceCd=510&Type=search", "url2": "http://www.yamatoen.or.jp/" }, "geometry": { "type": "Point", "coordinates": [ 135.806342200000017, 34.6393253 ] } },
{ "type": "Feature", "properties": { "内容": "矢田の郷【介護老人福祉施設】大和郡山市新町９９１", "url": "https://www.kaigokensaku.mhlw.go.jp/29/index.php?action_kouhyou_detail_004_kani=true&JigyosyoCd=2970300626-00&ServiceCd=510&Type=search", "url2": "https://fukushiin.or.jp" }, "geometry": { "type": "Point", "coordinates": [ 135.738631199999986, 34.6350154 ] } },
{ "type": "Feature", "properties": { "内容": "あいの郷【介護老人福祉施設】奈良県大和郡山市発志院町184-2", "url": "https://www.kaigokensaku.mhlw.go.jp/29/index.php?action_kouhyou_detail_004_kani=true&JigyosyoCd=2970301194-00&ServiceCd=510&Type=search", "url2": "http://ainosato-nara.com/" }, "geometry": { "type": "Point", "coordinates": [ 135.803189800000041, 34.6275293 ] } },
{ "type": "Feature", "properties": { "内容": "特別養護老人ホームやすらぎ園【介護老人福祉施設】奈良県天理市福住町５５０４番地", "url": "https://www.kaigokensaku.mhlw.go.jp/29/index.php?action_kouhyou_detail_004_kani=true&JigyosyoCd=2970400020-00&ServiceCd=510&Type=search", "url2": "http://www.yasuragien.jp" }, "geometry": { "type": "Point", "coordinates": [ 135.908993, 34.59829 ] } },
{ "type": "Feature", "properties": { "内容": "特別養護老人ホーム　清寿苑【介護老人福祉施設】奈良県天理市中之庄町532-1", "url": "https://www.kaigokensaku.mhlw.go.jp/29/index.php?action_kouhyou_detail_004_kani=true&JigyosyoCd=2970400012-00&ServiceCd=510&Type=search", "url2": "http://www/fureai-net.com" }, "geometry": { "type": "Point", "coordinates": [ 135.842686100000037, 34.6365684 ] } },
{ "type": "Feature", "properties": { "内容": "社会福祉法人天寿会特別養護老人ホームひびきの郷【介護老人福祉施設】天理市岸田町１１９９", "url": "https://www.kaigokensaku.mhlw.go.jp/29/index.php?action_kouhyou_detail_004_kani=true&JigyosyoCd=2970400095-00&ServiceCd=510&Type=search", "url2": "http://www.tenjukai.jp" }, "geometry": { "type": "Point", "coordinates": [ 135.824313800000027, 34.5662086 ] } },
{ "type": "Feature", "properties": { "内容": "天理市立特別養護老人ホームふるさと園【介護老人福祉施設】天理市遠田町４７３", "url": "https://www.kaigokensaku.mhlw.go.jp/29/index.php?action_kouhyou_detail_004_kani=true&JigyosyoCd=2970400137-00&ServiceCd=510&Type=search", "url2": "http://www.tenrifurusatoen.or.jp/" }, "geometry": { "type": "Point", "coordinates": [ 135.822991699999989, 34.5625201 ] } },
{ "type": "Feature", "properties": { "内容": "特別養護老人ホーム福住光明苑【介護老人福祉施設】奈良県天理市福住町6328番地", "url": "https://www.kaigokensaku.mhlw.go.jp/29/index.php?action_kouhyou_detail_004_kani=true&JigyosyoCd=2970400657-00&ServiceCd=510&Type=search", "url2": "http://fukusumikai.jp/" }, "geometry": { "type": "Point", "coordinates": [ 135.918092200000046, 34.6050198 ] } },
{ "type": "Feature", "properties": { "内容": "特別養護老人ホームバンデ(絆)【介護老人福祉施設】奈良県橿原市東竹田町１０４番１", "url": "https://www.kaigokensaku.mhlw.go.jp/29/index.php?action_kouhyou_detail_004_kani=true&JigyosyoCd=2970502114-00&ServiceCd=510&Type=search", "url2": "http://www.bande.or.jp/" }, "geometry": { "type": "Point", "coordinates": [ 135.824668, 34.52569 ] } },
{ "type": "Feature", "properties": { "内容": "特別養護老人ホーム　橿原の郷【介護老人福祉施設】奈良県橿原市飯高町７－１", "url": "https://www.kaigokensaku.mhlw.go.jp/29/index.php?action_kouhyou_detail_004_kani=true&JigyosyoCd=2970501025-00&ServiceCd=510&Type=search", "url2": "http://www.sanyofukushikai.com/" }, "geometry": { "type": "Point", "coordinates": [ 135.77985769999998, 34.5311449 ] } },
{ "type": "Feature", "properties": { "内容": "特別養護老人ホーム香久山インパレス【介護老人福祉施設】奈良県橿原市戒外町７番地", "url": "https://www.kaigokensaku.mhlw.go.jp/29/index.php?action_kouhyou_detail_004_kani=true&JigyosyoCd=2970500027-00&ServiceCd=510&Type=search", "url2": "http://shoufukukai.or.jp/" }, "geometry": { "type": "Point", "coordinates": [ 135.823465100000021, 34.4945838 ] } },
{ "type": "Feature", "properties": { "内容": "特別養護老人ホームかなはし苑【介護老人福祉施設】橿原市雲梯町９４－１", "url": "https://www.kaigokensaku.mhlw.go.jp/29/index.php?action_kouhyou_detail_004_kani=true&JigyosyoCd=2970500035-00&ServiceCd=510&Type=search", "url2": "http://kanahashien.iinaa.net/" }, "geometry": { "type": "Point", "coordinates": [ 135.767925500000047, 34.5021375 ] } },
{ "type": "Feature", "properties": { "内容": "桃寿園【介護老人福祉施設】奈良県橿原市北越智町345番地", "url": "https://www.kaigokensaku.mhlw.go.jp/29/index.php?action_kouhyou_detail_004_kani=true&JigyosyoCd=2970500076-00&ServiceCd=510&Type=search", "url2": "http://choseikai.or.jp" }, "geometry": { "type": "Point", "coordinates": [ 135.777492100000018, 34.4740131 ] } },
{ "type": "Feature", "properties": { "内容": "特別養護老人ホームきび秀華苑【介護老人福祉施設】奈良県桜井市吉備５４２番地の２", "url": "https://www.kaigokensaku.mhlw.go.jp/29/index.php?action_kouhyou_detail_004_kani=true&JigyosyoCd=2970600918-00&ServiceCd=510&Type=search", "url2": "http://www.seikoukai-fukushi.or.jp" }, "geometry": { "type": "Point", "coordinates": [ 135.833266500663711, 34.508638283698708 ] } },
{ "type": "Feature", "properties": { "内容": "特別養護老人ホーム　秀華苑【介護老人福祉施設】奈良県桜井市出雲１６４２番地", "url": "https://www.kaigokensaku.mhlw.go.jp/29/index.php?action_kouhyou_detail_004_kani=true&JigyosyoCd=2970600561-00&ServiceCd=510&Type=search", "url2": "http://www.seikoukai-fukushi.or.jp" }, "geometry": { "type": "Point", "coordinates": [ 135.895562669311516, 34.52169162371419 ] } },
{ "type": "Feature", "properties": { "内容": "社会福祉法人　大和桜井園【介護老人福祉施設】奈良県桜井市大字阿部１０７３番地", "url": "https://www.kaigokensaku.mhlw.go.jp/29/index.php?action_kouhyou_detail_004_kani=true&JigyosyoCd=2970600017-00&ServiceCd=510&Type=search", "url2": "http://www.sakuraien.jp/" }, "geometry": { "type": "Point", "coordinates": [ 135.844325786508193, 34.501332303194637 ] } },
{ "type": "Feature", "properties": { "内容": "特別養護老人ホーム水がたり【介護老人福祉施設】五條市野原西３丁目３番４１号祥水園野原西village", "url": "https://www.kaigokensaku.mhlw.go.jp/29/index.php?action_kouhyou_detail_004_kani=true&JigyosyoCd=2970700064-00&ServiceCd=510&Type=search", "url2": "http://www.shousuien.or.jp" }, "geometry": { "type": "Point", "coordinates": [ 135.702592776738385, 34.345977019819962 ] } },
{ "type": "Feature", "properties": { "内容": "特別養護老人ホーム水杜【介護老人福祉施設】奈良県五條市野原西3丁目3番41号祥水園野原西village", "url": "https://www.kaigokensaku.mhlw.go.jp/29/index.php?action_kouhyou_detail_004_kani=true&JigyosyoCd=2970700635-00&ServiceCd=510&Type=search", "url2": "http://www.shousuien.or.jp/" }, "geometry": { "type": "Point", "coordinates": [ 135.702478088885528, 34.345994323350006 ] } },
{ "type": "Feature", "properties": { "内容": "特別養護老人ホーム　ハートランド五條【介護老人福祉施設】奈良県五條市二見5丁目3番63号", "url": "https://www.kaigokensaku.mhlw.go.jp/29/index.php?action_kouhyou_detail_004_kani=true&JigyosyoCd=2970700551-00&ServiceCd=510&Type=search", "url2": "http://www.heartland.or.jp/gojo/" }, "geometry": { "type": "Point", "coordinates": [ 135.691280991015702, 34.340448575494925 ] } },
{ "type": "Feature", "properties": { "内容": "介護老人福祉施設　友喜苑【介護老人福祉施設】奈良県五條市住川町１１６５－４", "url": "https://www.kaigokensaku.mhlw.go.jp/29/index.php?action_kouhyou_detail_004_kani=true&JigyosyoCd=2970700429-00&ServiceCd=510&Type=search", "url2": "http://www.sanju.or.jp/yukien/" }, "geometry": { "type": "Point", "coordinates": [ 135.726642564418029, 34.38795149243812 ] } },
{ "type": "Feature", "properties": { "内容": "特別養護老人ホーム　まきの苑【介護老人福祉施設】奈良県五條市大沢町5番地25", "url": "https://www.kaigokensaku.mhlw.go.jp/29/index.php?action_kouhyou_detail_004_kani=true&JigyosyoCd=2970700031-00&ServiceCd=510&Type=search", "url2": "http://www.seiwakai-gojo.or.jp/" }, "geometry": { "type": "Point", "coordinates": [ 135.668242500000019, 34.3619368 ] } },
{ "type": "Feature", "properties": { "内容": "特別養護老人ホームせせらぎの園【介護老人福祉施設】増33-3", "url": "https://www.kaigokensaku.mhlw.go.jp/29/index.php?action_kouhyou_detail_004_kani=true&JigyosyoCd=2970800682-00&ServiceCd=510&Type=search", "url2": "http://www.seseragikai.or.jp" }, "geometry": { "type": "Point", "coordinates": [ 135.712487868786639, 34.439102907510929 ] } },
{ "type": "Feature", "properties": { "内容": "介護老人福祉施設　友幸苑【介護老人福祉施設】奈良県御所市重阪７７１番１", "url": "https://www.kaigokensaku.mhlw.go.jp/29/index.php?action_kouhyou_detail_004_kani=true&JigyosyoCd=2970800427-00&ServiceCd=510&Type=search", "url2": "http://www.sanju.or.jp/" }, "geometry": { "type": "Point", "coordinates": [ 135.725928899999985, 34.3884914 ] } },
{ "type": "Feature", "properties": { "内容": "さうす国見【介護老人福祉施設】奈良県御所市柏原1320", "url": "https://www.kaigokensaku.mhlw.go.jp/29/index.php?action_kouhyou_detail_004_kani=true&JigyosyoCd=2970800278-00&ServiceCd=510&Type=search", "url2": "http://www.jinnankai.jp/" }, "geometry": { "type": "Point", "coordinates": [ 135.764913299999989, 34.4520129 ] } },
{ "type": "Feature", "properties": { "内容": "国見苑【介護老人福祉施設】奈良県御所市柏原１５９４－１", "url": "https://www.kaigokensaku.mhlw.go.jp/29/index.php?action_kouhyou_detail_004_kani=true&JigyosyoCd=2970800021-00&ServiceCd=510&Type=search", "url2": "http://www.jinnankai.jp" }, "geometry": { "type": "Point", "coordinates": [ 135.765591200000017, 34.4471968 ] } },
{ "type": "Feature", "properties": { "内容": "テンダーヒル御所【介護老人福祉施設】奈良県御所市船路415", "url": "https://www.kaigokensaku.mhlw.go.jp/29/index.php?action_kouhyou_detail_004_kani=true&JigyosyoCd=2970800013-00&ServiceCd=510&Type=search", "url2": "http://www.tender.or.jp" }, "geometry": { "type": "Point", "coordinates": [ 135.720190099999968, 34.410777900000021 ] } },
{ "type": "Feature", "properties": { "内容": "テンダーヒル御所みのり館【介護老人福祉施設】奈良県御所市船路415番地", "url": "https://www.kaigokensaku.mhlw.go.jp/29/index.php?action_kouhyou_detail_004_kani=true&JigyosyoCd=2970800633-00&ServiceCd=510&Type=search", "url2": "http://www.tender.or.jp" }, "geometry": { "type": "Point", "coordinates": [ 135.720176199999969, 34.410758499999979 ] } },
{ "type": "Feature", "properties": { "内容": "高山ちどり【介護老人福祉施設】奈良県生駒市高山町8030番地", "url": "https://www.kaigokensaku.mhlw.go.jp/29/index.php?action_kouhyou_detail_004_kani=true&JigyosyoCd=2970900946-00&ServiceCd=510&Type=search", "url2": "https://www.chidori.or.jp/facility/takayama/" }, "geometry": { "type": "Point", "coordinates": [ 135.726281, 34.7279288 ] } },
{ "type": "Feature", "properties": { "内容": "高山ちどり別館【介護老人福祉施設】奈良県生駒市高山町8030", "url": "https://www.kaigokensaku.mhlw.go.jp/29/index.php?action_kouhyou_detail_004_kani=true&JigyosyoCd=2970901738-00&ServiceCd=510&Type=search", "url2": "https://www.chidori.or.jp/" }, "geometry": { "type": "Point", "coordinates": [ 135.7263838, 34.7280649 ] } },
{ "type": "Feature", "properties": { "内容": "萩の台ちどり【介護老人福祉施設】生駒市萩の台3丁目1-8", "url": "https://www.kaigokensaku.mhlw.go.jp/29/index.php?action_kouhyou_detail_004_kani=true&JigyosyoCd=2970901290-00&ServiceCd=510&Type=search", "url2": "http://www.chidori.or.jp" }, "geometry": { "type": "Point", "coordinates": [ 135.7101083, 34.6545104 ] } },
{ "type": "Feature", "properties": { "内容": "特別養護老人ホーム　フォレストホーム【介護老人福祉施設】生駒市北田原町2429-4", "url": "https://www.kaigokensaku.mhlw.go.jp/29/index.php?action_kouhyou_detail_004_kani=true&JigyosyoCd=2970900029-00&ServiceCd=510&Type=search", "url2": "http://www.cyomeisou.or.jp" }, "geometry": { "type": "Point", "coordinates": [ 135.710779399999979, 34.7328586 ] } },
{ "type": "Feature", "properties": { "内容": "特別養護老人ホーム　延寿【介護老人福祉施設】奈良県生駒市小瀬町１１００", "url": "https://www.kaigokensaku.mhlw.go.jp/29/index.php?action_kouhyou_detail_004_kani=true&JigyosyoCd=2970900292-00&ServiceCd=510&Type=search", "url2": "http://www.enju.net" }, "geometry": { "type": "Point", "coordinates": [ 135.723170900000014, 34.6646762 ] } },
{ "type": "Feature", "properties": { "内容": "特別養護老人ホーム梅寿荘【介護老人福祉施設】生駒市門前町８番7号", "url": "https://www.kaigokensaku.mhlw.go.jp/29/index.php?action_kouhyou_detail_004_kani=true&JigyosyoCd=2970900102-00&ServiceCd=510&Type=search", "url2": "https://www.baijusou.jp/" }, "geometry": { "type": "Point", "coordinates": [ 135.688959599999976, 34.6866853 ] } },
{ "type": "Feature", "properties": { "内容": "特別養護老人ホーム　すばる【介護老人福祉施設】奈良県香芝市鎌田157-1", "url": "https://www.kaigokensaku.mhlw.go.jp/29/index.php?action_kouhyou_detail_004_kani=true&JigyosyoCd=2971000266-00&ServiceCd=510&Type=search", "url2": "https://s-subaru.com" }, "geometry": { "type": "Point", "coordinates": [ 135.712563300000056, 34.5218367 ] } },
{ "type": "Feature", "properties": { "内容": "特別養護老人ホーム大和園白鳳【介護老人福祉施設】奈良県香芝市尼寺５９４－２", "url": "https://www.kaigokensaku.mhlw.go.jp/29/index.php?action_kouhyou_detail_004_kani=true&JigyosyoCd=2971000043-00&ServiceCd=510&Type=search", "url2": "http://www.yamatoen.or.jp/" }, "geometry": { "type": "Point", "coordinates": [ 135.687076100000013, 34.5707495 ] } },
{ "type": "Feature", "properties": { "内容": "特別養護老人ホーム　ぬくもり香芝【介護老人福祉施設】奈良県香芝市下田西2丁目7-61", "url": "https://www.kaigokensaku.mhlw.go.jp/29/index.php?action_kouhyou_detail_004_kani=true&JigyosyoCd=2971000910-00&ServiceCd=510&Type=search", "url2": "http://www.nukumori-group.jp/" }, "geometry": { "type": "Point", "coordinates": [ 135.703258499999947, 34.5438726 ] } },
{ "type": "Feature", "properties": { "内容": "社会福祉法人陽幸会【介護老人福祉施設】奈良県葛城市平岡４４１番地１", "url": "https://www.kaigokensaku.mhlw.go.jp/29/index.php?action_kouhyou_detail_004_kani=true&JigyosyoCd=2974800613-00&ServiceCd=510&Type=search", "url2": "www.yo-ko-kai.or.jp" }, "geometry": { "type": "Point", "coordinates": [ 135.709495917721569, 34.480549332109931 ] } },
{ "type": "Feature", "properties": { "内容": "特別養護老人ホームウォームヴィラ新庄園【介護老人福祉施設】奈良県葛城市平岡528番地", "url": "https://www.kaigokensaku.mhlw.go.jp/29/index.php?action_kouhyou_detail_004_kani=true&JigyosyoCd=2972900019-00&ServiceCd=510&Type=search", "url2": "http://www.geocities.jp/shinjyouen/" }, "geometry": { "type": "Point", "coordinates": [ 135.705521988993837, 34.473376999856761 ] } },
{ "type": "Feature", "properties": { "内容": "特別養護老人ホーム当麻園【介護老人福祉施設】奈良県葛城市南今市372番地", "url": "https://www.kaigokensaku.mhlw.go.jp/29/index.php?action_kouhyou_detail_004_kani=true&JigyosyoCd=2973000017-00&ServiceCd=510&Type=search", "url2": "http://www.taimaen.com/" }, "geometry": { "type": "Point", "coordinates": [ 135.7119166, 34.5011227 ] } },
{ "type": "Feature", "properties": { "内容": "特別養護老人ホームやまびこ【介護老人福祉施設】奈良県宇陀市菟田野平井135番地", "url": "https://www.kaigokensaku.mhlw.go.jp/29/index.php?action_kouhyou_detail_004_kani=true&JigyosyoCd=2972200055-00&ServiceCd=510&Type=search", "url2": "http://yamabiko.sub.jp/" }, "geometry": { "type": "Point", "coordinates": [ 135.97850440000002, 34.4895093 ] } },
{ "type": "Feature", "properties": { "内容": "大宇陀特別養護老人ホームラガール【介護老人福祉施設】奈良県宇陀市大宇陀拾生２５０－６", "url": "https://www.kaigokensaku.mhlw.go.jp/29/index.php?action_kouhyou_detail_004_kani=true&JigyosyoCd=2972100024-00&ServiceCd=510&Type=search", "url2": "https://oouda.koudoukai.or.jp/" }, "geometry": { "type": "Point", "coordinates": [ 135.9267549, 34.4716571 ] } },
{ "type": "Feature", "properties": { "内容": "特別養護老人ホーム　室生園【介護老人福祉施設】奈良県宇陀市室生下田口１２１６番地", "url": "https://www.kaigokensaku.mhlw.go.jp/29/index.php?action_kouhyou_detail_004_kani=true&JigyosyoCd=2972400028-00&ServiceCd=510&Type=search", "url2": "http://www.murouen.jp/" }, "geometry": { "type": "Point", "coordinates": [ 136.051965314155609, 34.524985677557595 ] } },
{ "type": "Feature", "properties": { "内容": "特別養護老人ホーム悠楽園【介護老人福祉施設】奈良県宇陀市榛原檜牧５８４番地", "url": "https://www.kaigokensaku.mhlw.go.jp/29/index.php?action_kouhyou_detail_004_kani=true&JigyosyoCd=2972300020-00&ServiceCd=510&Type=search", "url2": "www.yuurakuen.jp" }, "geometry": { "type": "Point", "coordinates": [ 135.964367347746247, 34.516158669734608 ] } },
{ "type": "Feature", "properties": { "内容": "ゆぁほうむ榛原【介護老人福祉施設】奈良県宇陀市榛原長峯200番地の1", "url": "https://www.kaigokensaku.mhlw.go.jp/29/index.php?action_kouhyou_detail_004_kani=true&JigyosyoCd=2972300012-00&ServiceCd=510&Type=search", "url2": "http://www.e-yourhome.com" }, "geometry": { "type": "Point", "coordinates": [ 135.964204399999971, 34.5414637 ] } },
{ "type": "Feature", "properties": { "内容": "つつじの丘【介護老人福祉施設】奈良県山辺郡山添村大字大西1181番地", "url": "https://www.kaigokensaku.mhlw.go.jp/29/index.php?action_kouhyou_detail_004_kani=true&JigyosyoCd=2971300047-00&ServiceCd=510&Type=search", "url2": "https://www.yamatokai-tsutsuji.com/" }, "geometry": { "type": "Point", "coordinates": [ 136.0396342, 34.681911 ] } },
{ "type": "Feature", "properties": { "内容": "特別養護老人ホームせせらぎ苑【介護老人福祉施設】山辺郡山添村広瀬８２３", "url": "https://www.kaigokensaku.mhlw.go.jp/29/index.php?action_kouhyou_detail_004_kani=true&JigyosyoCd=2971300013-00&ServiceCd=510&Type=search", "url2": null }, "geometry": { "type": "Point", "coordinates": [ 136.081627300000036, 34.6817505 ] } },
{ "type": "Feature", "properties": { "内容": "特別養護老人ホーム　グレースの里【介護老人福祉施設】奈良県生駒郡平群町越木塚336-1", "url": "https://www.kaigokensaku.mhlw.go.jp/29/index.php?action_kouhyou_detail_004_kani=true&JigyosyoCd=2971400169-00&ServiceCd=510&Type=search", "url2": "http://shinaikai.net/" }, "geometry": { "type": "Point", "coordinates": [ 135.685953, 34.6224022 ] } },
{ "type": "Feature", "properties": { "内容": "特別養護老人ホーム第二グレースの里【介護老人福祉施設】奈良県生駒郡平群町椿井244特別養護老人ホーム第二グレースの里", "url": "https://www.kaigokensaku.mhlw.go.jp/29/index.php?action_kouhyou_detail_004_kani=true&JigyosyoCd=2971400433-00&ServiceCd=510&Type=search", "url2": "http://shinaikai.net" }, "geometry": { "type": "Point", "coordinates": [ 135.707831259385671, 34.616700250919237 ] } },
{ "type": "Feature", "properties": { "内容": "特別養護老人ホーム　ビオスの丘三郷【介護老人福祉施設】奈良県生駒郡三郷町信貴南畑１－７－２６特別養護老人ホーム　ビオスの丘三郷", "url": "https://www.kaigokensaku.mhlw.go.jp/29/index.php?action_kouhyou_detail_004_kani=true&JigyosyoCd=2971500604-00&ServiceCd=510&Type=search", "url2": "http://www.jinpu-kai.jp" }, "geometry": { "type": "Point", "coordinates": [ 135.656316299999958, 34.6047843 ] } },
{ "type": "Feature", "properties": { "内容": "特別養護老人ホーム三室園【介護老人福祉施設】奈良県生駒郡三郷町信貴南畑１丁目１番１号", "url": "https://www.kaigokensaku.mhlw.go.jp/29/index.php?action_kouhyou_detail_004_kani=true&JigyosyoCd=2971500042-00&ServiceCd=510&Type=search", "url2": "https://mimuroen.sakura.ne.jp" }, "geometry": { "type": "Point", "coordinates": [ 135.666882500000042, 34.6039323 ] } },
{ "type": "Feature", "properties": { "内容": "特別養護老人ホーム　一樹【介護老人福祉施設】奈良県生駒郡斑鳩町目安3-4-36", "url": "https://www.kaigokensaku.mhlw.go.jp/29/index.php?action_kouhyou_detail_004_kani=true&JigyosyoCd=2971600537-00&ServiceCd=510&Type=search", "url2": "http://www.ichiju.or.jp/" }, "geometry": { "type": "Point", "coordinates": [ 135.738514622090179, 34.595010627310089 ] } },
{ "type": "Feature", "properties": { "内容": "特別養護老人ホーム第二慈母園【介護老人福祉施設】奈良県生駒郡斑鳩町法隆寺2091-1", "url": "https://www.kaigokensaku.mhlw.go.jp/29/index.php?action_kouhyou_detail_004_kani=true&JigyosyoCd=2971600057-00&ServiceCd=510&Type=search", "url2": "http://www.shutokukai.or.jp" }, "geometry": { "type": "Point", "coordinates": [ 135.72975729999996, 34.6140648 ] } },
{ "type": "Feature", "properties": { "内容": "特別養護老人ホーム　もちの木【介護老人福祉施設】218番1", "url": "https://www.kaigokensaku.mhlw.go.jp/29/index.php?action_kouhyou_detail_004_kani=true&JigyosyoCd=2971700246-00&ServiceCd=510&Type=search", "url2": "info@mochinoki-nara.com" }, "geometry": { "type": "Point", "coordinates": [ -87.72709, 41.116513 ] } },
{ "type": "Feature", "properties": { "内容": "特別養護老人ホームゆいの里あすか【介護老人福祉施設】奈良県磯城郡川西町下永543番1", "url": "https://www.kaigokensaku.mhlw.go.jp/29/index.php?action_kouhyou_detail_004_kani=true&JigyosyoCd=2971800129-00&ServiceCd=510&Type=search", "url2": "http://yuinosato-asuka.jp" }, "geometry": { "type": "Point", "coordinates": [ 135.777373503106361, 34.590348902227603 ] } },
{ "type": "Feature", "properties": { "内容": "特別養護老人ホーム田原本園【介護老人福祉施設】奈良県磯城郡田原本町大字味間５２３－１", "url": "https://www.kaigokensaku.mhlw.go.jp/29/index.php?action_kouhyou_detail_004_kani=true&JigyosyoCd=2972000067-00&ServiceCd=510&Type=search", "url2": "https://tawaramotoen.jp" }, "geometry": { "type": "Point", "coordinates": [ 135.816692399999965, 34.5354676 ] } },
{ "type": "Feature", "properties": { "内容": "特別養護老人ホームしきの郷【介護老人福祉施設】奈良県磯城郡田原本町西竹田２７番地の１", "url": "https://www.kaigokensaku.mhlw.go.jp/29/index.php?action_kouhyou_detail_004_kani=true&JigyosyoCd=2972000612-00&ServiceCd=510&Type=search", "url2": "http://sikinosato.org/" }, "geometry": { "type": "Point", "coordinates": [ 135.772256859663486, 34.55593642592823 ] } },
{ "type": "Feature", "properties": { "内容": "特別養護老人ホームぬくもり磯城【介護老人福祉施設】奈良県磯城郡田原本町宮古741-1", "url": "https://www.kaigokensaku.mhlw.go.jp/29/index.php?action_kouhyou_detail_004_kani=true&JigyosyoCd=2972000893-00&ServiceCd=510&Type=search", "url2": "https://nukumori-group.jp/" }, "geometry": { "type": "Point", "coordinates": [ 135.7801962, 34.5690127 ] } },
{ "type": "Feature", "properties": { "内容": "特別養護老人ホームたかとり【介護老人福祉施設】奈良県高市郡高取町大字兵庫196番地", "url": "https://www.kaigokensaku.mhlw.go.jp/29/index.php?action_kouhyou_detail_004_kani=true&JigyosyoCd=2972700187-00&ServiceCd=510&Type=search", "url2": "http://www.heisei-fukushi.or.jp/index.html" }, "geometry": { "type": "Point", "coordinates": [ 135.77611435466153, 34.44713108142772 ] } },
{ "type": "Feature", "properties": { "内容": "特別養護老人ホーム光明園【介護老人福祉施設】奈良県高市郡高取町清水谷150-5", "url": "https://www.kaigokensaku.mhlw.go.jp/29/index.php?action_kouhyou_detail_004_kani=true&JigyosyoCd=2972700021-00&ServiceCd=510&Type=search", "url2": "http://www.shutokukai.or.jp/koumyouen/index.html" }, "geometry": { "type": "Point", "coordinates": [ 135.795227599999947, 34.4418754 ] } },
{ "type": "Feature", "properties": { "内容": "特別養護老人ホームあまがし苑【介護老人福祉施設】奈良県高市郡明日香村大字栗原４２１番地２", "url": "https://www.kaigokensaku.mhlw.go.jp/29/index.php?action_kouhyou_detail_004_kani=true&JigyosyoCd=2972800011-00&ServiceCd=510&Type=search", "url2": "http://www.amagashien.com" }, "geometry": { "type": "Point", "coordinates": [ 135.806265100000019, 34.455988 ] } },
{ "type": "Feature", "properties": { "内容": "特別養護老人ホームあすかの里【介護老人福祉施設】奈良県高市郡明日香村大字越280番地", "url": "https://www.kaigokensaku.mhlw.go.jp/29/index.php?action_kouhyou_detail_004_kani=true&JigyosyoCd=2972800045-00&ServiceCd=510&Type=search", "url2": "http://web1.kcn.jp/asukarakuen/" }, "geometry": { "type": "Point", "coordinates": [ 135.795154700000012, 34.465667 ] } },
{ "type": "Feature", "properties": { "内容": "特別養護老人ホーム郁愛苑【介護老人福祉施設】奈良県北葛城郡上牧町大字上牧４２４４番地", "url": "https://www.kaigokensaku.mhlw.go.jp/29/index.php?action_kouhyou_detail_004_kani=true&JigyosyoCd=2973100064-00&ServiceCd=510&Type=search", "url2": "http://wwwikujikai.or.jp" }, "geometry": { "type": "Point", "coordinates": [ 135.710079800000017, 34.558421 ] } },
{ "type": "Feature", "properties": { "内容": "特別養護老人ホーム　郁楽苑【介護老人福祉施設】奈良県北葛城郡上牧町大字上牧4244番地", "url": "https://www.kaigokensaku.mhlw.go.jp/29/index.php?action_kouhyou_detail_004_kani=true&JigyosyoCd=2973100056-00&ServiceCd=510&Type=search", "url2": "http://www.ikujikai.or.jp/" }, "geometry": { "type": "Point", "coordinates": [ 135.710277133560112, 34.557997915717806 ] } },
{ "type": "Feature", "properties": { "内容": "特別養護老人ホーム郁慈苑【介護老人福祉施設】北葛城郡上牧町大字上牧4244番地", "url": "https://www.kaigokensaku.mhlw.go.jp/29/index.php?action_kouhyou_detail_004_kani=true&JigyosyoCd=2973100049-00&ServiceCd=510&Type=search", "url2": "http://www.ikujikai.or.jp/" }, "geometry": { "type": "Point", "coordinates": [ 135.710126929855278, 34.558567820192479 ] } },
{ "type": "Feature", "properties": { "内容": "特別養護老人ホーム郁徳苑【介護老人福祉施設】奈良県北葛城郡上牧町上牧４２４４", "url": "https://www.kaigokensaku.mhlw.go.jp/29/index.php?action_kouhyou_detail_004_kani=true&JigyosyoCd=2973100031-00&ServiceCd=510&Type=search", "url2": "http://www.ikujikai.or.jp/" }, "geometry": { "type": "Point", "coordinates": [ 135.710079800000017, 34.558421 ] } },
{ "type": "Feature", "properties": { "内容": "特別養護老人ホームてんとう虫【介護老人福祉施設】奈良県北葛城郡王寺町畠田8丁目1507番地", "url": "https://www.kaigokensaku.mhlw.go.jp/29/index.php?action_kouhyou_detail_004_kani=true&JigyosyoCd=2973200476-00&ServiceCd=510&Type=search", "url2": "https://hakujukai.or.jp/tokuyo/toku00.html" }, "geometry": { "type": "Point", "coordinates": [ 135.701391300000068, 34.5757742 ] } },
{ "type": "Feature", "properties": { "内容": "特別養護老人ホーム　大和園【介護老人福祉施設】奈良県北葛城郡広陵町大字三吉１６９番地", "url": "https://www.kaigokensaku.mhlw.go.jp/29/index.php?action_kouhyou_detail_004_kani=true&JigyosyoCd=2973300045-00&ServiceCd=510&Type=search", "url2": "http://www.yamatoen.or.jp" }, "geometry": { "type": "Point", "coordinates": [ 135.745607299999961, 34.5574187 ] } },
{ "type": "Feature", "properties": { "内容": "特別養護老人ホーム　おきなの杜【介護老人福祉施設】奈良県北葛城郡広陵町南郷84番地1", "url": "https://www.kaigokensaku.mhlw.go.jp/29/index.php?action_kouhyou_detail_004_kani=true&JigyosyoCd=2973300458-00&ServiceCd=510&Type=search", "url2": "https://carehouse.jp/" }, "geometry": { "type": "Point", "coordinates": [ 135.754459900000029, 34.5330634 ] } },
{ "type": "Feature", "properties": { "内容": "特別養護老人ホームさみた【介護老人福祉施設】奈良県北葛城郡河合町佐味田198-1", "url": "https://www.kaigokensaku.mhlw.go.jp/29/index.php?action_kouhyou_detail_004_kani=true&JigyosyoCd=2973400431-00&ServiceCd=510&Type=search", "url2": "http://www.yamabikokai-samita.com/" }, "geometry": { "type": "Point", "coordinates": [ 135.732785754135762, 34.569330866917895 ] } },
{ "type": "Feature", "properties": { "内容": "特別養護老人ホーム　大和の里【介護老人福祉施設】奈良県北葛城郡河合町池部三丁目5番5号", "url": "https://www.kaigokensaku.mhlw.go.jp/29/index.php?action_kouhyou_detail_004_kani=true&JigyosyoCd=2973400308-00&ServiceCd=510&Type=search", "url2": "http://www.yamatonosato.com/" }, "geometry": { "type": "Point", "coordinates": [ 135.735921599999983, 34.5776718 ] } },
{ "type": "Feature", "properties": { "内容": "吉野三町村老人福祉施設【介護老人福祉施設】奈良県吉野郡吉野町楢井605-1", "url": "https://www.kaigokensaku.mhlw.go.jp/29/index.php?action_kouhyou_detail_004_kani=true&JigyosyoCd=2973500024-00&ServiceCd=510&Type=search", "url2": "http://www.yoshino-kouiki.jp/custom4.html" }, "geometry": { "type": "Point", "coordinates": [ 135.888135899999952, 34.3837253 ] } },
{ "type": "Feature", "properties": { "内容": "特別養護老人ホーム柳光【介護老人福祉施設】奈良県吉野郡吉野町大字柳１３９５－１", "url": "https://www.kaigokensaku.mhlw.go.jp/29/index.php?action_kouhyou_detail_004_kani=true&JigyosyoCd=2973500164-00&ServiceCd=510&Type=search", "url2": "https://www.taiyounomura.org/" }, "geometry": { "type": "Point", "coordinates": [ 135.918507546032743, 34.41770324433044 ] } },
{ "type": "Feature", "properties": { "内容": "社会福祉法人綜合施設美吉野園　特養寮【介護老人福祉施設】奈良県吉野郡大淀町下渕629番地", "url": "https://www.kaigokensaku.mhlw.go.jp/29/index.php?action_kouhyou_detail_004_kani=true&JigyosyoCd=2973600030-00&ServiceCd=510&Type=search", "url2": "http://www.miyoshinoen.jp/" }, "geometry": { "type": "Point", "coordinates": [ 135.7805998, 34.3888172 ] } },
{ "type": "Feature", "properties": { "内容": "北野しもいち彩の里【介護老人福祉施設】奈良県吉野郡下市町阿知賀１１２２番１", "url": "https://www.kaigokensaku.mhlw.go.jp/29/index.php?action_kouhyou_detail_004_kani=true&JigyosyoCd=2973700160-00&ServiceCd=510&Type=search", "url2": "http://www.irodorinosato.com/" }, "geometry": { "type": "Point", "coordinates": [ 135.7949711, 34.3800265 ] } },
{ "type": "Feature", "properties": { "内容": "十津川村特別養護老人ホーム高森の郷【介護老人福祉施設】奈良県吉野郡十津川村大字猿飼308-2", "url": "https://www.kaigokensaku.mhlw.go.jp/29/index.php?action_kouhyou_detail_004_kani=true&JigyosyoCd=2974300127-00&ServiceCd=510&Type=search", "url2": "http://www.maywakai.info" }, "geometry": { "type": "Point", "coordinates": [ 135.764828164279209, 33.934116630479565 ] } },
{ "type": "Feature", "properties": { "内容": "特別養護老人ホーム　オアシス東吉野【介護老人福祉施設】奈良県吉野郡東吉野村大字小394番1の2", "url": "https://www.kaigokensaku.mhlw.go.jp/29/index.php?action_kouhyou_detail_004_kani=true&JigyosyoCd=2974700136-00&ServiceCd=510&Type=search", "url2": "http://www.yasuraginosato2011.or.jp" }, "geometry": { "type": "Point", "coordinates": [ 135.974098300000037, 34.3918062 ] } }
]
}
