{
"type": "FeatureCollection",
"name": "geo_29_小規模多機能型居宅介護",
"crs": { "type": "name", "properties": { "name": "urn:ogc:def:crs:OGC:1.3:CRS84" } },
"features": [
{ "type": "Feature", "properties": { "内容": "小規模多機能ホームアンジェロ三碓の里【小規模多機能型居宅介護】学園大和町三丁目４番", "url": "https://www.kaigokensaku.mhlw.go.jp/29/index.php?action_kouhyou_detail_004_kani=true&JigyosyoCd=2990100204-00&ServiceCd=730&Type=search", "url2": "https://asukakai.or.jp" }, "geometry": { "type": "Point", "coordinates": [ 135.746854756869539, 34.687400367858224 ] } },
{ "type": "Feature", "properties": { "内容": "フレンド倶楽部学園前【小規模多機能型居宅介護】奈良県奈良市西登美ヶ丘７丁目１３－３１", "url": "https://www.kaigokensaku.mhlw.go.jp/29/index.php?action_kouhyou_detail_004_kani=true&JigyosyoCd=2990100113-00&ServiceCd=730&Type=search", "url2": "http://www.wellconsul.co.jp" }, "geometry": { "type": "Point", "coordinates": [ 135.738444399999906, 34.7084777 ] } },
{ "type": "Feature", "properties": { "内容": "かさね奈良駅前【小規模多機能型居宅介護】奈良県奈良市三条本町2-20マツダオフィスビル２F", "url": "https://www.kaigokensaku.mhlw.go.jp/29/index.php?action_kouhyou_detail_004_kani=true&JigyosyoCd=2990100089-00&ServiceCd=730&Type=search", "url2": "http://www.kasane.co.jp" }, "geometry": { "type": "Point", "coordinates": [ 135.819705800000037, 34.679868356985402 ] } },
{ "type": "Feature", "properties": { "内容": "小規模多機能型居宅介護かさね奈良六条【小規模多機能型居宅介護】奈良県奈良市六条西1-12-2", "url": "https://www.kaigokensaku.mhlw.go.jp/29/index.php?action_kouhyou_detail_004_kani=true&JigyosyoCd=2990100717-00&ServiceCd=730&Type=search", "url2": "http://www.kasane.co.jp/" }, "geometry": { "type": "Point", "coordinates": [ 135.770870685458362, 34.673027083811654 ] } },
{ "type": "Feature", "properties": { "内容": "医療法人仁慈会いくしゅう庵【小規模多機能型居宅介護】奈良市紀寺町400-8", "url": "https://www.kaigokensaku.mhlw.go.jp/29/index.php?action_kouhyou_detail_004_kani=true&JigyosyoCd=2990100147-00&ServiceCd=730&Type=search", "url2": "http://ikusyuan.sblo.jp/" }, "geometry": { "type": "Point", "coordinates": [ 135.833053096838739, 34.670079816872814 ] } },
{ "type": "Feature", "properties": { "内容": "阪原コスモスの里【小規模多機能型居宅介護】奈良県奈良市阪原町803-1", "url": "https://www.kaigokensaku.mhlw.go.jp/29/index.php?action_kouhyou_detail_004_kani=true&JigyosyoCd=2990100345-00&ServiceCd=730&Type=search", "url2": "http://sakaharacosmos.sblo.jp/" }, "geometry": { "type": "Point", "coordinates": [ 135.939791431352205, 34.71896719814432 ] } },
{ "type": "Feature", "properties": { "内容": "ミック登美ヶ丘小規模多機能型サービス「はな」【小規模多機能型居宅介護】奈良市押熊町2261", "url": "https://www.kaigokensaku.mhlw.go.jp/29/index.php?action_kouhyou_detail_004_kani=true&JigyosyoCd=2990100097-00&ServiceCd=730&Type=search", "url2": "http://www.mic-tomigaoka.com/" }, "geometry": { "type": "Point", "coordinates": [ 135.761822599999959, 34.716641 ] } },
{ "type": "Feature", "properties": { "内容": "あすならホーム今小路　多機能型ケアホーム【小規模多機能型居宅介護】奈良県奈良市今小路29-1", "url": "https://www.kaigokensaku.mhlw.go.jp/29/index.php?action_kouhyou_detail_004_kani=true&JigyosyoCd=2990100303-00&ServiceCd=730&Type=search", "url2": "http://asunaraen.com" }, "geometry": { "type": "Point", "coordinates": [ 135.834410358335845, 34.691174148340039 ] } },
{ "type": "Feature", "properties": { "内容": "あすならホーム西の京　多機能型ケアホーム【小規模多機能型居宅介護】奈良県奈良市六条2丁目20番67号", "url": "https://www.kaigokensaku.mhlw.go.jp/29/index.php?action_kouhyou_detail_004_kani=true&JigyosyoCd=2990100121-00&ServiceCd=730&Type=search", "url2": "http://www.asunaraen.or.jp" }, "geometry": { "type": "Point", "coordinates": [ 135.775798167902479, 34.670875031551162 ] } },
{ "type": "Feature", "properties": { "内容": "小規模多機能ホーム　あかりの家【小規模多機能型居宅介護】奈良県奈良市西大寺赤田町１丁目２－１５", "url": "https://www.kaigokensaku.mhlw.go.jp/29/index.php?action_kouhyou_detail_004_kani=true&JigyosyoCd=2990100139-00&ServiceCd=730&Type=search", "url2": "http://akishino-akane.com/" }, "geometry": { "type": "Point", "coordinates": [ 135.7752246, 34.69811 ] } },
{ "type": "Feature", "properties": { "内容": "かさね押熊【小規模多機能型居宅介護】奈良県奈良市押熊町505-1", "url": "https://www.kaigokensaku.mhlw.go.jp/29/index.php?action_kouhyou_detail_004_kani=true&JigyosyoCd=2990190239-00&ServiceCd=730&Type=search", "url2": "https://kasane.co.jp/" }, "geometry": { "type": "Point", "coordinates": [ 135.7712142, 34.7201255 ] } },
{ "type": "Feature", "properties": { "内容": "あすならホーム高畑　多機能型ケアホーム【小規模多機能型居宅介護】奈良市高畑町469-1", "url": "https://www.kaigokensaku.mhlw.go.jp/29/index.php?action_kouhyou_detail_004_kani=true&JigyosyoCd=2990190171-00&ServiceCd=730&Type=search", "url2": "http://0742231165.blog.fc2.com/" }, "geometry": { "type": "Point", "coordinates": [ 135.8460387, 34.675008 ] } },
{ "type": "Feature", "properties": { "内容": "あすならハイツ恋の窪　多機能型ケアホーム【小規模多機能型居宅介護】奈良県奈良市恋の窪1丁目2番2号", "url": "https://www.kaigokensaku.mhlw.go.jp/29/index.php?action_kouhyou_detail_004_kani=true&JigyosyoCd=2990190296-00&ServiceCd=730&Type=search", "url2": "https://asunaraen.or.jp" }, "geometry": { "type": "Point", "coordinates": [ 135.8080885, 34.676682 ] } },
{ "type": "Feature", "properties": { "内容": "小規模多機能型居宅介護　ならの郷【小規模多機能型居宅介護】奈良県奈良市菩提山町２４１番地１", "url": "https://www.kaigokensaku.mhlw.go.jp/29/index.php?action_kouhyou_detail_004_kani=true&JigyosyoCd=2990100154-00&ServiceCd=730&Type=search", "url2": "https://www.naraen.or.jp" }, "geometry": { "type": "Point", "coordinates": [ 135.887607099999968, 34.6567753 ] } },
{ "type": "Feature", "properties": { "内容": "あすならホーム高田　多機能型ケアホーム【小規模多機能型居宅介護】奈良県高田市礒野南町5-15", "url": "https://www.kaigokensaku.mhlw.go.jp/29/index.php?action_kouhyou_detail_004_kani=true&JigyosyoCd=2990200095-00&ServiceCd=730&Type=search", "url2": "https://asunaraen.or.jp/" }, "geometry": { "type": "Point", "coordinates": [ 135.7405037, 34.5061646 ] } },
{ "type": "Feature", "properties": { "内容": "蕾楽路【小規模多機能型居宅介護】大和高田市大字大谷349-1", "url": "https://www.kaigokensaku.mhlw.go.jp/29/index.php?action_kouhyou_detail_004_kani=true&JigyosyoCd=2990200012-00&ServiceCd=730&Type=search", "url2": null }, "geometry": { "type": "Point", "coordinates": [ 135.728403399999934, 34.5291471 ] } },
{ "type": "Feature", "properties": { "内容": "小規模多機能　フレンド倶楽部郡山【小規模多機能型居宅介護】大和郡山市外川町７２－１", "url": "https://www.kaigokensaku.mhlw.go.jp/29/index.php?action_kouhyou_detail_004_kani=true&JigyosyoCd=2990300044-00&ServiceCd=730&Type=search", "url2": "http://www.wellconsul.co.jp" }, "geometry": { "type": "Point", "coordinates": [ 135.7679121, 34.6454431 ] } },
{ "type": "Feature", "properties": { "内容": "小規模多機能ウェルライフあかり【小規模多機能型居宅介護】奈良県大和郡山市田中町759", "url": "https://www.kaigokensaku.mhlw.go.jp/29/index.php?action_kouhyou_detail_004_kani=true&JigyosyoCd=2990300234-00&ServiceCd=730&Type=search", "url2": null }, "geometry": { "type": "Point", "coordinates": [ 135.7698709, 34.6411708 ] } },
{ "type": "Feature", "properties": { "内容": "小規模多機能型居宅介護ふれあい郡山【小規模多機能型居宅介護】奈良県大和郡山市額田部北町822番１", "url": "https://www.kaigokensaku.mhlw.go.jp/29/index.php?action_kouhyou_detail_004_kani=true&JigyosyoCd=2990300242-00&ServiceCd=730&Type=search", "url2": "http://www.fureai-net.com/" }, "geometry": { "type": "Point", "coordinates": [ 135.7742527, 34.6016137 ] } },
{ "type": "Feature", "properties": { "内容": "あすならホーム郡山　多機能型ケアホーム【小規模多機能型居宅介護】大和郡山市新木町365-1", "url": "https://www.kaigokensaku.mhlw.go.jp/29/index.php?action_kouhyou_detail_004_kani=true&JigyosyoCd=2990300077-00&ServiceCd=730&Type=search", "url2": "http://www.asunaraen.com" }, "geometry": { "type": "Point", "coordinates": [ 135.7735117, 34.6420519 ] } },
{ "type": "Feature", "properties": { "内容": "フレンド倶楽部天理【小規模多機能型居宅介護】天理市前栽町224-1", "url": "https://www.kaigokensaku.mhlw.go.jp/29/index.php?action_kouhyou_detail_004_kani=true&JigyosyoCd=2990400042-00&ServiceCd=730&Type=search", "url2": "http://www.wellconsul.co.jp" }, "geometry": { "type": "Point", "coordinates": [ 135.817327500000033, 34.6014015 ] } },
{ "type": "Feature", "properties": { "内容": "あすならホーム二階堂　多機能型ケアホーム【小規模多機能型居宅介護】天理市荒蒔町61-2", "url": "https://www.kaigokensaku.mhlw.go.jp/29/index.php?action_kouhyou_detail_004_kani=true&JigyosyoCd=2990400018-00&ServiceCd=730&Type=search", "url2": "http://www.asunaraen.com" }, "geometry": { "type": "Point", "coordinates": [ 135.806946397375441, 34.598905328883049 ] } },
{ "type": "Feature", "properties": { "内容": "あすならホーム天理　多機能型ケアホーム【小規模多機能型居宅介護】天理市川原城町２０７－１", "url": "https://www.kaigokensaku.mhlw.go.jp/29/index.php?action_kouhyou_detail_004_kani=true&JigyosyoCd=2990400059-00&ServiceCd=730&Type=search", "url2": "http://www.asunaraen.com" }, "geometry": { "type": "Point", "coordinates": [ 135.834009739286756, 34.597648241724954 ] } },
{ "type": "Feature", "properties": { "内容": "あすならホーム　山の辺【小規模多機能型居宅介護】奈良県天理市別所町246", "url": "https://www.kaigokensaku.mhlw.go.jp/29/index.php?action_kouhyou_detail_004_kani=true&JigyosyoCd=2990400158-00&ServiceCd=730&Type=search", "url2": "https://asunaraen.or.jp/facility/shisetsu20.html" }, "geometry": { "type": "Point", "coordinates": [ 135.836279499999989, 34.6088635 ] } },
{ "type": "Feature", "properties": { "内容": "あすならホーム　柳本【小規模多機能型居宅介護】奈良県天理市柳本町１３１０－１", "url": "https://www.kaigokensaku.mhlw.go.jp/29/index.php?action_kouhyou_detail_004_kani=true&JigyosyoCd=2990400109-00&ServiceCd=730&Type=search", "url2": "http://www.asunaraen.com" }, "geometry": { "type": "Point", "coordinates": [ 135.838300898286406, 34.559330928767274 ] } },
{ "type": "Feature", "properties": { "内容": "あすならホーム檪本　多機能ケアホーム【小規模多機能型居宅介護】天理市櫟本町３０１２－１", "url": "https://www.kaigokensaku.mhlw.go.jp/29/index.php?action_kouhyou_detail_004_kani=true&JigyosyoCd=2990400083-00&ServiceCd=730&Type=search", "url2": "http://www.asunaraenn.com" }, "geometry": { "type": "Point", "coordinates": [ 135.832704384690516, 34.618572124201769 ] } },
{ "type": "Feature", "properties": { "内容": "有限会社あいネット　小規模多機能ケアセンター美心逢【小規模多機能型居宅介護】奈良県天理市東井戸堂町３７２－１", "url": "https://www.kaigokensaku.mhlw.go.jp/29/index.php?action_kouhyou_detail_004_kani=true&JigyosyoCd=2990400026-00&ServiceCd=730&Type=search", "url2": "http://www.ainetgroup.net" }, "geometry": { "type": "Point", "coordinates": [ 135.8230388, 34.5913597 ] } },
{ "type": "Feature", "properties": { "内容": "小規模多機能型事業所　エクサ【小規模多機能型居宅介護】奈良県橿原市醍醐町131-1", "url": "https://www.kaigokensaku.mhlw.go.jp/29/index.php?action_kouhyou_detail_004_kani=true&JigyosyoCd=2990500031-00&ServiceCd=730&Type=search", "url2": null }, "geometry": { "type": "Point", "coordinates": [ 135.800084357554169, 34.507552924154474 ] } },
{ "type": "Feature", "properties": { "内容": "あすならホーム畝傍　多機能型ケアホーム【小規模多機能型居宅介護】奈良県橿原市大久保町287-1", "url": "https://www.kaigokensaku.mhlw.go.jp/29/index.php?action_kouhyou_detail_004_kani=true&JigyosyoCd=2990500114-00&ServiceCd=730&Type=search", "url2": "https://asunaraen.or.jp/facility/asunarahomeunebi" }, "geometry": { "type": "Point", "coordinates": [ 135.793169380498256, 34.495546452457837 ] } },
{ "type": "Feature", "properties": { "内容": "小規模多機能型居宅介護　杜の桜【小規模多機能型居宅介護】奈良県桜井市慈恩寺1番１", "url": "https://www.kaigokensaku.mhlw.go.jp/29/index.php?action_kouhyou_detail_004_kani=true&JigyosyoCd=2990600070-00&ServiceCd=730&Type=search", "url2": "http://yamato-nara.or.jp/" }, "geometry": { "type": "Point", "coordinates": [ 135.870702700000038, 34.5205448 ] } },
{ "type": "Feature", "properties": { "内容": "小規模多機能型事業所　サラ【小規模多機能型居宅介護】奈良県桜井市大福700", "url": "https://www.kaigokensaku.mhlw.go.jp/29/index.php?action_kouhyou_detail_004_kani=true&JigyosyoCd=2990600039-00&ServiceCd=730&Type=search", "url2": null }, "geometry": { "type": "Point", "coordinates": [ 135.829702900000029, 34.5178005 ] } },
{ "type": "Feature", "properties": { "内容": "あすならホーム桜井多機能型ケアホーム【小規模多機能型居宅介護】奈良県桜井市粟殿800", "url": "https://www.kaigokensaku.mhlw.go.jp/29/index.php?action_kouhyou_detail_004_kani=true&JigyosyoCd=2990600252-00&ServiceCd=730&Type=search", "url2": "http://www.asunaraen.com" }, "geometry": { "type": "Point", "coordinates": [ 135.8535498, 34.5190612 ] } },
{ "type": "Feature", "properties": { "内容": "より愛どころ　ありがとう【小規模多機能型居宅介護】奈良県桜井市生田２３５番地", "url": "https://www.kaigokensaku.mhlw.go.jp/29/index.php?action_kouhyou_detail_004_kani=true&JigyosyoCd=2990600013-00&ServiceCd=730&Type=search", "url2": "https://care-net.biz/29/yoriai/" }, "geometry": { "type": "Point", "coordinates": [ 135.8398608, 34.4956865 ] } },
{ "type": "Feature", "properties": { "内容": "サテライト芝の里【小規模多機能型居宅介護】外山1094-4", "url": "https://www.kaigokensaku.mhlw.go.jp/29/index.php?action_kouhyou_detail_004_kani=true&JigyosyoCd=2990600146-00&ServiceCd=730&Type=search", "url2": "http:shojyukai-inc.jp/" }, "geometry": { "type": "Point", "coordinates": [ 135.864055900000039, 34.5124206 ] } },
{ "type": "Feature", "properties": { "内容": "多機能型介護ホーム芝の里【小規模多機能型居宅介護】奈良県桜井市芝１０２５-５", "url": "https://www.kaigokensaku.mhlw.go.jp/29/index.php?action_kouhyou_detail_004_kani=true&JigyosyoCd=2990600054-00&ServiceCd=730&Type=search", "url2": "http://shoujukai-inc.jp" }, "geometry": { "type": "Point", "coordinates": [ 135.835754800000018, 34.5367704 ] } },
{ "type": "Feature", "properties": { "内容": "小規模多機能　ゆうみん【小規模多機能型居宅介護】奈良県桜井市池之内１２２番地の１", "url": "https://www.kaigokensaku.mhlw.go.jp/29/index.php?action_kouhyou_detail_004_kani=true&JigyosyoCd=2990600112-00&ServiceCd=730&Type=search", "url2": "https://yuai-nara.com/" }, "geometry": { "type": "Point", "coordinates": [ 135.8333308, 34.4985528 ] } },
{ "type": "Feature", "properties": { "内容": "小規模多機能型居宅介護事業所　音和舎扇寿【小規模多機能型居宅介護】奈良県五條市今井5丁目68-1", "url": "https://www.kaigokensaku.mhlw.go.jp/29/index.php?action_kouhyou_detail_004_kani=true&JigyosyoCd=2990700094-00&ServiceCd=730&Type=search", "url2": "http://www.seiwakai-gojo.or.jp/" }, "geometry": { "type": "Point", "coordinates": [ 135.71195, 34.359406499999977 ] } },
{ "type": "Feature", "properties": { "内容": "小規模多機能型居宅介護事業所き・さらぎ【小規模多機能型居宅介護】奈良県御所市蛇穴157-1", "url": "https://www.kaigokensaku.mhlw.go.jp/29/index.php?action_kouhyou_detail_004_kani=true&JigyosyoCd=2990800035-00&ServiceCd=730&Type=search", "url2": "https://yamato-nara.or.jp/" }, "geometry": { "type": "Point", "coordinates": [ 135.738326199999989, 34.4561408 ] } },
{ "type": "Feature", "properties": { "内容": "彩・生駒【小規模多機能型居宅介護】奈良県生駒市南田原町454－1", "url": "https://www.kaigokensaku.mhlw.go.jp/29/index.php?action_kouhyou_detail_004_kani=true&JigyosyoCd=2990900173-00&ServiceCd=730&Type=search", "url2": null }, "geometry": { "type": "Point", "coordinates": [ 135.704854090991915, 34.721117668597877 ] } },
{ "type": "Feature", "properties": { "内容": "フレンド倶楽部生駒【小規模多機能型居宅介護】生駒市中菜畑2丁目1117番地", "url": "https://www.kaigokensaku.mhlw.go.jp/29/index.php?action_kouhyou_detail_004_kani=true&JigyosyoCd=2990900033-00&ServiceCd=730&Type=search", "url2": "http://www.wellconsul.co.jp" }, "geometry": { "type": "Point", "coordinates": [ 135.7058945, 34.6818051 ] } },
{ "type": "Feature", "properties": { "内容": "小規模多機能　いこいの家26【小規模多機能型居宅介護】奈良県生駒市上町1082－1", "url": "https://www.kaigokensaku.mhlw.go.jp/29/index.php?action_kouhyou_detail_004_kani=true&JigyosyoCd=2990900058-00&ServiceCd=730&Type=search", "url2": "http://www.lifecarejp.com/" }, "geometry": { "type": "Point", "coordinates": [ 135.722328715591402, 34.713097553847732 ] } },
{ "type": "Feature", "properties": { "内容": "あすならホーム東生駒【小規模多機能型居宅介護】生駒市東菜畑１丁目298メゾン東生駒１F", "url": "https://www.kaigokensaku.mhlw.go.jp/29/index.php?action_kouhyou_detail_004_kani=true&JigyosyoCd=2990900025-00&ServiceCd=730&Type=search", "url2": "https://asunaraen.or.jp/" }, "geometry": { "type": "Point", "coordinates": [ 135.7147612, 34.6862532 ] } },
{ "type": "Feature", "properties": { "内容": "小規模多機能型居宅介護ゆりの会「小明（こうみょう）」【小規模多機能型居宅介護】奈良県生駒市小明町７２３－１", "url": "https://www.kaigokensaku.mhlw.go.jp/29/index.php?action_kouhyou_detail_004_kani=true&JigyosyoCd=2990900041-00&ServiceCd=730&Type=search", "url2": "http://yurino-kai.jp/" }, "geometry": { "type": "Point", "coordinates": [ 135.704222, 34.7058474 ] } },
{ "type": "Feature", "properties": { "内容": "大和園すみれ野　小規模多機能型居宅介護【小規模多機能型居宅介護】奈良県香芝市すみれ野1丁目13-3", "url": "https://www.kaigokensaku.mhlw.go.jp/29/index.php?action_kouhyou_detail_004_kani=true&JigyosyoCd=2991000163-00&ServiceCd=730&Type=search", "url2": "http://www.yamatoen.or.jp/yamatoen/index.html" }, "geometry": { "type": "Point", "coordinates": [ 135.7138228, 34.5404167 ] } },
{ "type": "Feature", "properties": { "内容": "大宇陀小規模多機能施設ラガール【小規模多機能型居宅介護】奈良県宇陀市大宇陀拾生250-6", "url": "https://www.kaigokensaku.mhlw.go.jp/29/index.php?action_kouhyou_detail_004_kani=true&JigyosyoCd=2994900062-00&ServiceCd=730&Type=search", "url2": "https://oouda.koudoukai.or.jp/" }, "geometry": { "type": "Point", "coordinates": [ 135.9267733, 34.4716005 ] } },
{ "type": "Feature", "properties": { "内容": "多機能型介護ホームうだの里【小規模多機能型居宅介護】奈良県宇陀市榛原篠楽元篠野83-1", "url": "https://www.kaigokensaku.mhlw.go.jp/29/index.php?action_kouhyou_detail_004_kani=true&JigyosyoCd=2994900054-00&ServiceCd=730&Type=search", "url2": "https://shoujukai-inc.jp" }, "geometry": { "type": "Point", "coordinates": [ 135.939893699999971, 34.5225373 ] } },
{ "type": "Feature", "properties": { "内容": "小規模多機能ホーム彩・平群【小規模多機能型居宅介護】奈良県生駒郡平群町吉新1-3-33", "url": "https://www.kaigokensaku.mhlw.go.jp/29/index.php?action_kouhyou_detail_004_kani=true&JigyosyoCd=2991400033-00&ServiceCd=730&Type=search", "url2": null }, "geometry": { "type": "Point", "coordinates": [ 135.702348499999971, 34.6275796 ] } },
{ "type": "Feature", "properties": { "内容": "あゆみの荘【小規模多機能型居宅介護】奈良県生駒郡三郷町立野北２丁目２５－２３", "url": "https://www.kaigokensaku.mhlw.go.jp/29/index.php?action_kouhyou_detail_004_kani=true&JigyosyoCd=2991500022-00&ServiceCd=730&Type=search", "url2": "http://www.grandhill.jp" }, "geometry": { "type": "Point", "coordinates": [ 135.686164400000052, 34.5948772 ] } },
{ "type": "Feature", "properties": { "内容": "小規模多機能ホーム萌の里【小規模多機能型居宅介護】奈良県生駒郡三郷町三室２－５－２２", "url": "https://www.kaigokensaku.mhlw.go.jp/29/index.php?action_kouhyou_detail_004_kani=true&JigyosyoCd=2991500014-00&ServiceCd=730&Type=search", "url2": "http://www.3533house.com/moe.html" }, "geometry": { "type": "Point", "coordinates": [ 135.70822320000002, 34.6054098 ] } },
{ "type": "Feature", "properties": { "内容": "小規模多機能型事業所　一樹【小規模多機能型居宅介護】奈良県生駒郡斑鳩町目安３丁目４－３６", "url": "https://www.kaigokensaku.mhlw.go.jp/29/index.php?action_kouhyou_detail_004_kani=true&JigyosyoCd=2991600053-00&ServiceCd=730&Type=search", "url2": "http://www.ichiju.or.jp/" }, "geometry": { "type": "Point", "coordinates": [ 135.738493349073792, 34.595105254554745 ] } },
{ "type": "Feature", "properties": { "内容": "小規模多機能型居宅介護事業所　ぽかぽか【小規模多機能型居宅介護】奈良県磯城郡三宅町大字屏風２５０番地２１", "url": "https://www.kaigokensaku.mhlw.go.jp/29/index.php?action_kouhyou_detail_004_kani=true&JigyosyoCd=2991900016-00&ServiceCd=730&Type=search", "url2": "http://himawarinoie.org/" }, "geometry": { "type": "Point", "coordinates": [ 135.765525239286831, 34.576906191456636 ] } },
{ "type": "Feature", "properties": { "内容": "福祉センターすいせんの丘【小規模多機能型居宅介護】奈良県磯城郡田原本町大字平田272番地1", "url": "https://www.kaigokensaku.mhlw.go.jp/29/index.php?action_kouhyou_detail_004_kani=true&JigyosyoCd=2992000055-00&ServiceCd=730&Type=search", "url2": "yukarinosatoen.com" }, "geometry": { "type": "Point", "coordinates": [ 135.81260199601752, 34.556830457830614 ] } },
{ "type": "Feature", "properties": { "内容": "小規模多機能ホーム　つどい【小規模多機能型居宅介護】磯城郡田原本町保津５６－７", "url": "https://www.kaigokensaku.mhlw.go.jp/29/index.php?action_kouhyou_detail_004_kani=true&JigyosyoCd=2992000030-00&ServiceCd=730&Type=search", "url2": "yukarinosatoen.com" }, "geometry": { "type": "Point", "coordinates": [ 135.782693399999971, 34.5545365 ] } },
{ "type": "Feature", "properties": { "内容": "みつえの郷【小規模多機能型居宅介護】宇陀郡御杖村大字神末４０２９－１０１", "url": "https://www.kaigokensaku.mhlw.go.jp/29/index.php?action_kouhyou_detail_004_kani=true&JigyosyoCd=2992600011-00&ServiceCd=730&Type=search", "url2": "http://www.tenno.or.jp" }, "geometry": { "type": "Point", "coordinates": [ 136.200764099999986, 34.5126814 ] } },
{ "type": "Feature", "properties": { "内容": "河合なぐらの里【小規模多機能型居宅介護】奈良県北葛城郡河合町穴闇24-1", "url": "https://www.kaigokensaku.mhlw.go.jp/29/index.php?action_kouhyou_detail_004_kani=true&JigyosyoCd=2993400056-00&ServiceCd=730&Type=search", "url2": "http://shoujukai-inc.jp" }, "geometry": { "type": "Point", "coordinates": [ 135.739069699999959, 34.5847522 ] } },
{ "type": "Feature", "properties": { "内容": "小規模多機能型居宅介護施設　もみじの里【小規模多機能型居宅介護】奈良県吉野郡天川村洞川410番地", "url": "https://www.kaigokensaku.mhlw.go.jp/29/index.php?action_kouhyou_detail_004_kani=true&JigyosyoCd=2994000020-00&ServiceCd=730&Type=search", "url2": "https://tenkawasyakyou.jimdo.com/" }, "geometry": { "type": "Point", "coordinates": [ 135.883098093115223, 34.270116461008456 ] } },
{ "type": "Feature", "properties": { "内容": "あいの家多機能ホームサテライト【小規模多機能型居宅介護】奈良県吉野郡東吉野村木津163番地", "url": "https://www.kaigokensaku.mhlw.go.jp/29/index.php?action_kouhyou_detail_004_kani=true&JigyosyoCd=2994700041-00&ServiceCd=730&Type=search", "url2": "ma７５cr３７@kcn.jp" }, "geometry": { "type": "Point", "coordinates": [ 136.032484399999987, 34.421167 ] } },
{ "type": "Feature", "properties": { "内容": "あいの家多機能ホーム【小規模多機能型居宅介護】奈良県吉野郡東吉野村木津81－1", "url": "https://www.kaigokensaku.mhlw.go.jp/29/index.php?action_kouhyou_detail_004_kani=true&JigyosyoCd=2994700025-00&ServiceCd=730&Type=search", "url2": "ma75cr37@kcn.jp" }, "geometry": { "type": "Point", "coordinates": [ 136.038391100000013, 34.4227302 ] } }
]
}
