{
"type": "FeatureCollection",
"name": "geo_29_福祉用具貸与",
"crs": { "type": "name", "properties": { "name": "urn:ogc:def:crs:OGC:1.3:CRS84" } },
"features": [
{ "type": "Feature", "properties": { "内容": "株式会社　ユースコ【福祉用具貸与】奈良県奈良市富雄元町二丁目７－２５ＳＳＫビル７０５号室", "url": "https://www.kaigokensaku.mhlw.go.jp/29/index.php?action_kouhyou_detail_004_kani=true&JigyosyoCd=2970105801-00&ServiceCd=170&Type=search", "url2": null }, "geometry": { "type": "Point", "coordinates": [ 135.735130900000058, 34.6913544 ] } },
{ "type": "Feature", "properties": { "内容": "株式会社　ユーヒナ　奈良【福祉用具貸与】奈良県奈良市北之庄町３８番地の９", "url": "https://www.kaigokensaku.mhlw.go.jp/29/index.php?action_kouhyou_detail_004_kani=true&JigyosyoCd=2970105058-00&ServiceCd=170&Type=search", "url2": null }, "geometry": { "type": "Point", "coordinates": [ 135.82328229999996, 34.6542324 ] } },
{ "type": "Feature", "properties": { "内容": "アップル学園前ヘルパーステーション【福祉用具貸与】奈良市中登美ヶ丘四丁目３番", "url": "https://www.kaigokensaku.mhlw.go.jp/29/index.php?action_kouhyou_detail_004_kani=true&JigyosyoCd=2970102154-00&ServiceCd=170&Type=search", "url2": "http://www.apple-g.or.jp" }, "geometry": { "type": "Point", "coordinates": [ 135.7445351, 34.7216432 ] } },
{ "type": "Feature", "properties": { "内容": "ケアステーションみかん【福祉用具貸与】奈良県奈良市藺生町１８１３番地２６", "url": "https://www.kaigokensaku.mhlw.go.jp/29/index.php?action_kouhyou_detail_004_kani=true&JigyosyoCd=2970190423-00&ServiceCd=170&Type=search", "url2": null }, "geometry": { "type": "Point", "coordinates": [ 135.9399885, 34.5950284 ] } },
{ "type": "Feature", "properties": { "内容": "ニチイケアセンターほうれん【福祉用具貸与】奈良市法蓮町1088-1　ら・ほうれん　1階", "url": "https://www.kaigokensaku.mhlw.go.jp/29/index.php?action_kouhyou_detail_004_kani=true&JigyosyoCd=2970102758-00&ServiceCd=170&Type=search", "url2": "http://www.nichiigakkan.co.jp" }, "geometry": { "type": "Point", "coordinates": [ 135.8257509, 34.6900559 ] } },
{ "type": "Feature", "properties": { "内容": "みんなの介護用品専門店【福祉用具貸与】奈良県奈良市法蓮町３３４－１", "url": "https://www.kaigokensaku.mhlw.go.jp/29/index.php?action_kouhyou_detail_004_kani=true&JigyosyoCd=2970105991-00&ServiceCd=170&Type=search", "url2": "https://www.rakuten.co.jp/minna-kaigo/" }, "geometry": { "type": "Point", "coordinates": [ 135.8177926, 34.6914865 ] } },
{ "type": "Feature", "properties": { "内容": "福祉用具のかなで【福祉用具貸与】奈良県奈良市六条西３丁目１３－１５", "url": "https://www.kaigokensaku.mhlw.go.jp/29/index.php?action_kouhyou_detail_004_kani=true&JigyosyoCd=2970190639-00&ServiceCd=170&Type=search", "url2": null }, "geometry": { "type": "Point", "coordinates": [ 135.7708893, 34.6674093 ] } },
{ "type": "Feature", "properties": { "内容": "ホームケアー奈良レンタル事業所【福祉用具貸与】奈良県奈良市学園朝日町6-11-1", "url": "https://www.kaigokensaku.mhlw.go.jp/29/index.php?action_kouhyou_detail_004_kani=true&JigyosyoCd=2970190886-00&ServiceCd=170&Type=search", "url2": "https://homecare.co.jp/" }, "geometry": { "type": "Point", "coordinates": [ 135.7547084, 34.7007308 ] } },
{ "type": "Feature", "properties": { "内容": "有限会社マイムメディカルサポート【福祉用具貸与】奈良県奈良市三碓6-9-22", "url": "https://www.kaigokensaku.mhlw.go.jp/29/index.php?action_kouhyou_detail_004_kani=true&JigyosyoCd=2970104663-00&ServiceCd=170&Type=search", "url2": "http://hibari-support.jp/" }, "geometry": { "type": "Point", "coordinates": [ 135.737747399999989, 34.6824804 ] } },
{ "type": "Feature", "properties": { "内容": "いわしや森川医療器株式会社【福祉用具貸与】奈良県奈良市四条大路2丁目2番27号", "url": "https://www.kaigokensaku.mhlw.go.jp/29/index.php?action_kouhyou_detail_004_kani=true&JigyosyoCd=2970100521-00&ServiceCd=170&Type=search", "url2": "http://www.iwashiya-med.co.jp/" }, "geometry": { "type": "Point", "coordinates": [ 135.799798099999947, 34.6784239 ] } },
{ "type": "Feature", "properties": { "内容": "ナニワ商事株式会社ヘルスケア事業部奈良営業所【福祉用具貸与】奈良県奈良市佐保台西町７１番", "url": "https://www.kaigokensaku.mhlw.go.jp/29/index.php?action_kouhyou_detail_004_kani=true&JigyosyoCd=2970108201-00&ServiceCd=170&Type=search", "url2": "http://naniwa-shoji.co.jp" }, "geometry": { "type": "Point", "coordinates": [ 135.80869359999997, 34.7095795 ] } },
{ "type": "Feature", "properties": { "内容": "フランスベッド株式会社メディカル奈良営業所【福祉用具貸与】奈良県奈良市尼辻北町２－４", "url": "https://www.kaigokensaku.mhlw.go.jp/29/index.php?action_kouhyou_detail_004_kani=true&JigyosyoCd=2970100950-00&ServiceCd=170&Type=search", "url2": "http://www.francebed.co.jp/" }, "geometry": { "type": "Point", "coordinates": [ 135.786817216532882, 34.683907002700678 ] } },
{ "type": "Feature", "properties": { "内容": "福祉用具貸与事業所　楓～かえで～【福祉用具貸与】奈良市神殿町178-9", "url": "https://www.kaigokensaku.mhlw.go.jp/29/index.php?action_kouhyou_detail_004_kani=true&JigyosyoCd=2970190480-00&ServiceCd=170&Type=search", "url2": null }, "geometry": { "type": "Point", "coordinates": [ 135.8267123, 34.6620344 ] } },
{ "type": "Feature", "properties": { "内容": "ケアサポートかがやき【福祉用具貸与】法蓮町635-1一條館Ⅱ　3F", "url": "https://www.kaigokensaku.mhlw.go.jp/29/index.php?action_kouhyou_detail_004_kani=true&JigyosyoCd=2970105025-00&ServiceCd=170&Type=search", "url2": null }, "geometry": { "type": "Point", "coordinates": [ 135.8156629, 34.6918528 ] } },
{ "type": "Feature", "properties": { "内容": "パナソニックエイジフリーショップ北和【福祉用具貸与】奈良県奈良市芝辻町2丁目10番10号エクセレント201階", "url": "https://www.kaigokensaku.mhlw.go.jp/29/index.php?action_kouhyou_detail_004_kani=true&JigyosyoCd=2970106478-00&ServiceCd=170&Type=search", "url2": "http://lacias.jp" }, "geometry": { "type": "Point", "coordinates": [ 135.81241620000003, 34.686236800000017 ] } },
{ "type": "Feature", "properties": { "内容": "ウェルビー【福祉用具貸与】奈良県奈良市三条大路1-10-43フォレストスクエア3階", "url": "https://www.kaigokensaku.mhlw.go.jp/29/index.php?action_kouhyou_detail_004_kani=true&JigyosyoCd=2970190670-00&ServiceCd=170&Type=search", "url2": null }, "geometry": { "type": "Point", "coordinates": [ 135.8008094, 34.6841098 ] } },
{ "type": "Feature", "properties": { "内容": "株式会社セリオ　奈良営業所【福祉用具貸与】奈良県奈良市大宮町2丁目8-17", "url": "https://www.kaigokensaku.mhlw.go.jp/29/index.php?action_kouhyou_detail_004_kani=true&JigyosyoCd=2970190662-00&ServiceCd=170&Type=search", "url2": "https://serio888.net/" }, "geometry": { "type": "Point", "coordinates": [ 135.817201399999988, 34.6841614 ] } },
{ "type": "Feature", "properties": { "内容": "株式会社フロンティア　奈良営業所【福祉用具貸与】大宮町4-237-10Ｍ’Ｓビル", "url": "https://www.kaigokensaku.mhlw.go.jp/29/index.php?action_kouhyou_detail_004_kani=true&JigyosyoCd=2970190290-00&ServiceCd=170&Type=search", "url2": "https://www.frontier-ph.com/" }, "geometry": { "type": "Point", "coordinates": [ 135.8113933, 34.6830469 ] } },
{ "type": "Feature", "properties": { "内容": "まほろばケアセンター【福祉用具貸与】奈良県奈良市西ノ京町１８－３２階", "url": "https://www.kaigokensaku.mhlw.go.jp/29/index.php?action_kouhyou_detail_004_kani=true&JigyosyoCd=2970100299-00&ServiceCd=170&Type=search", "url2": "https://mahoroba-care.jp/" }, "geometry": { "type": "Point", "coordinates": [ 135.7936872, 34.6697044 ] } },
{ "type": "Feature", "properties": { "内容": "株式会社ヤマシタ　奈良西大寺営業所【福祉用具貸与】奈良県奈良市三条大路五丁目3番1号", "url": "https://www.kaigokensaku.mhlw.go.jp/29/index.php?action_kouhyou_detail_004_kani=true&JigyosyoCd=2970108862-00&ServiceCd=170&Type=search", "url2": "https://www.yco.co.jp/" }, "geometry": { "type": "Point", "coordinates": [ 135.788486828836085, 34.683994267685165 ] } },
{ "type": "Feature", "properties": { "内容": "株式会社愛安住　奈良営業所【福祉用具貸与】奈良県奈良市西九条町2丁目13-6", "url": "https://www.kaigokensaku.mhlw.go.jp/29/index.php?action_kouhyou_detail_004_kani=true&JigyosyoCd=2970102436-00&ServiceCd=170&Type=search", "url2": "https://www.aianju.co.jp/" }, "geometry": { "type": "Point", "coordinates": [ 135.80398409999998, 34.6562013 ] } },
{ "type": "Feature", "properties": { "内容": "福祉用具いまにし【福祉用具貸与】奈良県奈良市此瀬町３５３番地", "url": "https://www.kaigokensaku.mhlw.go.jp/29/index.php?action_kouhyou_detail_004_kani=true&JigyosyoCd=2970108029-00&ServiceCd=170&Type=search", "url2": null }, "geometry": { "type": "Point", "coordinates": [ 135.911955900000066, 34.6657043 ] } },
{ "type": "Feature", "properties": { "内容": "株式会社三笑堂　奈良中央支店【福祉用具貸与】奈良県奈良市八条町３５６番地", "url": "https://www.kaigokensaku.mhlw.go.jp/29/index.php?action_kouhyou_detail_004_kani=true&JigyosyoCd=2970103376-00&ServiceCd=170&Type=search", "url2": "http://www.sanshodoh.co.jp" }, "geometry": { "type": "Point", "coordinates": [ 135.802275900000041, 34.6703165 ] } },
{ "type": "Feature", "properties": { "内容": "介護相談センター福丸【福祉用具貸与】奈良県奈良市朱雀６丁目１－１４コンフォート朱雀Ⅱ３－A", "url": "https://www.kaigokensaku.mhlw.go.jp/29/index.php?action_kouhyou_detail_004_kani=true&JigyosyoCd=2970105793-00&ServiceCd=170&Type=search", "url2": null }, "geometry": { "type": "Point", "coordinates": [ 135.7977085, 34.7132586 ] } },
{ "type": "Feature", "properties": { "内容": "近鉄スマイルライフ奈良支店【福祉用具貸与】奈良県奈良市あやめ池北2-1-1", "url": "https://www.kaigokensaku.mhlw.go.jp/29/index.php?action_kouhyou_detail_004_kani=true&JigyosyoCd=2970106668-00&ServiceCd=170&Type=search", "url2": "https://www.k-smile.com/" }, "geometry": { "type": "Point", "coordinates": [ 135.76251179999997, 34.7002843 ] } },
{ "type": "Feature", "properties": { "内容": "合同会社Ｃｏｃｏａ【福祉用具貸与】奈良県奈良市五条３丁目２１番１３号レスポワールＩ１０２号室", "url": "https://www.kaigokensaku.mhlw.go.jp/29/index.php?action_kouhyou_detail_004_kani=true&JigyosyoCd=2970190159-00&ServiceCd=170&Type=search", "url2": null }, "geometry": { "type": "Point", "coordinates": [ 135.7730674, 34.67281450000003 ] } },
{ "type": "Feature", "properties": { "内容": "合同会社DAYS【福祉用具貸与】奈良県奈良市菅原町698番地の1", "url": "https://www.kaigokensaku.mhlw.go.jp/29/index.php?action_kouhyou_detail_004_kani=true&JigyosyoCd=2970108110-00&ServiceCd=170&Type=search", "url2": "https://days3739.com/" }, "geometry": { "type": "Point", "coordinates": [ 135.7688104939391, 34.687507109081722 ] } },
{ "type": "Feature", "properties": { "内容": "福祉用具のリリー【福祉用具貸与】奈良県奈良市西九条町2-4-5", "url": "https://www.kaigokensaku.mhlw.go.jp/29/index.php?action_kouhyou_detail_004_kani=true&JigyosyoCd=2970106742-00&ServiceCd=170&Type=search", "url2": null }, "geometry": { "type": "Point", "coordinates": [ 135.808884153056368, 34.655711310423911 ] } },
{ "type": "Feature", "properties": { "内容": "小山株式会社【福祉用具貸与】奈良市大森町47番地の3", "url": "https://www.kaigokensaku.mhlw.go.jp/29/index.php?action_kouhyou_detail_004_kani=true&JigyosyoCd=2970100380-00&ServiceCd=170&Type=search", "url2": "http://www.koyama-kk.co.jp/" }, "geometry": { "type": "Point", "coordinates": [ 135.820360954843096, 34.675481666985831 ] } },
{ "type": "Feature", "properties": { "内容": "有限会社エイジング【福祉用具貸与】奈良県奈良市押熊町1110番地の1", "url": "https://www.kaigokensaku.mhlw.go.jp/29/index.php?action_kouhyou_detail_004_kani=true&JigyosyoCd=2970101891-00&ServiceCd=170&Type=search", "url2": "http：//www.n-aging.co.jp" }, "geometry": { "type": "Point", "coordinates": [ 135.770038611990685, 34.720973564183922 ] } },
{ "type": "Feature", "properties": { "内容": "けいはんな福祉用具センター【福祉用具貸与】奈良県奈良市北市町89番地2", "url": "https://www.kaigokensaku.mhlw.go.jp/29/index.php?action_kouhyou_detail_004_kani=true&JigyosyoCd=2970107765-00&ServiceCd=170&Type=search", "url2": "https://recruit.careterrace.co.jp/" }, "geometry": { "type": "Point", "coordinates": [ 135.7702084, 34.6954963 ] } },
{ "type": "Feature", "properties": { "内容": "株式会社　ユーイング【福祉用具貸与】奈良県大和高田市昭和町2－3－703朝日プラザCITY南大和ノースウイングC棟703号", "url": "https://www.kaigokensaku.mhlw.go.jp/29/index.php?action_kouhyou_detail_004_kani=true&JigyosyoCd=2970201329-00&ServiceCd=170&Type=search", "url2": null }, "geometry": { "type": "Point", "coordinates": [ 135.7513186, 34.5133857 ] } },
{ "type": "Feature", "properties": { "内容": "有限会社　和【福祉用具貸与】大和高田市大谷　590－14", "url": "https://www.kaigokensaku.mhlw.go.jp/29/index.php?action_kouhyou_detail_004_kani=true&JigyosyoCd=2970200370-00&ServiceCd=170&Type=search", "url2": "nagomi@hera.eonet.ne.jp" }, "geometry": { "type": "Point", "coordinates": [ 135.729131199999983, 34.5247255 ] } },
{ "type": "Feature", "properties": { "内容": "福祉用具のスミレ【福祉用具貸与】奈良県大和高田市曙町2-10", "url": "https://www.kaigokensaku.mhlw.go.jp/29/index.php?action_kouhyou_detail_004_kani=true&JigyosyoCd=2970201253-00&ServiceCd=170&Type=search", "url2": null }, "geometry": { "type": "Point", "coordinates": [ 135.754884899999979, 34.5147911 ] } },
{ "type": "Feature", "properties": { "内容": "植村医療器(株)福祉事業所【福祉用具貸与】奈良県大和高田市北片塩町7-10　植村ビル", "url": "https://www.kaigokensaku.mhlw.go.jp/29/index.php?action_kouhyou_detail_004_kani=true&JigyosyoCd=2970200123-00&ServiceCd=170&Type=search", "url2": null }, "geometry": { "type": "Point", "coordinates": [ 135.743910899999946, 34.5095389 ] } },
{ "type": "Feature", "properties": { "内容": "わくわくケアサービス【福祉用具貸与】大中東町4-18", "url": "https://www.kaigokensaku.mhlw.go.jp/29/index.php?action_kouhyou_detail_004_kani=true&JigyosyoCd=2971001611-00&ServiceCd=170&Type=search", "url2": null }, "geometry": { "type": "Point", "coordinates": [ 135.7399225, 34.5145939 ] } },
{ "type": "Feature", "properties": { "内容": "ライフケアサポート平井【福祉用具貸与】奈良県大和高田市今里町４－９", "url": "https://www.kaigokensaku.mhlw.go.jp/29/index.php?action_kouhyou_detail_004_kani=true&JigyosyoCd=2970200545-00&ServiceCd=170&Type=search", "url2": null }, "geometry": { "type": "Point", "coordinates": [ 135.751213, 34.50918080000001 ] } },
{ "type": "Feature", "properties": { "内容": "株式会社大床義肢【福祉用具貸与】奈良県大和郡山市小林町西１丁目４－７", "url": "https://www.kaigokensaku.mhlw.go.jp/29/index.php?action_kouhyou_detail_004_kani=true&JigyosyoCd=2970301095-00&ServiceCd=170&Type=search", "url2": null }, "geometry": { "type": "Point", "coordinates": [ 135.767293399999971, 34.6213954 ] } },
{ "type": "Feature", "properties": { "内容": "福祉用具　北村住設【福祉用具貸与】柳町76-5", "url": "https://www.kaigokensaku.mhlw.go.jp/29/index.php?action_kouhyou_detail_004_kani=true&JigyosyoCd=2970301368-00&ServiceCd=170&Type=search", "url2": "http://www.kitamura-jusetsu.com/" }, "geometry": { "type": "Point", "coordinates": [ 135.7871606, 34.6440188 ] } },
{ "type": "Feature", "properties": { "内容": "株式会社森のくまさん【福祉用具貸与】奈良県大和郡山市筒井町376－17", "url": "https://www.kaigokensaku.mhlw.go.jp/29/index.php?action_kouhyou_detail_004_kani=true&JigyosyoCd=2970301525-00&ServiceCd=170&Type=search", "url2": null }, "geometry": { "type": "Point", "coordinates": [ 135.7756898, 34.6242344 ] } },
{ "type": "Feature", "properties": { "内容": "幸福商事株式会社　奈良ハピネス【福祉用具貸与】奈良県大和郡山市城南町256-25", "url": "https://www.kaigokensaku.mhlw.go.jp/29/index.php?action_kouhyou_detail_004_kani=true&JigyosyoCd=2970300097-00&ServiceCd=170&Type=search", "url2": "http://www.narahappiness.co.jp" }, "geometry": { "type": "Point", "coordinates": [ 135.776092799999986, 34.6465131 ] } },
{ "type": "Feature", "properties": { "内容": "株式会社　山和タンス店【福祉用具貸与】奈良県大和郡山市堺町３３", "url": "https://www.kaigokensaku.mhlw.go.jp/29/index.php?action_kouhyou_detail_004_kani=true&JigyosyoCd=2970300543-00&ServiceCd=170&Type=search", "url2": null }, "geometry": { "type": "Point", "coordinates": [ 135.783896899999945, 34.6486655 ] } },
{ "type": "Feature", "properties": { "内容": "アミックケア【福祉用具貸与】奈良県大和郡山番匠田中町60-1", "url": "https://www.kaigokensaku.mhlw.go.jp/29/index.php?action_kouhyou_detail_004_kani=true&JigyosyoCd=2970301848-00&ServiceCd=170&Type=search", "url2": "http://amic-care.jp/" }, "geometry": { "type": "Point", "coordinates": [ 135.807640600000013, 34.6320462 ] } },
{ "type": "Feature", "properties": { "内容": "介護レンタルそれいゆ【福祉用具貸与】奈良県大和郡山市高田町2-1-103", "url": "https://www.kaigokensaku.mhlw.go.jp/29/index.php?action_kouhyou_detail_004_kani=true&JigyosyoCd=2970301210-00&ServiceCd=170&Type=search", "url2": null }, "geometry": { "type": "Point", "coordinates": [ 135.789522758548543, 34.647615556017001 ] } },
{ "type": "Feature", "properties": { "内容": "プラスケア【福祉用具貸与】奈良県大和郡山市小林町558番地7", "url": "https://www.kaigokensaku.mhlw.go.jp/29/index.php?action_kouhyou_detail_004_kani=true&JigyosyoCd=2970301624-00&ServiceCd=170&Type=search", "url2": null }, "geometry": { "type": "Point", "coordinates": [ 135.772023352392011, 34.620520284522698 ] } },
{ "type": "Feature", "properties": { "内容": "きたぬき【福祉用具貸与】奈良県天理市前栽町55-7", "url": "https://www.kaigokensaku.mhlw.go.jp/29/index.php?action_kouhyou_detail_004_kani=true&JigyosyoCd=2970401689-00&ServiceCd=170&Type=search", "url2": null }, "geometry": { "type": "Point", "coordinates": [ 135.8203916, 34.603899 ] } },
{ "type": "Feature", "properties": { "内容": "ファミさぽ【福祉用具貸与】奈良県天理市福知堂町273-3", "url": "https://www.kaigokensaku.mhlw.go.jp/29/index.php?action_kouhyou_detail_004_kani=true&JigyosyoCd=2970401440-00&ServiceCd=170&Type=search", "url2": null }, "geometry": { "type": "Point", "coordinates": [ 135.8328603, 34.5771233 ] } },
{ "type": "Feature", "properties": { "内容": "株式会社ヤマシタ　奈良営業所【福祉用具貸与】奈良県天理市富堂町181-1", "url": "https://www.kaigokensaku.mhlw.go.jp/29/index.php?action_kouhyou_detail_004_kani=true&JigyosyoCd=2970400053-00&ServiceCd=170&Type=search", "url2": "http://www.yco.co.jp/" }, "geometry": { "type": "Point", "coordinates": [ 135.821945743609604, 34.595192873464185 ] } },
{ "type": "Feature", "properties": { "内容": "ケアライフ奈良営業所【福祉用具貸与】嘉幡町349番地1", "url": "https://www.kaigokensaku.mhlw.go.jp/29/index.php?action_kouhyou_detail_004_kani=true&JigyosyoCd=2970400897-00&ServiceCd=170&Type=search", "url2": "http://www.care-life.co.jp" }, "geometry": { "type": "Point", "coordinates": [ 135.797899700000016, 34.58875 ] } },
{ "type": "Feature", "properties": { "内容": "福祉用具めいび【福祉用具貸与】奈良県天理市遠田町574番地", "url": "https://www.kaigokensaku.mhlw.go.jp/29/index.php?action_kouhyou_detail_004_kani=true&JigyosyoCd=2970401549-00&ServiceCd=170&Type=search", "url2": "http://meibi-mt.co.jp/" }, "geometry": { "type": "Point", "coordinates": [ 135.823542800000013, 34.56401 ] } },
{ "type": "Feature", "properties": { "内容": "株式会社アーク福祉用具【福祉用具貸与】奈良県天理市荒蒔町138-4メゾンブランカ302号", "url": "https://www.kaigokensaku.mhlw.go.jp/29/index.php?action_kouhyou_detail_004_kani=true&JigyosyoCd=2970401598-00&ServiceCd=170&Type=search", "url2": null }, "geometry": { "type": "Point", "coordinates": [ 135.80415690000001, 34.5994882 ] } },
{ "type": "Feature", "properties": { "内容": "ユニバーサル　チョイス【福祉用具貸与】奈良県天理市三島町182-6", "url": "https://www.kaigokensaku.mhlw.go.jp/29/index.php?action_kouhyou_detail_004_kani=true&JigyosyoCd=2970401119-00&ServiceCd=170&Type=search", "url2": null }, "geometry": { "type": "Point", "coordinates": [ 135.837792445403664, 34.60202909611511 ] } },
{ "type": "Feature", "properties": { "内容": "福祉用具おやの里【福祉用具貸与】奈良県天理市川原城町366-2", "url": "https://www.kaigokensaku.mhlw.go.jp/29/index.php?action_kouhyou_detail_004_kani=true&JigyosyoCd=2970401663-00&ServiceCd=170&Type=search", "url2": "http://oyanosato.co.jp" }, "geometry": { "type": "Point", "coordinates": [ 135.835706, 34.5974166 ] } },
{ "type": "Feature", "properties": { "内容": "株式会社　ユーヒナ【福祉用具貸与】奈良県橿原市新口町132番地の1ラピュタ新口105", "url": "https://www.kaigokensaku.mhlw.go.jp/29/index.php?action_kouhyou_detail_004_kani=true&JigyosyoCd=2970501132-00&ServiceCd=170&Type=search", "url2": null }, "geometry": { "type": "Point", "coordinates": [ 135.795467300000041, 34.5254478 ] } },
{ "type": "Feature", "properties": { "内容": "アシストあ・える【福祉用具貸与】奈良県橿原市葛本町299－1", "url": "https://www.kaigokensaku.mhlw.go.jp/29/index.php?action_kouhyou_detail_004_kani=true&JigyosyoCd=2970501611-00&ServiceCd=170&Type=search", "url2": "http://www.a\\el.co.jp" }, "geometry": { "type": "Point", "coordinates": [ 135.79904190000002, 34.5255461 ] } },
{ "type": "Feature", "properties": { "内容": "有限会社アットホーム【福祉用具貸与】奈良県橿原市大久保町435番地5", "url": "https://www.kaigokensaku.mhlw.go.jp/29/index.php?action_kouhyou_detail_004_kani=true&JigyosyoCd=2970500134-00&ServiceCd=170&Type=search", "url2": "http://www.kaigo-club.net/" }, "geometry": { "type": "Point", "coordinates": [ 135.792449004893456, 34.493559677923216 ] } },
{ "type": "Feature", "properties": { "内容": "橿原ケアセンターユースフル21【福祉用具貸与】奈良県橿原市今井町3-12-16", "url": "https://www.kaigokensaku.mhlw.go.jp/29/index.php?action_kouhyou_detail_004_kani=true&JigyosyoCd=2970500191-00&ServiceCd=170&Type=search", "url2": "https://www.useful21.co.jp/" }, "geometry": { "type": "Point", "coordinates": [ 135.7823812, 34.504873 ] } },
{ "type": "Feature", "properties": { "内容": "ケアステーションＴＯＷＡ【福祉用具貸与】奈良県橿原市十市町850-2", "url": "https://www.kaigokensaku.mhlw.go.jp/29/index.php?action_kouhyou_detail_004_kani=true&JigyosyoCd=2970500878-00&ServiceCd=170&Type=search", "url2": null }, "geometry": { "type": "Point", "coordinates": [ 135.797079100000019, 34.532480799999981 ] } },
{ "type": "Feature", "properties": { "内容": "らびんぐ・ケア【福祉用具貸与】奈良県橿原市五条野町399", "url": "https://www.kaigokensaku.mhlw.go.jp/29/index.php?action_kouhyou_detail_004_kani=true&JigyosyoCd=2970502569-00&ServiceCd=170&Type=search", "url2": null }, "geometry": { "type": "Point", "coordinates": [ 135.80196313356015, 34.473378824870103 ] } },
{ "type": "Feature", "properties": { "内容": "けあねん【福祉用具貸与】奈良県橿原市今井町4-11-17", "url": "https://www.kaigokensaku.mhlw.go.jp/29/index.php?action_kouhyou_detail_004_kani=true&JigyosyoCd=2970501603-00&ServiceCd=170&Type=search", "url2": null }, "geometry": { "type": "Point", "coordinates": [ 135.785121099999969, 34.5078701 ] } },
{ "type": "Feature", "properties": { "内容": "介護センター　とらいあんぐる【福祉用具貸与】奈良県橿原市北八木町１丁目６－２０", "url": "https://www.kaigokensaku.mhlw.go.jp/29/index.php?action_kouhyou_detail_004_kani=true&JigyosyoCd=2970500431-00&ServiceCd=170&Type=search", "url2": null }, "geometry": { "type": "Point", "coordinates": [ 135.793864699999972, 34.5127391 ] } },
{ "type": "Feature", "properties": { "内容": "ハート・ケア・ひろはし【福祉用具貸与】奈良県橿原市五条野町399", "url": "https://www.kaigokensaku.mhlw.go.jp/29/index.php?action_kouhyou_detail_004_kani=true&JigyosyoCd=2970502684-00&ServiceCd=170&Type=search", "url2": "https://heartcare-hirohashi.com/" }, "geometry": { "type": "Point", "coordinates": [ 135.8019574, 34.4734073 ] } },
{ "type": "Feature", "properties": { "内容": "有限会社　メディカルアシスト　キリンレンタルサービス【福祉用具貸与】奈良県橿原市木原町９０番地３有限会社　メディカルアシスト　キリンレンタルサービス", "url": "https://www.kaigokensaku.mhlw.go.jp/29/index.php?action_kouhyou_detail_004_kani=true&JigyosyoCd=2970502080-00&ServiceCd=170&Type=search", "url2": null }, "geometry": { "type": "Point", "coordinates": [ 135.802552800000058, 34.5121756 ] } },
{ "type": "Feature", "properties": { "内容": "株式会社　飛鳥【福祉用具貸与】吉備557-2", "url": "https://www.kaigokensaku.mhlw.go.jp/29/index.php?action_kouhyou_detail_004_kani=true&JigyosyoCd=2970600876-00&ServiceCd=170&Type=search", "url2": "https://www.asukalife.com/" }, "geometry": { "type": "Point", "coordinates": [ 135.833706206082184, 34.508177150809495 ] } },
{ "type": "Feature", "properties": { "内容": "ウィルライフ【福祉用具貸与】奈良県桜井市三輪417-3", "url": "https://www.kaigokensaku.mhlw.go.jp/29/index.php?action_kouhyou_detail_004_kani=true&JigyosyoCd=2970601072-00&ServiceCd=170&Type=search", "url2": null }, "geometry": { "type": "Point", "coordinates": [ 135.847859800000037, 34.5250163 ] } },
{ "type": "Feature", "properties": { "内容": "いきいき本舗【福祉用具貸与】桜井市阿部426-5", "url": "https://www.kaigokensaku.mhlw.go.jp/29/index.php?action_kouhyou_detail_004_kani=true&JigyosyoCd=2970600629-00&ServiceCd=170&Type=search", "url2": null }, "geometry": { "type": "Point", "coordinates": [ 135.838319, 34.5086377 ] } },
{ "type": "Feature", "properties": { "内容": "ケアレンタルはなことば【福祉用具貸与】外山１６６１番地", "url": "https://www.kaigokensaku.mhlw.go.jp/29/index.php?action_kouhyou_detail_004_kani=true&JigyosyoCd=2970600967-00&ServiceCd=170&Type=search", "url2": "https://www.spirit-care.co.jp" }, "geometry": { "type": "Point", "coordinates": [ 135.860866333343409, 34.514030077669119 ] } },
{ "type": "Feature", "properties": { "内容": "ユースフルブレイン【福祉用具貸与】奈良県桜井市桜井232ヤガビル202", "url": "https://www.kaigokensaku.mhlw.go.jp/29/index.php?action_kouhyou_detail_004_kani=true&JigyosyoCd=2970600413-00&ServiceCd=170&Type=search", "url2": "r-brain.nara.jp" }, "geometry": { "type": "Point", "coordinates": [ 135.843638631027233, 34.511807980754355 ] } },
{ "type": "Feature", "properties": { "内容": "有限会社エンジョイライフナイスケア【福祉用具貸与】奈良県桜井市大字河西772-1", "url": "https://www.kaigokensaku.mhlw.go.jp/29/index.php?action_kouhyou_detail_004_kani=true&JigyosyoCd=2970600223-00&ServiceCd=170&Type=search", "url2": null }, "geometry": { "type": "Point", "coordinates": [ 135.846542697195446, 34.500514933058298 ] } },
{ "type": "Feature", "properties": { "内容": "福祉用具マザーズ【福祉用具貸与】奈良県桜井市大福２４２－１", "url": "https://www.kaigokensaku.mhlw.go.jp/29/index.php?action_kouhyou_detail_004_kani=true&JigyosyoCd=2970600314-00&ServiceCd=170&Type=search", "url2": null }, "geometry": { "type": "Point", "coordinates": [ 135.828633599999989, 34.5123233 ] } },
{ "type": "Feature", "properties": { "内容": "ケアレンタルおりがみ【福祉用具貸与】外山1692", "url": "https://www.kaigokensaku.mhlw.go.jp/29/index.php?action_kouhyou_detail_004_kani=true&JigyosyoCd=2970601304-00&ServiceCd=170&Type=search", "url2": "https://www.spirit-care.co.jp" }, "geometry": { "type": "Point", "coordinates": [ 135.861764, 34.514025 ] } },
{ "type": "Feature", "properties": { "内容": "ナインケア【福祉用具貸与】奈良県五條市住川町91番地の58", "url": "https://www.kaigokensaku.mhlw.go.jp/29/index.php?action_kouhyou_detail_004_kani=true&JigyosyoCd=2970700692-00&ServiceCd=170&Type=search", "url2": null }, "geometry": { "type": "Point", "coordinates": [ 135.718601900000067, 34.3846999 ] } },
{ "type": "Feature", "properties": { "内容": "株式会社ワースリビング【福祉用具貸与】奈良県五條市住川町331-11", "url": "https://www.kaigokensaku.mhlw.go.jp/29/index.php?action_kouhyou_detail_004_kani=true&JigyosyoCd=2970700080-00&ServiceCd=170&Type=search", "url2": null }, "geometry": { "type": "Point", "coordinates": [ 135.716599769311557, 34.378317717800186 ] } },
{ "type": "Feature", "properties": { "内容": "ケアショップone【福祉用具貸与】野原東5丁目10番31号", "url": "https://www.kaigokensaku.mhlw.go.jp/29/index.php?action_kouhyou_detail_004_kani=true&JigyosyoCd=2970700759-00&ServiceCd=170&Type=search", "url2": null }, "geometry": { "type": "Point", "coordinates": [ 135.719292599999989, 34.346548 ] } },
{ "type": "Feature", "properties": { "内容": "ＭＣレント【福祉用具貸与】奈良県五條市今井四丁目５番３７号", "url": "https://www.kaigokensaku.mhlw.go.jp/29/index.php?action_kouhyou_detail_004_kani=true&JigyosyoCd=2970700015-00&ServiceCd=170&Type=search", "url2": "http://www.mcz.co.jp" }, "geometry": { "type": "Point", "coordinates": [ 135.708881, 34.3526974 ] } },
{ "type": "Feature", "properties": { "内容": "大和興産株式会社【福祉用具貸与】奈良県御所市池之内1064番地", "url": "https://www.kaigokensaku.mhlw.go.jp/29/index.php?action_kouhyou_detail_004_kani=true&JigyosyoCd=2970800096-00&ServiceCd=170&Type=search", "url2": "http://www.kounoikekai.com/contents/daiwa/index.html" }, "geometry": { "type": "Point", "coordinates": [ 135.751217399999973, 34.450824 ] } },
{ "type": "Feature", "properties": { "内容": "タカダビルテック株式会社【福祉用具貸与】茅原84-5", "url": "https://www.kaigokensaku.mhlw.go.jp/29/index.php?action_kouhyou_detail_004_kani=true&JigyosyoCd=2970800567-00&ServiceCd=170&Type=search", "url2": "http://www.takada-billtec.com/" }, "geometry": { "type": "Point", "coordinates": [ 135.744970400000057, 34.4614115 ] } },
{ "type": "Feature", "properties": { "内容": "ダスキンヘルスレント奈良生駒ステーション【福祉用具貸与】奈良県生駒市北田原町1674-14", "url": "https://www.kaigokensaku.mhlw.go.jp/29/index.php?action_kouhyou_detail_004_kani=true&JigyosyoCd=2970901696-00&ServiceCd=170&Type=search", "url2": null }, "geometry": { "type": "Point", "coordinates": [ 135.713662800000066, 34.7420414 ] } },
{ "type": "Feature", "properties": { "内容": "株式会社愛安住　生駒営業所【福祉用具貸与】奈良県生駒市小明町５４８番３", "url": "https://www.kaigokensaku.mhlw.go.jp/29/index.php?action_kouhyou_detail_004_kani=true&JigyosyoCd=2970901589-00&ServiceCd=170&Type=search", "url2": "https://www.aianju.co.jp" }, "geometry": { "type": "Point", "coordinates": [ 135.706688633729556, 34.706121970031631 ] } },
{ "type": "Feature", "properties": { "内容": "トータルケアサポート　タナカ【福祉用具貸与】奈良県香芝市今泉451", "url": "https://www.kaigokensaku.mhlw.go.jp/29/index.php?action_kouhyou_detail_004_kani=true&JigyosyoCd=2971000381-00&ServiceCd=170&Type=search", "url2": null }, "geometry": { "type": "Point", "coordinates": [ 135.699221286508191, 34.564098148387082 ] } },
{ "type": "Feature", "properties": { "内容": "有限会社ライフステーション【福祉用具貸与】奈良県香芝市旭ヶ丘1丁目３１－１", "url": "https://www.kaigokensaku.mhlw.go.jp/29/index.php?action_kouhyou_detail_004_kani=true&JigyosyoCd=2971000183-00&ServiceCd=170&Type=search", "url2": "http://www.life-station.co.jp/" }, "geometry": { "type": "Point", "coordinates": [ 135.699639199999979, 34.5554405 ] } },
{ "type": "Feature", "properties": { "内容": "株式会社　ライフネット【福祉用具貸与】奈良県香芝市下田東1-464-4", "url": "https://www.kaigokensaku.mhlw.go.jp/29/index.php?action_kouhyou_detail_004_kani=true&JigyosyoCd=2971000720-00&ServiceCd=170&Type=search", "url2": null }, "geometry": { "type": "Point", "coordinates": [ 135.706497, 34.5449197 ] } },
{ "type": "Feature", "properties": { "内容": "株式会社ケアプラス【福祉用具貸与】奈良県香芝市畑1－229", "url": "https://www.kaigokensaku.mhlw.go.jp/29/index.php?action_kouhyou_detail_004_kani=true&JigyosyoCd=2971001439-00&ServiceCd=170&Type=search", "url2": "http://hp.kaipoke.biz/dg0/info.html" }, "geometry": { "type": "Point", "coordinates": [ 135.699167399999965, 34.53953 ] } },
{ "type": "Feature", "properties": { "内容": "有限会社　ベストライフ・ケアーサービス【福祉用具貸与】奈良県香芝市五位堂６丁目２１３", "url": "https://www.kaigokensaku.mhlw.go.jp/29/index.php?action_kouhyou_detail_004_kani=true&JigyosyoCd=2971000175-00&ServiceCd=170&Type=search", "url2": null }, "geometry": { "type": "Point", "coordinates": [ 135.718368100000021, 34.5302386 ] } },
{ "type": "Feature", "properties": { "内容": "介護ステーションたいよう【福祉用具貸与】香芝市藤山２－１２２０－１介護付有料老人ホーム倖寿の丘", "url": "https://www.kaigokensaku.mhlw.go.jp/29/index.php?action_kouhyou_detail_004_kani=true&JigyosyoCd=2971000571-00&ServiceCd=170&Type=search", "url2": "http://www.okuyama-tieup.ne.jp" }, "geometry": { "type": "Point", "coordinates": [ 135.699479044629015, 34.545566560523362 ] } },
{ "type": "Feature", "properties": { "内容": "L・デザイン【福祉用具貸与】奈良県葛城市北花内288-2", "url": "https://www.kaigokensaku.mhlw.go.jp/29/index.php?action_kouhyou_detail_004_kani=true&JigyosyoCd=2974800340-00&ServiceCd=170&Type=search", "url2": "http://web1.kcn.jp/katuragi-l-design/index.html" }, "geometry": { "type": "Point", "coordinates": [ 135.7296159, 34.4850771 ] } },
{ "type": "Feature", "properties": { "内容": "ケアファームウィズ【福祉用具貸与】奈良県葛城市八川92番地1-102", "url": "https://www.kaigokensaku.mhlw.go.jp/29/index.php?action_kouhyou_detail_004_kani=true&JigyosyoCd=2974800696-00&ServiceCd=170&Type=search", "url2": "https://www.carefirm-with.com" }, "geometry": { "type": "Point", "coordinates": [ 135.7167943325409, 34.5101527 ] } },
{ "type": "Feature", "properties": { "内容": "福祉用具　すずらん【福祉用具貸与】奈良県宇陀市榛原萩原１９０９株式会社　天下堂", "url": "https://www.kaigokensaku.mhlw.go.jp/29/index.php?action_kouhyou_detail_004_kani=true&JigyosyoCd=2974900397-00&ServiceCd=170&Type=search", "url2": null }, "geometry": { "type": "Point", "coordinates": [ 135.952477499999986, 34.5374445 ] } },
{ "type": "Feature", "properties": { "内容": "ナガサワぷらす【福祉用具貸与】奈良県宇陀市大宇陀大東198-1", "url": "https://www.kaigokensaku.mhlw.go.jp/29/index.php?action_kouhyou_detail_004_kani=true&JigyosyoCd=2974900207-00&ServiceCd=170&Type=search", "url2": "http://www.nagasawa-reform.jp/" }, "geometry": { "type": "Point", "coordinates": [ 135.933433927319101, 34.470869299174112 ] } },
{ "type": "Feature", "properties": { "内容": "森野福祉レンタルサービス【福祉用具貸与】奈良県宇陀市菟田野古市場１３１０", "url": "https://www.kaigokensaku.mhlw.go.jp/29/index.php?action_kouhyou_detail_004_kani=true&JigyosyoCd=2974900108-00&ServiceCd=170&Type=search", "url2": "https://morino-nara.com/" }, "geometry": { "type": "Point", "coordinates": [ 135.967057899999986, 34.4764189 ] } },
{ "type": "Feature", "properties": { "内容": "五楽の里【福祉用具貸与】奈良県宇陀市榛原額井1068番地", "url": "https://www.kaigokensaku.mhlw.go.jp/29/index.php?action_kouhyou_detail_004_kani=true&JigyosyoCd=2972300137-00&ServiceCd=170&Type=search", "url2": "https://kaigo.touwa-giken.com/" }, "geometry": { "type": "Point", "coordinates": [ 135.977586076853981, 34.544221671650568 ] } },
{ "type": "Feature", "properties": { "内容": "株式会社　フジヤマサービス【福祉用具貸与】生駒郡三郷町立野南１丁目２１－６４１０２号", "url": "https://www.kaigokensaku.mhlw.go.jp/29/index.php?action_kouhyou_detail_004_kani=true&JigyosyoCd=2971500349-00&ServiceCd=170&Type=search", "url2": "http://www.fujiyama-service.com" }, "geometry": { "type": "Point", "coordinates": [ 135.682523, 34.5943607 ] } },
{ "type": "Feature", "properties": { "内容": "NPO法人ライフケア王寺【福祉用具貸与】奈良県生駒郡三郷町勢野東４丁目３番２０号", "url": "https://www.kaigokensaku.mhlw.go.jp/29/index.php?action_kouhyou_detail_004_kani=true&JigyosyoCd=2971500273-00&ServiceCd=170&Type=search", "url2": "http://lifecare-ouji.or.jp/" }, "geometry": { "type": "Point", "coordinates": [ 135.700868300000025, 34.6066817 ] } },
{ "type": "Feature", "properties": { "内容": "今村住設株式会社【福祉用具貸与】奈良県生駒郡斑鳩町法隆寺1-7-10", "url": "https://www.kaigokensaku.mhlw.go.jp/29/index.php?action_kouhyou_detail_004_kani=true&JigyosyoCd=2971600453-00&ServiceCd=170&Type=search", "url2": "http://minaoshitai.jp/search/shop/101388/index.html" }, "geometry": { "type": "Point", "coordinates": [ 135.7345183, 34.610343 ] } },
{ "type": "Feature", "properties": { "内容": "株式会社　イカリトンボ【福祉用具貸与】奈良県生駒郡斑鳩町龍田西4丁目1-40", "url": "https://www.kaigokensaku.mhlw.go.jp/29/index.php?action_kouhyou_detail_004_kani=true&JigyosyoCd=2971600024-00&ServiceCd=170&Type=search", "url2": "http://www.ikaritombo.jp/" }, "geometry": { "type": "Point", "coordinates": [ 135.7160308, 34.6064182 ] } },
{ "type": "Feature", "properties": { "内容": "なごみ【福祉用具貸与】奈良県生駒郡斑鳩町法隆寺南2-1-3サントル法隆寺壱番館1階", "url": "https://www.kaigokensaku.mhlw.go.jp/29/index.php?action_kouhyou_detail_004_kani=true&JigyosyoCd=2971600586-00&ServiceCd=170&Type=search", "url2": null }, "geometry": { "type": "Point", "coordinates": [ 135.738009, 34.609530800000016 ] } },
{ "type": "Feature", "properties": { "内容": "くまさんスマイル【福祉用具貸与】奈良県磯城郡田原本町八尾584-5メゾン良101", "url": "https://www.kaigokensaku.mhlw.go.jp/29/index.php?action_kouhyou_detail_004_kani=true&JigyosyoCd=2972000836-00&ServiceCd=170&Type=search", "url2": "https://kumasan-smile.com/" }, "geometry": { "type": "Point", "coordinates": [ 135.792661313185448, 34.561884736844632 ] } },
{ "type": "Feature", "properties": { "内容": "株式会社ココすまいる【福祉用具貸与】奈良県磯城郡田原本町十六面10番1", "url": "https://www.kaigokensaku.mhlw.go.jp/29/index.php?action_kouhyou_detail_004_kani=true&JigyosyoCd=2972000877-00&ServiceCd=170&Type=search", "url2": "https://cocosmile55.jp" }, "geometry": { "type": "Point", "coordinates": [ 135.785635, 34.5526061 ] } },
{ "type": "Feature", "properties": { "内容": "株式会社スズキ自販奈良【福祉用具貸与】奈良県磯城郡田原本町鍵６８番地の１", "url": "https://www.kaigokensaku.mhlw.go.jp/29/index.php?action_kouhyou_detail_004_kani=true&JigyosyoCd=2972000174-00&ServiceCd=170&Type=search", "url2": "http//www.sj-nara.jp/" }, "geometry": { "type": "Point", "coordinates": [ 135.797244037068822, 34.564500111314018 ] } },
{ "type": "Feature", "properties": { "内容": "奈良ヘルスケアシステム株式会社【福祉用具貸与】奈良県磯城郡田原本町千代632-1", "url": "https://www.kaigokensaku.mhlw.go.jp/29/index.php?action_kouhyou_detail_004_kani=true&JigyosyoCd=2972000018-00&ServiceCd=170&Type=search", "url2": null }, "geometry": { "type": "Point", "coordinates": [ 135.8035357, 34.5462854 ] } },
{ "type": "Feature", "properties": { "内容": "有限会社ツザキ・ケア・ブレイス【福祉用具貸与】奈良県磯城郡田原本町新木１－１４１", "url": "https://www.kaigokensaku.mhlw.go.jp/29/index.php?action_kouhyou_detail_004_kani=true&JigyosyoCd=2972000083-00&ServiceCd=170&Type=search", "url2": null }, "geometry": { "type": "Point", "coordinates": [ 135.787437599999947, 34.5414438 ] } },
{ "type": "Feature", "properties": { "内容": "福祉用具つむぎ【福祉用具貸与】奈良県高市郡高取町大字1833番地1", "url": "https://www.kaigokensaku.mhlw.go.jp/29/index.php?action_kouhyou_detail_004_kani=true&JigyosyoCd=2972700237-00&ServiceCd=170&Type=search", "url2": null }, "geometry": { "type": "Point", "coordinates": [ 135.7929907, 34.4495417 ] } },
{ "type": "Feature", "properties": { "内容": "奈良県高市郡明日香村飛鳥691【福祉用具貸与】奈良県高市郡明日香村飛鳥691", "url": "https://www.kaigokensaku.mhlw.go.jp/29/index.php?action_kouhyou_detail_004_kani=true&JigyosyoCd=2972800136-00&ServiceCd=170&Type=search", "url2": null }, "geometry": { "type": "Point", "coordinates": [ 135.821290800000043, 34.4781774 ] } },
{ "type": "Feature", "properties": { "内容": "介護ステーションにこにこ【福祉用具貸与】奈良県北葛城郡上牧町上牧3815", "url": "https://www.kaigokensaku.mhlw.go.jp/29/index.php?action_kouhyou_detail_004_kani=true&JigyosyoCd=2973100148-00&ServiceCd=170&Type=search", "url2": null }, "geometry": { "type": "Point", "coordinates": [ 135.706732800000026, 34.5609234 ] } },
{ "type": "Feature", "properties": { "内容": "ACサポート【福祉用具貸与】奈良県北葛城郡上牧町上牧2850-7", "url": "https://www.kaigokensaku.mhlw.go.jp/29/index.php?action_kouhyou_detail_004_kani=true&JigyosyoCd=2973100288-00&ServiceCd=170&Type=search", "url2": null }, "geometry": { "type": "Point", "coordinates": [ 135.724167299999976, 34.5684896 ] } },
{ "type": "Feature", "properties": { "内容": "株式会社　三晴【福祉用具貸与】奈良県北葛城郡上牧町大字上牧3374-1", "url": "https://www.kaigokensaku.mhlw.go.jp/29/index.php?action_kouhyou_detail_004_kani=true&JigyosyoCd=2973100684-00&ServiceCd=170&Type=search", "url2": null }, "geometry": { "type": "Point", "coordinates": [ 135.715388, 34.5627051 ] } },
{ "type": "Feature", "properties": { "内容": "株式会社　優和【福祉用具貸与】奈良県北葛城郡上牧町大字上牧2209番地5エヌエス企画倉庫　2F", "url": "https://www.kaigokensaku.mhlw.go.jp/29/index.php?action_kouhyou_detail_004_kani=true&JigyosyoCd=2973100452-00&ServiceCd=170&Type=search", "url2": null }, "geometry": { "type": "Point", "coordinates": [ 135.72272119594777, 34.564342227171842 ] } },
{ "type": "Feature", "properties": { "内容": "福祉用具　ツェイス【福祉用具貸与】奈良県北葛城郡上牧町米山台六丁目3-12", "url": "https://www.kaigokensaku.mhlw.go.jp/29/index.php?action_kouhyou_detail_004_kani=true&JigyosyoCd=2973100668-00&ServiceCd=170&Type=search", "url2": null }, "geometry": { "type": "Point", "coordinates": [ 135.715390399999933, 34.5649391 ] } },
{ "type": "Feature", "properties": { "内容": "ホームエコテック【福祉用具貸与】奈良県北葛城郡上牧町上牧２７４１‐３", "url": "https://www.kaigokensaku.mhlw.go.jp/29/index.php?action_kouhyou_detail_004_kani=true&JigyosyoCd=2973100627-00&ServiceCd=170&Type=search", "url2": null }, "geometry": { "type": "Point", "coordinates": [ 135.722706300000027, 34.570183800000031 ] } },
{ "type": "Feature", "properties": { "内容": "株式会社　ひだまり工房【福祉用具貸与】奈良県北葛城郡王寺町久度1丁目10番24号", "url": "https://www.kaigokensaku.mhlw.go.jp/29/index.php?action_kouhyou_detail_004_kani=true&JigyosyoCd=2973200310-00&ServiceCd=170&Type=search", "url2": null }, "geometry": { "type": "Point", "coordinates": [ 135.706831800000032, 34.5995521 ] } },
{ "type": "Feature", "properties": { "内容": "ケアクラフト合同会社【福祉用具貸与】奈良県北葛城郡広陵町的場１３７－４", "url": "https://www.kaigokensaku.mhlw.go.jp/29/index.php?action_kouhyou_detail_004_kani=true&JigyosyoCd=2973300144-00&ServiceCd=170&Type=search", "url2": null }, "geometry": { "type": "Point", "coordinates": [ 135.755811799999947, 34.5659788 ] } },
{ "type": "Feature", "properties": { "内容": "西川株式会社/ネーブルハウス奈良事業所【福祉用具貸与】奈良県北葛城郡広陵町馬見北1丁目7番12号", "url": "https://www.kaigokensaku.mhlw.go.jp/29/index.php?action_kouhyou_detail_004_kani=true&JigyosyoCd=2973300581-00&ServiceCd=170&Type=search", "url2": "https://nablehouse.co.jp/" }, "geometry": { "type": "Point", "coordinates": [ 135.733282800000012, 34.5550878 ] } },
{ "type": "Feature", "properties": { "内容": "有限会社　マホロバセンター【福祉用具貸与】奈良県北葛城郡広陵町馬見北９丁目１－３２", "url": "https://www.kaigokensaku.mhlw.go.jp/29/index.php?action_kouhyou_detail_004_kani=true&JigyosyoCd=2973300037-00&ServiceCd=170&Type=search", "url2": null }, "geometry": { "type": "Point", "coordinates": [ 135.722320200000013, 34.5507834 ] } },
{ "type": "Feature", "properties": { "内容": "ニッセイせいれい在宅介護サービスセンターベル西大和店【福祉用具貸与】奈良県北葛城郡河合町高塚台1-8-1", "url": "https://www.kaigokensaku.mhlw.go.jp/29/index.php?action_kouhyou_detail_004_kani=true&JigyosyoCd=2973400027-00&ServiceCd=170&Type=search", "url2": "http://www.nissay-seirei.org/" }, "geometry": { "type": "Point", "coordinates": [ 135.7231865, 34.5796244 ] } },
{ "type": "Feature", "properties": { "内容": "よしの介護ネットまんてん【福祉用具貸与】奈良県吉野郡吉野町丹治１９０－２", "url": "https://www.kaigokensaku.mhlw.go.jp/29/index.php?action_kouhyou_detail_004_kani=true&JigyosyoCd=2973500099-00&ServiceCd=170&Type=search", "url2": "yoshino-mantrn.com/" }, "geometry": { "type": "Point", "coordinates": [ 135.8494277, 34.3895009 ] } },
{ "type": "Feature", "properties": { "内容": "(有)はたホームケアサービス【福祉用具貸与】奈良県吉野郡吉野町大字楢井４９４番地の１", "url": "https://www.kaigokensaku.mhlw.go.jp/29/index.php?action_kouhyou_detail_004_kani=true&JigyosyoCd=2973500065-00&ServiceCd=170&Type=search", "url2": "https://www.hata-hcs.com" }, "geometry": { "type": "Point", "coordinates": [ 135.882494599999973, 34.3841057 ] } },
{ "type": "Feature", "properties": { "内容": "松八ケアサービス【福祉用具貸与】奈良県吉野郡大淀町大字桧垣本７０２－２", "url": "https://www.kaigokensaku.mhlw.go.jp/29/index.php?action_kouhyou_detail_004_kani=true&JigyosyoCd=2973600204-00&ServiceCd=170&Type=search", "url2": "https://ma2hachi.wixsite.com/base" }, "geometry": { "type": "Point", "coordinates": [ 135.796725700000025, 34.4060351 ] } },
{ "type": "Feature", "properties": { "内容": "野木商店株式会社【福祉用具貸与】奈良県吉野郡大淀町桧垣本２０番地", "url": "https://www.kaigokensaku.mhlw.go.jp/29/index.php?action_kouhyou_detail_004_kani=true&JigyosyoCd=2973600220-00&ServiceCd=170&Type=search", "url2": null }, "geometry": { "type": "Point", "coordinates": [ 135.794163204893522, 34.384257221069454 ] } },
{ "type": "Feature", "properties": { "内容": "有限会社　羽根【福祉用具貸与】奈良県吉野郡大淀町桧垣本786-1", "url": "https://www.kaigokensaku.mhlw.go.jp/29/index.php?action_kouhyou_detail_004_kani=true&JigyosyoCd=2973600048-00&ServiceCd=170&Type=search", "url2": null }, "geometry": { "type": "Point", "coordinates": [ 135.793715, 34.401652299999981 ] } },
{ "type": "Feature", "properties": { "内容": "介護用品らくらくレンタル　ケアテック【福祉用具貸与】奈良県吉野郡大淀町北野78-10", "url": "https://www.kaigokensaku.mhlw.go.jp/29/index.php?action_kouhyou_detail_004_kani=true&JigyosyoCd=2973600477-00&ServiceCd=170&Type=search", "url2": null }, "geometry": { "type": "Point", "coordinates": [ 135.8235582, 34.4008654 ] } }
]
}
