{
"type": "FeatureCollection",
"name": "geo_29_1",
"crs": { "type": "name", "properties": { "name": "urn:ogc:def:crs:OGC:1.3:CRS84" } },
"features": [
{ "type": "Feature", "properties": { "ID": 2911000100000, "正式名称": "市立奈良病院", "機関区分": 1, "都道府県コード": 29, "市区町村コード": 201, "所在地": "奈良県奈良市東紀寺町１－５０－１", "緯度": 34.672623, "経度": 135.835219, "url": "https://www.iryou.teikyouseido.mhlw.go.jp/znk-web/juminkanja/S2430/initialize?prefCd=29&kikanCd=1000100000&kikanKbn=1", "url2": "http://www.nara-jadecom.jp/", "内容": "市立奈良病院【1:病院】【診療科目:内科_血液・腫瘍内科_糖尿病・内分泌内科_脳神経内科_呼吸器内科_循環器内科_消化器内科_腎臓内科_外科_脳神経外科_呼吸器外科_消化器外科_乳腺外科_整形外科_形成外科_小児科_産婦人科_眼科_耳鼻いんこう科_皮膚科_泌尿器科_精神科_心療内科_歯科_リウマチ科_リハビリテーション科_放射線科_病理診断科_臨床検査科_麻酔科】【一般病床数:349療養病床数:0精神病床数:0感染症病床数:1合計病床数:350】奈良県奈良市東紀寺町１－５０－１" }, "geometry": { "type": "Point", "coordinates": [ 135.835219, 34.672623 ] } },
{ "type": "Feature", "properties": { "ID": 2911000200000, "正式名称": "独立行政法人国立病院機構奈良医療センター", "機関区分": 1, "都道府県コード": 29, "市区町村コード": 201, "所在地": "奈良県奈良市七条２丁目７８９番地", "緯度": 34.665651, "経度": 135.776613, "url": "https://www.iryou.teikyouseido.mhlw.go.jp/znk-web/juminkanja/S2430/initialize?prefCd=29&kikanCd=1000200000&kikanKbn=1", "url2": "https://nara.hosp.go.jp/index.html", "内容": "独立行政法人国立病院機構奈良医療センター【1:病院】【診療科目:内科_脳神経内科_呼吸器内科_循環器内科_消化器内科_外科_脳神経外科_呼吸器外科_ペインクリニック外科_整形外科_小児科_婦人科_眼科_耳鼻いんこう科_皮膚科_泌尿器科_精神科_心療内科_リウマチ科_リハビリテーション科_放射線科_麻酔科】【一般病床数:310療養病床数:0精神病床数:0感染症病床数:0合計病床数:337】奈良県奈良市七条２丁目７８９番地" }, "geometry": { "type": "Point", "coordinates": [ 135.776613, 34.665651 ] } },
{ "type": "Feature", "properties": { "ID": 2911000300000, "正式名称": "奈良県総合医療センター", "機関区分": 1, "都道府県コード": 29, "市区町村コード": 201, "所在地": "奈良県奈良市七条西町二丁目８９７番地５", "緯度": 34.662465, "経度": 135.767532, "url": "https://www.iryou.teikyouseido.mhlw.go.jp/znk-web/juminkanja/S2430/initialize?prefCd=29&kikanCd=1000300000&kikanKbn=1", "url2": "http://www.nara-hp.jp/", "内容": "奈良県総合医療センター【1:病院】【診療科目:内科_感染症内科_血液・腫瘍内科_糖尿病内科_脳神経内科_呼吸器内科_循環器内科_消化器内科_腎臓内科_神経内科_緩和ケア内科_脳神経外科_呼吸器外科_心臓血管外科_消化器外科_肝臓・胆のう・膵臓外科_乳腺外科_頭頸部外科_整形外科_形成外科_小児科_小児外科_小児泌尿器科_小児脳神経外科_産科_婦人科_眼科_耳鼻いんこう科_皮膚科_泌尿器科_精神科_歯科口腔外科_リハビリテーション科_放射線診断科_放射線治療科_病理診断科_救急科_麻酔科】【一般病床数:494療養病床数:0精神病床数:40感染症病床数:6合計病床数:540】奈良県奈良市七条西町二丁目８９７番地５" }, "geometry": { "type": "Point", "coordinates": [ 135.767532, 34.662465 ] } },
{ "type": "Feature", "properties": { "ID": 2911000400000, "正式名称": "社会福祉法人　恩賜財団　済生会奈良病院", "機関区分": 1, "都道府県コード": 29, "市区町村コード": 201, "所在地": "奈良県奈良市八条４丁目６４３番地", "緯度": 34.669068, "経度": 135.805194, "url": "https://www.iryou.teikyouseido.mhlw.go.jp/znk-web/juminkanja/S2430/initialize?prefCd=29&kikanCd=1000400000&kikanKbn=1", "url2": "http://www.saiseikai-nara-hp.jp/", "内容": "社会福祉法人　恩賜財団　済生会奈良病院【1:病院】【診療科目:内科_呼吸器内科_循環器内科_神経内科_外科_整形外科_小児科_婦人科_眼科_耳鼻いんこう科_皮膚科_泌尿器科_リハビリテーション科_放射線科_麻酔科】【一般病床数:194療養病床数:0精神病床数:0感染症病床数:0合計病床数:194】奈良県奈良市八条４丁目６４３番地" }, "geometry": { "type": "Point", "coordinates": [ 135.805194, 34.669068 ] } },
{ "type": "Feature", "properties": { "ID": 2911000500000, "正式名称": "奈良小南病院", "機関区分": 1, "都道府県コード": 29, "市区町村コード": 201, "所在地": "奈良県奈良市八条５丁目４３７－８", "緯度": 34.666984, "経度": 135.79925, "url": "https://www.iryou.teikyouseido.mhlw.go.jp/znk-web/juminkanja/S2430/initialize?prefCd=29&kikanCd=1000500000&kikanKbn=1", "url2": null, "内容": "奈良小南病院【1:病院】【診療科目:内科_外科_リハビリテーション科_放射線科】【一般病床数:60療養病床数:117精神病床数:0感染症病床数:0合計病床数:177】奈良県奈良市八条５丁目４３７－８" }, "geometry": { "type": "Point", "coordinates": [ 135.79925, 34.666984 ] } },
{ "type": "Feature", "properties": { "ID": 2911000600000, "正式名称": "一般財団法人　沢井病院", "機関区分": 1, "都道府県コード": 29, "市区町村コード": 201, "所在地": "奈良県奈良市船橋町８", "緯度": 34.688621, "経度": 135.821636, "url": "https://www.iryou.teikyouseido.mhlw.go.jp/znk-web/juminkanja/S2430/initialize?prefCd=29&kikanCd=1000600000&kikanKbn=1", "url2": "http://sawai.or.jp/", "内容": "一般財団法人　沢井病院【1:病院】【診療科目:内科_呼吸器内科_循環器内科_外科_脳神経外科_消化器外科_肛門外科_大腸・肛門外科_整形外科_形成外科】【一般病床数:55療養病床数:56精神病床数:0感染症病床数:0合計病床数:111】奈良県奈良市船橋町８" }, "geometry": { "type": "Point", "coordinates": [ 135.821636, 34.688621 ] } },
{ "type": "Feature", "properties": { "ID": 2911000700000, "正式名称": "医療法人財団北林厚生会　五条山病院", "機関区分": 1, "都道府県コード": 29, "市区町村コード": 201, "所在地": "奈良県奈良市六条西町４丁目６番３号", "緯度": 34.665762, "経度": 135.770641, "url": "https://www.iryou.teikyouseido.mhlw.go.jp/znk-web/juminkanja/S2430/initialize?prefCd=29&kikanCd=1000700000&kikanKbn=1", "url2": "https://www.gojouyama.jp", "内容": "医療法人財団北林厚生会　五条山病院【1:病院】【診療科目:精神科】【一般病床数:0療養病床数:0精神病床数:374感染症病床数:0合計病床数:374】奈良県奈良市六条西町４丁目６番３号" }, "geometry": { "type": "Point", "coordinates": [ 135.770641, 34.665762 ] } },
{ "type": "Feature", "properties": { "ID": 2911000800000, "正式名称": "奈良西部病院", "機関区分": 1, "都道府県コード": 29, "市区町村コード": 201, "所在地": "奈良県奈良市三碓町２１４３ー１", "緯度": 34.687342, "経度": 135.721033, "url": "https://www.iryou.teikyouseido.mhlw.go.jp/znk-web/juminkanja/S2430/initialize?prefCd=29&kikanCd=1000800000&kikanKbn=1", "url2": "http://naraseibu-hp.com/", "内容": "奈良西部病院【1:病院】【診療科目:内科_神経内科_外科_呼吸器外科_大腸・肛門外科_整形外科_形成外科_皮膚科_リハビリテーション科_放射線科_麻酔科】【一般病床数:117療養病床数:0精神病床数:0感染症病床数:0合計病床数:117】奈良県奈良市三碓町２１４３ー１" }, "geometry": { "type": "Point", "coordinates": [ 135.721033, 34.687342 ] } },
{ "type": "Feature", "properties": { "ID": 2911000900000, "正式名称": "社会医療法人　松本快生会　西奈良中央病院", "機関区分": 1, "都道府県コード": 29, "市区町村コード": 201, "所在地": "奈良県奈良市鶴舞西町１－１５", "緯度": 34.70395, "経度": 135.749821, "url": "https://www.iryou.teikyouseido.mhlw.go.jp/znk-web/juminkanja/S2430/initialize?prefCd=29&kikanCd=1000900000&kikanKbn=1", "url2": "https://www.nishinarachuo.or.jp", "内容": "社会医療法人　松本快生会　西奈良中央病院【1:病院】【診療科目:内科_糖尿病内科_呼吸器内科_循環器内科_消化器内科_腎臓内科_緩和ケア内科_外科_脳神経外科_消化器外科_肛門外科_整形外科_緩和ケア外科_婦人科_泌尿器科_精神科_心療内科_リハビリテーション科_放射線科_麻酔科】【一般病床数:166療養病床数:0精神病床数:0感染症病床数:0合計病床数:166】奈良県奈良市鶴舞西町１－１５" }, "geometry": { "type": "Point", "coordinates": [ 135.749821, 34.70395 ] } },
{ "type": "Feature", "properties": { "ID": 2911001000000, "正式名称": "社会医療法人健生会おかたに病院", "機関区分": 1, "都道府県コード": 29, "市区町村コード": 201, "所在地": "奈良県奈良市南京終町１丁目２５－１", "緯度": 34.671151, "経度": 135.825498, "url": "https://www.iryou.teikyouseido.mhlw.go.jp/znk-web/juminkanja/S2430/initialize?prefCd=29&kikanCd=1001000000&kikanKbn=1", "url2": "https://okatani.or.jp/okatani/index.html", "内容": "社会医療法人健生会おかたに病院【1:病院】【診療科目:内科_循環器内科_腎臓内科_外科_整形外科_皮膚科_泌尿器科】【一般病床数:100療養病床数:50精神病床数:0感染症病床数:0合計病床数:150】奈良県奈良市南京終町１丁目２５－１" }, "geometry": { "type": "Point", "coordinates": [ 135.825498, 34.671151 ] } },
{ "type": "Feature", "properties": { "ID": 2911001100000, "正式名称": "医療法人　博愛会　松倉病院（社団）", "機関区分": 1, "都道府県コード": 29, "市区町村コード": 201, "所在地": "奈良県奈良市川之上突抜町１５", "緯度": 34.673873, "経度": 135.831469, "url": "https://www.iryou.teikyouseido.mhlw.go.jp/znk-web/juminkanja/S2430/initialize?prefCd=29&kikanCd=1001100000&kikanKbn=1", "url2": "http://www.nara-matsukura-hospital.com/", "内容": "医療法人　博愛会　松倉病院（社団）【1:病院】【診療科目:内科_整形外科_リハビリテーション科_麻酔科】【一般病床数:27療養病床数:40精神病床数:0感染症病床数:0合計病床数:67】奈良県奈良市川之上突抜町１５" }, "geometry": { "type": "Point", "coordinates": [ 135.831469, 34.673873 ] } },
{ "type": "Feature", "properties": { "ID": 2911001200000, "正式名称": "社会医療法人平和会　吉田病院", "機関区分": 1, "都道府県コード": 29, "市区町村コード": 201, "所在地": "奈良県奈良市西大寺赤田町１－７－１", "緯度": 34.700091, "経度": 135.771779, "url": "https://www.iryou.teikyouseido.mhlw.go.jp/znk-web/juminkanja/S2430/initialize?prefCd=29&kikanCd=1001200000&kikanKbn=1", "url2": "http://www.heiwakai.or.jp/", "内容": "社会医療法人平和会　吉田病院【1:病院】【診療科目:内科_呼吸器内科_循環器内科_消化器内科_外科_肛門外科_整形外科_婦人科_眼科_泌尿器科_精神科_心療内科_リハビリテーション科_放射線科_麻酔科】【一般病床数:99療養病床数:0精神病床数:213感染症病床数:0合計病床数:312】奈良県奈良市西大寺赤田町１－７－１" }, "geometry": { "type": "Point", "coordinates": [ 135.771779, 34.700091 ] } },
{ "type": "Feature", "properties": { "ID": 2911001300000, "正式名称": "医療法人新仁会奈良春日病院", "機関区分": 1, "都道府県コード": 29, "市区町村コード": 201, "所在地": "奈良県奈良市鹿野園町１２１２－１", "緯度": 34.664236, "経度": 135.852996, "url": "https://www.iryou.teikyouseido.mhlw.go.jp/znk-web/juminkanja/S2430/initialize?prefCd=29&kikanCd=1001300000&kikanKbn=1", "url2": "https://www.narakasuga-hospital.or.jp", "内容": "医療法人新仁会奈良春日病院【1:病院】【診療科目:内科_呼吸器内科_循環器内科_神経内科_外科_整形外科_眼科_泌尿器科_老年精神科_歯科口腔外科_リハビリテーション科_放射線科】【一般病床数:90療養病床数:96精神病床数:0感染症病床数:0合計病床数:186】奈良県奈良市鹿野園町１２１２－１" }, "geometry": { "type": "Point", "coordinates": [ 135.852996, 34.664236 ] } },
{ "type": "Feature", "properties": { "ID": 2911001400000, "正式名称": "医療法人新生会総合病院高の原中央病院", "機関区分": 1, "都道府県コード": 29, "市区町村コード": 201, "所在地": "奈良県奈良市右京１丁目３－３", "緯度": 34.721395, "経度": 135.789304, "url": "https://www.iryou.teikyouseido.mhlw.go.jp/znk-web/juminkanja/S2430/initialize?prefCd=29&kikanCd=1001400000&kikanKbn=1", "url2": "https://www.takanohara-ch.or.jp/", "内容": "医療法人新生会総合病院高の原中央病院【1:病院】【診療科目:内科_血液内科_脳神経内科_呼吸器内科_循環器内科_消化器内科_腎臓内科_外科_心臓血管外科_整形外科_形成外科_産婦人科_耳鼻いんこう科_泌尿器科_リハビリテーション科_放射線科_麻酔科】【一般病床数:199療養病床数:50精神病床数:0感染症病床数:0合計病床数:249】奈良県奈良市右京１丁目３－３" }, "geometry": { "type": "Point", "coordinates": [ 135.789304, 34.721395 ] } },
{ "type": "Feature", "properties": { "ID": 2911001500000, "正式名称": "社会福祉法人　東大寺福祉事業団　東大寺福祉療育病院", "機関区分": 1, "都道府県コード": 29, "市区町村コード": 201, "所在地": "奈良県奈良市雑司町４０６－１", "緯度": 34.686177, "経度": 135.837802, "url": "https://www.iryou.teikyouseido.mhlw.go.jp/znk-web/juminkanja/S2430/initialize?prefCd=29&kikanCd=1001500000&kikanKbn=1", "url2": "https://twf.or.jp/", "内容": "社会福祉法人　東大寺福祉事業団　東大寺福祉療育病院【1:病院】【診療科目:整形外科_小児科_小児外科_眼科_耳鼻いんこう科_泌尿器科_リハビリテーション科】【一般病床数:135療養病床数:0精神病床数:0感染症病床数:0合計病床数:135】奈良県奈良市雑司町４０６－１" }, "geometry": { "type": "Point", "coordinates": [ 135.837802, 34.686177 ] } },
{ "type": "Feature", "properties": { "ID": 2911001700000, "正式名称": "奈良東九条病院", "機関区分": 1, "都道府県コード": 29, "市区町村コード": 201, "所在地": "奈良県奈良市東九条町７５２", "緯度": 34.662374, "経度": 135.818832, "url": "https://www.iryou.teikyouseido.mhlw.go.jp/znk-web/juminkanja/S2430/initialize?prefCd=29&kikanCd=1001700000&kikanKbn=1", "url2": "http://www.tokujyo.com/", "内容": "奈良東九条病院【1:病院】【診療科目:内科_消化器内科_外科_脳神経外科_消化器外科_肛門外科_整形外科_皮膚科_泌尿器科_リハビリテーション科_放射線科】【一般病床数:60療養病床数:0精神病床数:0感染症病床数:0合計病床数:0】奈良県奈良市東九条町７５２" }, "geometry": { "type": "Point", "coordinates": [ 135.818832, 34.662374 ] } },
{ "type": "Feature", "properties": { "ID": 2911002000000, "正式名称": "西の京病院", "機関区分": 1, "都道府県コード": 29, "市区町村コード": 201, "所在地": "奈良県奈良市六条町１０２－１", "緯度": 34.665679, "経度": 135.789112, "url": "https://www.iryou.teikyouseido.mhlw.go.jp/znk-web/juminkanja/S2430/initialize?prefCd=29&kikanCd=1002000000&kikanKbn=1", "url2": "www.nishinokyo.or.jp", "内容": "西の京病院【1:病院】【診療科目:内科_糖尿病内科_糖尿病・内分泌内科_呼吸器内科_循環器内科_消化器内科_腎臓内科_人工透析内科_外科_脳神経外科_脳・血管外科_血管外科_消化器外科_肛門外科_整形外科_眼科_皮膚科_泌尿器科_歯科_リウマチ科_リハビリテーション科_放射線科_救急科_麻酔科】【一般病床数:198療養病床数:50精神病床数:0感染症病床数:0合計病床数:248】奈良県奈良市六条町１０２－１" }, "geometry": { "type": "Point", "coordinates": [ 135.789112, 34.665679 ] } },
{ "type": "Feature", "properties": { "ID": 2911002200000, "正式名称": "バルツァ・ゴーデル", "機関区分": 1, "都道府県コード": 29, "市区町村コード": 201, "所在地": "奈良県奈良市鹿野園町１０００番１号", "緯度": 34.665569, "経度": 135.848996, "url": "https://www.iryou.teikyouseido.mhlw.go.jp/znk-web/juminkanja/S2430/initialize?prefCd=29&kikanCd=1002200000&kikanKbn=1", "url2": "http://www.valsta.jp/", "内容": "バルツァ・ゴーデル【1:病院】【診療科目:内科_整形外科_小児科_耳鼻いんこう科】【一般病床数:88療養病床数:0精神病床数:0感染症病床数:0合計病床数:88】奈良県奈良市鹿野園町１０００番１号" }, "geometry": { "type": "Point", "coordinates": [ 135.848996, 34.665569 ] } },
{ "type": "Feature", "properties": { "ID": 2911002400000, "正式名称": "医療法人健和会　奈良東病院", "機関区分": 1, "都道府県コード": 29, "市区町村コード": 204, "所在地": "奈良県天理市中之庄町４７０", "緯度": 34.637544, "経度": 135.844275, "url": "https://www.iryou.teikyouseido.mhlw.go.jp/znk-web/juminkanja/S2430/initialize?prefCd=29&kikanCd=1002400000&kikanKbn=1", "url2": "https://www.fureai-net.com", "内容": "医療法人健和会　奈良東病院【1:病院】【診療科目:内科_脳神経内科_呼吸器内科_循環器内科_消化器内科_脳神経外科_整形外科_皮膚科_リハビリテーション科_放射線科】【一般病床数:80療養病床数:90精神病床数:0感染症病床数:0合計病床数:170】奈良県天理市中之庄町４７０" }, "geometry": { "type": "Point", "coordinates": [ 135.844275, 34.637544 ] } },
{ "type": "Feature", "properties": { "ID": 2911002500000, "正式名称": "公益財団法人　天理よろづ相談所病院", "機関区分": 1, "都道府県コード": 29, "市区町村コード": 204, "所在地": "奈良県天理市三島町２００番地", "緯度": 34.602242, "経度": 135.838555, "url": "https://www.iryou.teikyouseido.mhlw.go.jp/znk-web/juminkanja/S2430/initialize?prefCd=29&kikanCd=1002500000&kikanKbn=1", "url2": "http://www.tenriyorozu.jp", "内容": "公益財団法人　天理よろづ相談所病院【1:病院】【診療科目:内科_血液内科_内分泌内科_呼吸器内科_循環器内科_消化器内科_腎臓内科_神経内科_腫瘍内科_緩和ケア内科_脳神経外科_呼吸器外科_心臓血管外科_消化器外科_乳腺外科_整形外科_形成外科_小児科_産婦人科_眼科_頭頸部・耳鼻いんこう科_皮膚科_泌尿器科_精神科_歯科_歯科口腔外科_リハビリテーション科_放射線科_病理診断科_臨床検査科_救急科_麻酔科】【一般病床数:687療養病床数:0精神病床数:0感染症病床数:0合計病床数:687】奈良県天理市三島町２００番地" }, "geometry": { "type": "Point", "coordinates": [ 135.838555, 34.602242 ] } },
{ "type": "Feature", "properties": { "ID": 2911002600000, "正式名称": "公益財団法人　天理よろづ相談所病院白川分院", "機関区分": 1, "都道府県コード": 29, "市区町村コード": 204, "所在地": "奈良県天理市岩屋町６０４", "緯度": 34.618824, "経度": 135.855359, "url": "https://www.iryou.teikyouseido.mhlw.go.jp/znk-web/juminkanja/S2430/initialize?prefCd=29&kikanCd=1002600000&kikanKbn=1", "url2": "https://www.tenriyorozu.jp/shirakawabunin", "内容": "公益財団法人　天理よろづ相談所病院白川分院【1:病院】【診療科目:内科_循環器内科_精神科_リハビリテーション科】【一般病床数:0療養病床数:100精神病床数:37感染症病床数:0合計病床数:137】奈良県天理市岩屋町６０４" }, "geometry": { "type": "Point", "coordinates": [ 135.855359, 34.618824 ] } },
{ "type": "Feature", "properties": { "ID": 2911002700000, "正式名称": "医療法人高宮会　高宮病院", "機関区分": 1, "都道府県コード": 29, "市区町村コード": 204, "所在地": "奈良県天理市柳本町１１０２", "緯度": 34.559469, "経度": 135.841668, "url": "https://www.iryou.teikyouseido.mhlw.go.jp/znk-web/juminkanja/S2430/initialize?prefCd=29&kikanCd=1002700000&kikanKbn=1", "url2": "takamiya1605.byoinnavi.jp/", "内容": "医療法人高宮会　高宮病院【1:病院】【診療科目:内科_外科_整形外科_リウマチ科_リハビリテーション科】【一般病床数:0療養病床数:38精神病床数:0感染症病床数:0合計病床数:38】奈良県天理市柳本町１１０２" }, "geometry": { "type": "Point", "coordinates": [ 135.841668, 34.559469 ] } },
{ "type": "Feature", "properties": { "ID": 2911002800000, "正式名称": "社会医療法人高清会　高井病院", "機関区分": 1, "都道府県コード": 29, "市区町村コード": 204, "所在地": "奈良県天理市蔵之庄町４７０番地８", "緯度": 34.634635, "経度": 135.828885, "url": "https://www.iryou.teikyouseido.mhlw.go.jp/znk-web/juminkanja/S2430/initialize?prefCd=29&kikanCd=1002800000&kikanKbn=1", "url2": "http://www.takai-hp.com.", "内容": "社会医療法人高清会　高井病院【1:病院】【診療科目:内科_脳神経内科_呼吸器内科_循環器内科_消化器内科_外科_脳神経外科_呼吸器外科_血管外科_心臓血管外科_消化器外科_乳腺外科_ペインクリニック外科_整形外科_形成外科_小児科_小児外科_産婦人科_眼科_耳鼻いんこう科_皮膚科_泌尿器科_歯科口腔外科_リハビリテーション科_放射線科_病理診断科_麻酔科】【一般病床数:324療養病床数:52精神病床数:0感染症病床数:0合計病床数:376】奈良県天理市蔵之庄町４７０番地８" }, "geometry": { "type": "Point", "coordinates": [ 135.828885, 34.634635 ] } },
{ "type": "Feature", "properties": { "ID": 2911002900000, "正式名称": "独立行政法人国立病院機構やまと精神医療センター", "機関区分": 1, "都道府県コード": 29, "市区町村コード": 203, "所在地": "奈良県大和郡山市小泉町２８１５", "緯度": 34.63121, "経度": 135.749756, "url": "https://www.iryou.teikyouseido.mhlw.go.jp/znk-web/juminkanja/S2430/initialize?prefCd=29&kikanCd=1002900000&kikanKbn=1", "url2": "https://yamato.hosp.go.jp", "内容": "独立行政法人国立病院機構やまと精神医療センター【1:病院】【診療科目:脳神経内科_精神科_心療内科】【一般病床数:100療養病床数:0精神病床数:183感染症病床数:0合計病床数:283】奈良県大和郡山市小泉町２８１５" }, "geometry": { "type": "Point", "coordinates": [ 135.749756, 34.63121 ] } },
{ "type": "Feature", "properties": { "ID": 2911003000000, "正式名称": "独立行政法人地域医療機能推進機構　大和郡山病院", "機関区分": 1, "都道府県コード": 29, "市区町村コード": 203, "所在地": "奈良県大和郡山市朝日町１－６２", "緯度": 34.64732, "経度": 135.780058, "url": "https://www.iryou.teikyouseido.mhlw.go.jp/znk-web/juminkanja/S2430/initialize?prefCd=29&kikanCd=1003000000&kikanKbn=1", "url2": "http://yamatokoriyama.jcho.go.jp", "内容": "独立行政法人地域医療機能推進機構　大和郡山病院【1:病院】【診療科目:内科_糖尿病・代謝内科_脳神経内科_呼吸器内科_循環器内科_消化器内科_外科_消化器外科_整形外科_小児科_産婦人科_眼科_耳鼻いんこう科_皮膚科_泌尿器科_リハビリテーション科_放射線科_麻酔科】【一般病床数:223療養病床数:0精神病床数:0感染症病床数:0合計病床数:223】奈良県大和郡山市朝日町１－６２" }, "geometry": { "type": "Point", "coordinates": [ 135.780058, 34.64732 ] } },
{ "type": "Feature", "properties": { "ID": 2911003100000, "正式名称": "社会医療法人　田北会　田北病院", "機関区分": 1, "都道府県コード": 29, "市区町村コード": 203, "所在地": "奈良県大和郡山市城南町２－１３", "緯度": 34.646236, "経度": 135.77617, "url": "https://www.iryou.teikyouseido.mhlw.go.jp/znk-web/juminkanja/S2430/initialize?prefCd=29&kikanCd=1003100000&kikanKbn=1", "url2": "http://www.takitakai.or.jp", "内容": "社会医療法人　田北会　田北病院【1:病院】【診療科目:内科_循環器内科_消化器内科_外科_脳神経外科_整形外科_形成外科_泌尿器科_歯科口腔外科_リハビリテーション科_放射線科_麻酔科】【一般病床数:122療養病床数:88精神病床数:0感染症病床数:0合計病床数:210】奈良県大和郡山市城南町２－１３" }, "geometry": { "type": "Point", "coordinates": [ 135.77617, 34.646236 ] } },
{ "type": "Feature", "properties": { "ID": 2911003200000, "正式名称": "医療法人藤和会藤村病院", "機関区分": 1, "都道府県コード": 29, "市区町村コード": 203, "所在地": "奈良県大和郡山市北郡山町１０４－３", "緯度": 34.655624, "経度": 135.784113, "url": "https://www.iryou.teikyouseido.mhlw.go.jp/znk-web/juminkanja/S2430/initialize?prefCd=29&kikanCd=1003200000&kikanKbn=1", "url2": "https://www.touwakai.or.jp", "内容": "医療法人藤和会藤村病院【1:病院】【診療科目:内科_血液内科_呼吸器内科_循環器内科_消化器内科_心療内科_リハビリテーション科_放射線科】【一般病床数:0療養病床数:45精神病床数:0感染症病床数:0合計病床数:45】奈良県大和郡山市北郡山町１０４－３" }, "geometry": { "type": "Point", "coordinates": [ 135.784113, 34.655624 ] } },
{ "type": "Feature", "properties": { "ID": 2911003300000, "正式名称": "郡山青藍病院", "機関区分": 1, "都道府県コード": 29, "市区町村コード": 203, "所在地": "奈良県大和郡山市本庄町１－１", "緯度": 34.637737, "経度": 135.785391, "url": "https://www.iryou.teikyouseido.mhlw.go.jp/znk-web/juminkanja/S2430/initialize?prefCd=29&kikanCd=1003300000&kikanKbn=1", "url2": "www.seiran.or.jp", "内容": "郡山青藍病院【1:病院】【診療科目:内科_脳神経内科_呼吸器内科_循環器内科_消化器内科_外科_脳神経外科_心臓血管外科_消化器外科_肛門外科_整形外科_形成外科_皮膚科_泌尿器科_リハビリテーション科_放射線科_麻酔科】【一般病床数:100療養病床数:40精神病床数:0感染症病床数:0合計病床数:140】奈良県大和郡山市本庄町１－１" }, "geometry": { "type": "Point", "coordinates": [ 135.785391, 34.637737 ] } },
{ "type": "Feature", "properties": { "ID": 2911003400000, "正式名称": "医療法人厚生会　奈良厚生会病院", "機関区分": 1, "都道府県コード": 29, "市区町村コード": 203, "所在地": "奈良県大和郡山市椎木町７６９－３", "緯度": 34.608295, "経度": 135.768649, "url": "https://www.iryou.teikyouseido.mhlw.go.jp/znk-web/juminkanja/S2430/initialize?prefCd=29&kikanCd=1003400000&kikanKbn=1", "url2": "https://nara-koseikai.or.jp", "内容": "医療法人厚生会　奈良厚生会病院【1:病院】【診療科目:内科_整形外科_皮膚科_リハビリテーション科】【一般病床数:60療養病床数:0精神病床数:0感染症病床数:0合計病床数:60】奈良県大和郡山市椎木町７６９－３" }, "geometry": { "type": "Point", "coordinates": [ 135.768649, 34.608295 ] } },
{ "type": "Feature", "properties": { "ID": 2911003600000, "正式名称": "医療法人和幸会阪奈中央病院", "機関区分": 1, "都道府県コード": 29, "市区町村コード": 209, "所在地": "奈良県生駒市俵口町７４１番地", "緯度": 34.706553, "経度": 135.697306, "url": "https://www.iryou.teikyouseido.mhlw.go.jp/znk-web/juminkanja/S2430/initialize?prefCd=29&kikanCd=1003600000&kikanKbn=1", "url2": "http://www.wakoucai.or.jp/hanna-hp/", "内容": "医療法人和幸会阪奈中央病院【1:病院】【診療科目:内科_脳神経内科_呼吸器内科_循環器内科_消化器内科_漢方内科_外科_脳神経外科_呼吸器外科_心臓血管外科_整形外科_小児科_眼科_皮膚科_泌尿器科_精神科_歯科口腔外科_リハビリテーション科_放射線科_救急科_麻酔科】【一般病床数:109療養病床数:90精神病床数:0感染症病床数:0合計病床数:199】奈良県生駒市俵口町７４１番地" }, "geometry": { "type": "Point", "coordinates": [ 135.697306, 34.706553 ] } },
{ "type": "Feature", "properties": { "ID": 2911003700000, "正式名称": "医療法人学芳会倉病院", "機関区分": 1, "都道府県コード": 29, "市区町村コード": 209, "所在地": "奈良県生駒市本町１－７", "緯度": 34.691813, "経度": 135.698868, "url": "https://www.iryou.teikyouseido.mhlw.go.jp/znk-web/juminkanja/S2430/initialize?prefCd=29&kikanCd=1003700000&kikanKbn=1", "url2": "http://www.kura-hp.com/index.html", "内容": "医療法人学芳会倉病院【1:病院】【診療科目:内科_整形外科_リハビリテーション科】【一般病床数:60療養病床数:0精神病床数:0感染症病床数:0合計病床数:60】奈良県生駒市本町１－７" }, "geometry": { "type": "Point", "coordinates": [ 135.698868, 34.691813 ] } },
{ "type": "Feature", "properties": { "ID": 2911003800000, "正式名称": "医療法人社団松下会　東生駒病院", "機関区分": 1, "都道府県コード": 29, "市区町村コード": 209, "所在地": "奈良県生駒市辻町４－１", "緯度": 34.699563, "経度": 135.708145, "url": "https://www.iryou.teikyouseido.mhlw.go.jp/znk-web/juminkanja/S2430/initialize?prefCd=29&kikanCd=1003800000&kikanKbn=1", "url2": "https://www.allpines.jp/higashiikoma/access/access.html", "内容": "医療法人社団松下会　東生駒病院【1:病院】【診療科目:内科_小児リハビリテーション_リハビリテーション科】【一般病床数:73療養病床数:48精神病床数:0感染症病床数:0合計病床数:121】奈良県生駒市辻町４－１" }, "geometry": { "type": "Point", "coordinates": [ 135.708145, 34.699563 ] } },
{ "type": "Feature", "properties": { "ID": 2911003900000, "正式名称": "医療法人社団松下会　白庭病院", "機関区分": 1, "都道府県コード": 29, "市区町村コード": 209, "所在地": "奈良県生駒市白庭台６丁目１０番１号", "緯度": 34.720935, "経度": 135.717312, "url": "https://www.iryou.teikyouseido.mhlw.go.jp/znk-web/juminkanja/S2430/initialize?prefCd=29&kikanCd=1003900000&kikanKbn=1", "url2": "http://www.allpines.jp", "内容": "医療法人社団松下会　白庭病院【1:病院】【診療科目:内科_脳神経内科_外科_脳神経外科_整形外科_眼科_皮膚科_泌尿器科_リハビリテーション科_放射線科_麻酔科】【一般病床数:150療養病床数:0精神病床数:0感染症病床数:0合計病床数:150】奈良県生駒市白庭台６丁目１０番１号" }, "geometry": { "type": "Point", "coordinates": [ 135.717312, 34.720935 ] } },
{ "type": "Feature", "properties": { "ID": 2911004000000, "正式名称": "近畿大学奈良病院", "機関区分": 1, "都道府県コード": 29, "市区町村コード": 209, "所在地": "奈良県生駒市乙田町１２４８ー１", "緯度": 34.651133, "経度": 135.715503, "url": "https://www.iryou.teikyouseido.mhlw.go.jp/znk-web/juminkanja/S2430/initialize?prefCd=29&kikanCd=1004000000&kikanKbn=1", "url2": "https://www.med.kindai.ac.jp/nara/", "内容": "近畿大学奈良病院【1:病院】【診療科目:内科_血液内科_糖尿病・内分泌内科_脳神経内科_呼吸器内科_循環器内科_消化器内科_腎臓内科_腫瘍内科_緩和ケア内科_脳神経外科_呼吸器外科_心臓血管外科_消化器外科_乳腺・内分泌外科_整形外科_形成外科_美容外科_小児科_小児外科_産婦人科_眼科_頭頸部・耳鼻いんこう科_皮膚科_泌尿器科_精神科_歯科口腔外科_アレルギー科_リウマチ科_放射線科_病理診断科_麻酔科】【一般病床数:518療養病床数:0精神病床数:0感染症病床数:0合計病床数:518】奈良県生駒市乙田町１２４８ー１" }, "geometry": { "type": "Point", "coordinates": [ 135.715503, 34.651133 ] } },
{ "type": "Feature", "properties": { "ID": 2911004100000, "正式名称": "奈良県西和医療センター", "機関区分": 1, "都道府県コード": 29, "市区町村コード": 343, "所在地": "奈良県生駒郡三郷町三室１－１４－１６", "緯度": 34.601101, "経度": 135.710483, "url": "https://www.iryou.teikyouseido.mhlw.go.jp/znk-web/juminkanja/S2430/initialize?prefCd=29&kikanCd=1004100000&kikanKbn=1", "url2": "http://seiwa-mc.jp/", "内容": "奈良県西和医療センター【1:病院】【診療科目:内科_感染症内科_糖尿病内科_糖尿病・内分泌内科_脳神経内科_呼吸器内科_循環器内科_消化器内科_腎臓内科_腫瘍内科_外科_脳神経外科_脳外科_循環器外科_心臓血管外科_消化器外科_乳腺外科_整形外科_形成外科_小児科_産婦人科_眼科_耳鼻いんこう科_皮膚科_泌尿器科_なし_リハビリテーション科_放射線科_麻酔科】【一般病床数:300療養病床数:0精神病床数:0感染症病床数:0合計病床数:300】奈良県生駒郡三郷町三室１－１４－１６" }, "geometry": { "type": "Point", "coordinates": [ 135.710483, 34.601101 ] } },
{ "type": "Feature", "properties": { "ID": 2911004200000, "正式名称": "一般財団法人　信貴山病院　ハートランドしぎさん", "機関区分": 1, "都道府県コード": 29, "市区町村コード": 343, "所在地": "奈良県生駒郡三郷町勢野北４－１３－１", "緯度": 34.608044, "経度": 135.684818, "url": "https://www.iryou.teikyouseido.mhlw.go.jp/znk-web/juminkanja/S2430/initialize?prefCd=29&kikanCd=1004200000&kikanKbn=1", "url2": "http://www.heartland.or.jp/", "内容": "一般財団法人　信貴山病院　ハートランドしぎさん【1:病院】【診療科目:内科_神経内科_皮膚科_精神科_心療内科_歯科_放射線科】【一般病床数:0療養病床数:47精神病床数:653感染症病床数:0合計病床数:700】奈良県生駒郡三郷町勢野北４－１３－１" }, "geometry": { "type": "Point", "coordinates": [ 135.684818, 34.608044 ] } },
{ "type": "Feature", "properties": { "ID": 2911004300000, "正式名称": "公立大学法人　奈良県立医科大学附属病院", "機関区分": 1, "都道府県コード": 29, "市区町村コード": 205, "所在地": "奈良県橿原市四条町８４０", "緯度": 34.503863, "経度": 135.79223, "url": "https://www.iryou.teikyouseido.mhlw.go.jp/znk-web/juminkanja/S2430/initialize?prefCd=29&kikanCd=1004300000&kikanKbn=1", "url2": "http://www.naramed-u.ac.jp/~hp/", "内容": "公立大学法人　奈良県立医科大学附属病院【1:病院】【診療科目:感染症内科_血液内科_糖尿病・内分泌内科_脳神経内科_呼吸器内科_循環器内科_消化器内科_腎臓内科_腫瘍内科_総合診療科_脳神経外科_呼吸器外科_心臓血管外科_消化器外科_乳腺外科_整形外科_形成外科_小児科_小児外科_産婦人科_眼科_頭頸部・耳鼻いんこう科_皮膚科_泌尿器科_精神科_歯科口腔外科_リハビリテーション科_放射線治療科_病理診断科_救急科_麻酔科_放射線・核医学科】【一般病床数:875療養病床数:0精神病床数:108感染症病床数:9合計病床数:992】奈良県橿原市四条町８４０" }, "geometry": { "type": "Point", "coordinates": [ 135.79223, 34.503863 ] } },
{ "type": "Feature", "properties": { "ID": 2911004500000, "正式名称": "医療法人橿原友紘会　大和橿原病院", "機関区分": 1, "都道府県コード": 29, "市区町村コード": 205, "所在地": "奈良県橿原市石川町８１", "緯度": 34.484587, "経度": 135.797286, "url": "https://www.iryou.teikyouseido.mhlw.go.jp/znk-web/juminkanja/S2430/initialize?prefCd=29&kikanCd=1004500000&kikanKbn=1", "url2": "http://www.yamato-kashihara-hp.or.jp/", "内容": "医療法人橿原友紘会　大和橿原病院【1:病院】【診療科目:内科_循環器内科_消化器内科_外科_脳神経外科_整形外科_眼科_耳鼻いんこう科_皮膚科_泌尿器科_リハビリテーション科_放射線科】【一般病床数:149療養病床数:0精神病床数:0感染症病床数:0合計病床数:149】奈良県橿原市石川町８１" }, "geometry": { "type": "Point", "coordinates": [ 135.797286, 34.484587 ] } },
{ "type": "Feature", "properties": { "ID": 2911004600000, "正式名称": "医療法人　桂会　平尾病院", "機関区分": 1, "都道府県コード": 29, "市区町村コード": 205, "所在地": "奈良県橿原市兵部町６－２８", "緯度": 34.505446, "経度": 135.792619, "url": "https://www.iryou.teikyouseido.mhlw.go.jp/znk-web/juminkanja/S2430/initialize?prefCd=29&kikanCd=1004600000&kikanKbn=1", "url2": "http://www.hiraohos.or.jp", "内容": "医療法人　桂会　平尾病院【1:病院】【診療科目:内科_外科_皮膚科_泌尿器科_リハビリテーション科_放射線科_麻酔科】【一般病床数:99療養病床数:0精神病床数:0感染症病床数:0合計病床数:99】奈良県橿原市兵部町６－２８" }, "geometry": { "type": "Point", "coordinates": [ 135.792619, 34.505446 ] } },
{ "type": "Feature", "properties": { "ID": 2911004700000, "正式名称": "医療法人　一路会　錦織病院", "機関区分": 1, "都道府県コード": 29, "市区町村コード": 205, "所在地": "奈良県橿原市木原町７７－１", "緯度": 34.512279, "経度": 135.801035, "url": "https://www.iryou.teikyouseido.mhlw.go.jp/znk-web/juminkanja/S2430/initialize?prefCd=29&kikanCd=1004700000&kikanKbn=1", "url2": "http://www.nishigori.jp", "内容": "医療法人　一路会　錦織病院【1:病院】【診療科目:内科_糖尿病・内分泌内科_循環器内科_消化器内科_外科_大腸・肛門外科_整形外科_皮膚科_放射線科】【一般病床数:30療養病床数:30精神病床数:0感染症病床数:0合計病床数:30】奈良県橿原市木原町７７－１" }, "geometry": { "type": "Point", "coordinates": [ 135.801035, 34.512279 ] } },
{ "type": "Feature", "properties": { "ID": 2911004800000, "正式名称": "社会医療法人　平成記念会　平成記念病院", "機関区分": 1, "都道府県コード": 29, "市区町村コード": 205, "所在地": "奈良県橿原市四条町８２７", "緯度": 34.504474, "経度": 135.790508, "url": "https://www.iryou.teikyouseido.mhlw.go.jp/znk-web/juminkanja/S2430/initialize?prefCd=29&kikanCd=1004800000&kikanKbn=1", "url2": "http://www.heisei-h.or.jp/heisei/index.html", "内容": "社会医療法人　平成記念会　平成記念病院【1:病院】【診療科目:内科_呼吸器内科_循環器内科_消化器内科_神経内科_脳神経外科_消化器外科_乳腺外科_整形外科_皮膚科_歯科口腔外科_リハビリテーション科_麻酔科】【一般病床数:180療養病床数:120精神病床数:0感染症病床数:0合計病床数:300】奈良県橿原市四条町８２７" }, "geometry": { "type": "Point", "coordinates": [ 135.790508, 34.504474 ] } },
{ "type": "Feature", "properties": { "ID": 2911004900000, "正式名称": "橿原リハビリテーション病院", "機関区分": 1, "都道府県コード": 29, "市区町村コード": 205, "所在地": "奈良県橿原市田中町１０４－１", "緯度": 34.48867, "経度": 135.803758, "url": "https://www.iryou.teikyouseido.mhlw.go.jp/znk-web/juminkanja/S2430/initialize?prefCd=29&kikanCd=1004900000&kikanKbn=1", "url2": "www.kashihara-reha.com/", "内容": "橿原リハビリテーション病院【1:病院】【診療科目:内科_リハビリテーション科】【一般病床数:0療養病床数:205精神病床数:0感染症病床数:0合計病床数:205】奈良県橿原市田中町１０４－１" }, "geometry": { "type": "Point", "coordinates": [ 135.803758, 34.48867 ] } },
{ "type": "Feature", "properties": { "ID": 2911005000000, "正式名称": "社会福祉法人　恩賜財団　済生会中和病院", "機関区分": 1, "都道府県コード": 29, "市区町村コード": 206, "所在地": "奈良県桜井市阿部３２３", "緯度": 34.507693, "経度": 135.839158, "url": "https://www.iryou.teikyouseido.mhlw.go.jp/znk-web/juminkanja/S2430/initialize?prefCd=29&kikanCd=1005000000&kikanKbn=1", "url2": "http://www.chuwa-hp.jp/", "内容": "社会福祉法人　恩賜財団　済生会中和病院【1:病院】【診療科目:内科_血液内科_糖尿病・内分泌内科_呼吸器内科_循環器内科_消化器内科_腎臓内科_外科_脳神経外科_呼吸器外科_心臓血管外科_消化器外科_乳腺外科_整形外科_形成外科_小児科_婦人科_眼科_耳鼻いんこう科_皮膚科_泌尿器科_精神科_リハビリテーション科_放射線科_病理診断科_麻酔科】【一般病床数:320療養病床数:0精神病床数:0感染症病床数:4合計病床数:324】奈良県桜井市阿部３２３" }, "geometry": { "type": "Point", "coordinates": [ 135.839158, 34.507693 ] } },
{ "type": "Feature", "properties": { "ID": 2911005100000, "正式名称": "山の辺病院", "機関区分": 1, "都道府県コード": 29, "市区町村コード": 206, "所在地": "奈良県桜井市草川６０番地", "緯度": 34.549553, "経度": 135.838752, "url": "https://www.iryou.teikyouseido.mhlw.go.jp/znk-web/juminkanja/S2430/initialize?prefCd=29&kikanCd=1005100000&kikanKbn=1", "url2": "https://www.yamanobe.or.jp", "内容": "山の辺病院【1:病院】【診療科目:内科_脳神経内科_外科_脳神経外科_整形外科_耳鼻いんこう科_皮膚科_リハビリテーション科】【一般病床数:49療養病床数:52精神病床数:0感染症病床数:0合計病床数:101】奈良県桜井市草川６０番地" }, "geometry": { "type": "Point", "coordinates": [ 135.838752, 34.549553 ] } },
{ "type": "Feature", "properties": { "ID": 2911005200000, "正式名称": "医療法人社団清心会桜井病院", "機関区分": 1, "都道府県コード": 29, "市区町村コード": 206, "所在地": "奈良県桜井市桜井９７３", "緯度": 34.511307, "経度": 135.84642, "url": "https://www.iryou.teikyouseido.mhlw.go.jp/znk-web/juminkanja/S2430/initialize?prefCd=29&kikanCd=1005200000&kikanKbn=1", "url2": "http://www.sakurai-hp.com", "内容": "医療法人社団清心会桜井病院【1:病院】【診療科目:小児科_産科_婦人科_眼科】【一般病床数:41療養病床数:0精神病床数:0感染症病床数:0合計病床数:41】奈良県桜井市桜井９７３" }, "geometry": { "type": "Point", "coordinates": [ 135.84642, 34.511307 ] } },
{ "type": "Feature", "properties": { "ID": 2911005300000, "正式名称": "国保中央病院", "機関区分": 1, "都道府県コード": 29, "市区町村コード": 363, "所在地": "奈良県磯城郡田原本町宮古４０４－１", "緯度": 34.562356, "経度": 135.777479, "url": "https://www.iryou.teikyouseido.mhlw.go.jp/znk-web/juminkanja/S2430/initialize?prefCd=29&kikanCd=1005300000&kikanKbn=1", "url2": "https://www.kokuho-hp.or.jp/", "内容": "国保中央病院【1:病院】【診療科目:内科_緩和ケア内科_外科_整形外科_小児科_皮膚科_泌尿器科_心療内科_リハビリテーション科_放射線科_麻酔科】【一般病床数:199療養病床数:0精神病床数:0感染症病床数:0合計病床数:199】奈良県磯城郡田原本町宮古４０４－１" }, "geometry": { "type": "Point", "coordinates": [ 135.777479, 34.562356 ] } },
{ "type": "Feature", "properties": { "ID": 2911005400000, "正式名称": "宇陀市立病院", "機関区分": 1, "都道府県コード": 29, "市区町村コード": 212, "所在地": "奈良県宇陀市榛原萩原８１５", "緯度": 34.530752, "経度": 135.960632, "url": "https://www.iryou.teikyouseido.mhlw.go.jp/znk-web/juminkanja/S2430/initialize?prefCd=29&kikanCd=1005400000&kikanKbn=1", "url2": "http://www.udacity-hp.jp", "内容": "宇陀市立病院【1:病院】【診療科目:内科_感染症内科_呼吸器内科_循環器内科_消化器内科_腎臓内科_神経内科_外科_整形外科_小児科_婦人科_眼科_耳鼻いんこう科_皮膚科_泌尿器科_精神科_なし_リハビリテーション科_放射線科_麻酔科】【一般病床数:176療養病床数:0精神病床数:0感染症病床数:0合計病床数:176】奈良県宇陀市榛原萩原８１５" }, "geometry": { "type": "Point", "coordinates": [ 135.960632, 34.530752 ] } },
{ "type": "Feature", "properties": { "ID": 2911005500000, "正式名称": "医療法人　中川会　飛鳥病院", "機関区分": 1, "都道府県コード": 29, "市区町村コード": 401, "所在地": "奈良県高市郡高取町与楽１１６０", "緯度": 34.465033, "経度": 135.778456, "url": "https://www.iryou.teikyouseido.mhlw.go.jp/znk-web/juminkanja/S2430/initialize?prefCd=29&kikanCd=1005500000&kikanKbn=1", "url2": "https://www.asuka-hp.or.jp", "内容": "医療法人　中川会　飛鳥病院【1:病院】【診療科目:内科_精神科_心療内科_歯科_放射線科】【一般病床数:0療養病床数:0精神病床数:367感染症病床数:0合計病床数:367】奈良県高市郡高取町与楽１１６０" }, "geometry": { "type": "Point", "coordinates": [ 135.778456, 34.465033 ] } },
{ "type": "Feature", "properties": { "ID": 2911005600000, "正式名称": "奈良県総合リハビリテーションセンター", "機関区分": 1, "都道府県コード": 29, "市区町村コード": 363, "所在地": "奈良県磯城郡田原本町大字多７２２番地", "緯度": 34.535929, "経度": 135.784908, "url": "https://www.iryou.teikyouseido.mhlw.go.jp/znk-web/juminkanja/S2430/initialize?prefCd=29&kikanCd=1005600000&kikanKbn=1", "url2": "http://www.nara-pho.jp/reha/", "内容": "奈良県総合リハビリテーションセンター【1:病院】【診療科目:内科_神経内科_整形外科_小児科_眼科_耳鼻いんこう科_泌尿器科_精神科_リハビリテーション科_放射線科】【一般病床数:100療養病床数:0精神病床数:0感染症病床数:0合計病床数:100】奈良県磯城郡田原本町大字多７２２番地" }, "geometry": { "type": "Point", "coordinates": [ 135.784908, 34.535929 ] } },
{ "type": "Feature", "properties": { "ID": 2911005700000, "正式名称": "医療法人拓誠会辻村病院", "機関区分": 1, "都道府県コード": 29, "市区町村コード": 212, "所在地": "奈良県宇陀市菟田野松井７－１", "緯度": 34.472619, "経度": 135.976022, "url": "https://www.iryou.teikyouseido.mhlw.go.jp/znk-web/juminkanja/S2430/initialize?prefCd=29&kikanCd=1005700000&kikanKbn=1", "url2": "http://www.tsujimurahp.jp/", "内容": "医療法人拓誠会辻村病院【1:病院】【診療科目:内科_呼吸器内科_消化器内科_外科_脳神経外科_整形外科_小児科_皮膚科_リハビリテーション科_放射線科】【一般病床数:26療養病床数:40精神病床数:0感染症病床数:0合計病床数:66】奈良県宇陀市菟田野松井７－１" }, "geometry": { "type": "Point", "coordinates": [ 135.976022, 34.472619 ] } },
{ "type": "Feature", "properties": { "ID": 2911005800000, "正式名称": "大和高田市立病院", "機関区分": 1, "都道府県コード": 29, "市区町村コード": 202, "所在地": "奈良県大和高田市礒野北町１番１号", "緯度": 34.509945, "経度": 135.736707, "url": "https://www.iryou.teikyouseido.mhlw.go.jp/znk-web/juminkanja/S2430/initialize?prefCd=29&kikanCd=1005800000&kikanKbn=1", "url2": "https://ym-hp.yamatotakada.nara.jp", "内容": "大和高田市立病院【1:病院】【診療科目:内科_糖尿病内科_脳神経内科_呼吸器内科_循環器内科_消化器内科_腎臓内科_外科_脳神経外科_消化器外科_乳腺外科_整形外科_小児科_産婦人科_眼科_耳鼻いんこう科_皮膚科_泌尿器科_リハビリテーション科_放射線科_放射線治療科_病理診断科_臨床検査科_麻酔科】【一般病床数:320療養病床数:0精神病床数:0感染症病床数:0合計病床数:320】奈良県大和高田市礒野北町１番１号" }, "geometry": { "type": "Point", "coordinates": [ 135.736707, 34.509945 ] } },
{ "type": "Feature", "properties": { "ID": 2911006000000, "正式名称": "医療法人　興生会　吉本整形外科外科病院", "機関区分": 1, "都道府県コード": 29, "市区町村コード": 211, "所在地": "奈良県葛城市疋田６７６－１", "緯度": 34.498806, "経度": 135.728182, "url": "https://www.iryou.teikyouseido.mhlw.go.jp/znk-web/juminkanja/S2430/initialize?prefCd=29&kikanCd=1006000000&kikanKbn=1", "url2": "www.yoshimoto-seikei.com", "内容": "医療法人　興生会　吉本整形外科外科病院【1:病院】【診療科目:内科_外科_脳神経外科_整形外科_リハビリテーション科_麻酔科】【一般病床数:57療養病床数:0精神病床数:0感染症病床数:0合計病床数:57】奈良県葛城市疋田６７６－１" }, "geometry": { "type": "Point", "coordinates": [ 135.728182, 34.498806 ] } },
{ "type": "Feature", "properties": { "ID": 2911006100000, "正式名称": "医療法人社団憲仁会　中井記念病院", "機関区分": 1, "都道府県コード": 29, "市区町村コード": 202, "所在地": "奈良県大和高田市根成柿１５１－１", "緯度": 34.482976, "経度": 135.759567, "url": "https://www.iryou.teikyouseido.mhlw.go.jp/znk-web/juminkanja/S2430/initialize?prefCd=29&kikanCd=1006100000&kikanKbn=1", "url2": "http://www.nakai-hospital.com/", "内容": "医療法人社団憲仁会　中井記念病院【1:病院】【診療科目:内科_糖尿病内科_循環器内科_消化器内科_腎臓内科_外科_脳神経外科_消化器外科_肛門外科_整形外科_眼科_精神科_リハビリテーション科】【一般病床数:80療養病床数:0精神病床数:0感染症病床数:0合計病床数:80】奈良県大和高田市根成柿１５１－１" }, "geometry": { "type": "Point", "coordinates": [ 135.759567, 34.482976 ] } },
{ "type": "Feature", "properties": { "ID": 2911006200000, "正式名称": "社会福祉法人恩賜財団済生会御所病院", "機関区分": 1, "都道府県コード": 29, "市区町村コード": 208, "所在地": "奈良県御所市三室２０", "緯度": 34.461561, "経度": 135.73096, "url": "https://www.iryou.teikyouseido.mhlw.go.jp/znk-web/juminkanja/S2430/initialize?prefCd=29&kikanCd=1006200000&kikanKbn=1", "url2": "http://www.saiseikai-gose.jp/", "内容": "社会福祉法人恩賜財団済生会御所病院【1:病院】【診療科目:内科_感染症内科_外科_脳神経外科_消化器外科_整形外科_産婦人科_眼科_耳鼻いんこう科_皮膚科_泌尿器科_リハビリテーション科_放射線科_麻酔科】【一般病床数:150療養病床数:0精神病床数:0感染症病床数:0合計病床数:150】奈良県御所市三室２０" }, "geometry": { "type": "Point", "coordinates": [ 135.73096, 34.461561 ] } },
{ "type": "Feature", "properties": { "ID": 2911006300000, "正式名称": "医療法人鴻池会　秋津鴻池病院", "機関区分": 1, "都道府県コード": 29, "市区町村コード": 208, "所在地": "奈良県御所市池之内１０６４", "緯度": 34.450951, "経度": 135.751486, "url": "https://www.iryou.teikyouseido.mhlw.go.jp/znk-web/juminkanja/S2430/initialize?prefCd=29&kikanCd=1006300000&kikanKbn=1", "url2": "http://www.kounoikekai.com/", "内容": "医療法人鴻池会　秋津鴻池病院【1:病院】【診療科目:内科_精神科_リハビリテーション科】【一般病床数:40療養病床数:81精神病床数:400感染症病床数:0合計病床数:521】奈良県御所市池之内１０６４" }, "geometry": { "type": "Point", "coordinates": [ 135.751486, 34.450951 ] } },
{ "type": "Feature", "properties": { "ID": 2911006400000, "正式名称": "医療法人向聖台會　當麻病院", "機関区分": 1, "都道府県コード": 29, "市区町村コード": 211, "所在地": "奈良県葛城市染野５２０", "緯度": 34.521387, "経度": 135.691349, "url": "https://www.iryou.teikyouseido.mhlw.go.jp/znk-web/juminkanja/S2430/initialize?prefCd=29&kikanCd=1006400000&kikanKbn=1", "url2": "http://kohseidaikai.or.jp", "内容": "医療法人向聖台會　當麻病院【1:病院】【診療科目:精神科】【一般病床数:0療養病床数:0精神病床数:214感染症病床数:0合計病床数:214】奈良県葛城市染野５２０" }, "geometry": { "type": "Point", "coordinates": [ 135.691349, 34.521387 ] } },
{ "type": "Feature", "properties": { "ID": 2911006500000, "正式名称": "医療法人弘生会関屋病院", "機関区分": 1, "都道府県コード": 29, "市区町村コード": 210, "所在地": "奈良県香芝市関屋北５－１１－１", "緯度": 34.561493, "経度": 135.669405, "url": "https://www.iryou.teikyouseido.mhlw.go.jp/znk-web/juminkanja/S2430/initialize?prefCd=29&kikanCd=1006500000&kikanKbn=1", "url2": "https://kouseikai-sekiya.or.jp/", "内容": "医療法人弘生会関屋病院【1:病院】【診療科目:内科_神経内科_精神科】【一般病床数:0療養病床数:306精神病床数:0感染症病床数:0合計病床数:306】奈良県香芝市関屋北５－１１－１" }, "geometry": { "type": "Point", "coordinates": [ 135.669405, 34.561493 ] } },
{ "type": "Feature", "properties": { "ID": 2911006600000, "正式名称": "医療法人果恵会　恵王病院", "機関区分": 1, "都道府県コード": 29, "市区町村コード": 425, "所在地": "奈良県北葛城郡王寺町王寺２丁目１０－１８", "緯度": 34.596074, "経度": 135.702761, "url": "https://www.iryou.teikyouseido.mhlw.go.jp/znk-web/juminkanja/S2430/initialize?prefCd=29&kikanCd=1006600000&kikanKbn=1", "url2": "http://www.kakeikai-keiou.jp", "内容": "医療法人果恵会　恵王病院【1:病院】【診療科目:内科_胃腸内科_外科_脳神経外科_整形外科_形成外科_リハビリテーション科】【一般病床数:105療養病床数:0精神病床数:0感染症病床数:0合計病床数:105】奈良県北葛城郡王寺町王寺２丁目１０－１８" }, "geometry": { "type": "Point", "coordinates": [ 135.702761, 34.596074 ] } },
{ "type": "Feature", "properties": { "ID": 2911006700000, "正式名称": "医療法人友紘会　奈良友紘会病院", "機関区分": 1, "都道府県コード": 29, "市区町村コード": 424, "所在地": "奈良県北葛城郡上牧町服部台５丁目２－１", "緯度": 34.568966, "経度": 135.715456, "url": "https://www.iryou.teikyouseido.mhlw.go.jp/znk-web/juminkanja/S2430/initialize?prefCd=29&kikanCd=1006700000&kikanKbn=1", "url2": "http://www.yukoukai.or.jp", "内容": "医療法人友紘会　奈良友紘会病院【1:病院】【診療科目:内科_外科_脳神経外科_心臓血管外科_整形外科_形成外科_眼科_耳鼻いんこう科_泌尿器科_歯科_歯科口腔外科_小児歯科_リハビリテーション科】【一般病床数:192療養病床数:0精神病床数:0感染症病床数:0合計病床数:192】奈良県北葛城郡上牧町服部台５丁目２－１" }, "geometry": { "type": "Point", "coordinates": [ 135.715456, 34.568966 ] } },
{ "type": "Feature", "properties": { "ID": 2911006800000, "正式名称": "西大和リハビリテーション病院", "機関区分": 1, "都道府県コード": 29, "市区町村コード": 424, "所在地": "奈良県北葛城郡上牧町ささゆり台３丁目２－２", "緯度": 34.566494, "経度": 135.718678, "url": "https://www.iryou.teikyouseido.mhlw.go.jp/znk-web/juminkanja/S2430/initialize?prefCd=29&kikanCd=1006800000&kikanKbn=1", "url2": "http.//www.nishiyamato.net/", "内容": "西大和リハビリテーション病院【1:病院】【診療科目:内科_循環器内科_神経内科_リハビリテーション科】【一般病床数:0療養病床数:199精神病床数:0感染症病床数:0合計病床数:199】奈良県北葛城郡上牧町ささゆり台３丁目２－２" }, "geometry": { "type": "Point", "coordinates": [ 135.718678, 34.566494 ] } },
{ "type": "Feature", "properties": { "ID": 2911006900000, "正式名称": "社会医療法人　高清会　香芝旭ヶ丘病院", "機関区分": 1, "都道府県コード": 29, "市区町村コード": 210, "所在地": "奈良県香芝市上中８３９", "緯度": 34.553467, "経度": 135.699069, "url": "https://www.iryou.teikyouseido.mhlw.go.jp/znk-web/juminkanja/S2430/initialize?prefCd=29&kikanCd=1006900000&kikanKbn=1", "url2": "http://www.kashiba-asahi.jp", "内容": "社会医療法人　高清会　香芝旭ヶ丘病院【1:病院】【診療科目:内科_循環器内科_消化器内科_脳神経外科_心臓血管外科_消化器外科_整形外科_泌尿器科_リウマチ科_リハビリテーション科_麻酔科】【一般病床数:99療養病床数:0精神病床数:0感染症病床数:0合計病床数:99】奈良県香芝市上中８３９" }, "geometry": { "type": "Point", "coordinates": [ 135.699069, 34.553467 ] } },
{ "type": "Feature", "properties": { "ID": 2911007100000, "正式名称": "医療法人　郁慈会　服部記念病院", "機関区分": 1, "都道府県コード": 29, "市区町村コード": 424, "所在地": "奈良県北葛城郡上牧町上牧４２４４", "緯度": 34.559133, "経度": 135.710568, "url": "https://www.iryou.teikyouseido.mhlw.go.jp/znk-web/juminkanja/S2430/initialize?prefCd=29&kikanCd=1007100000&kikanKbn=1", "url2": "http://www.hattorin.jp/", "内容": "医療法人　郁慈会　服部記念病院【1:病院】【診療科目:内科_糖尿病内科_脳神経内科_循環器内科_外科_整形外科_婦人科_眼科_精神科_歯科_歯科口腔外科_リハビリテーション科】【一般病床数:120療養病床数:42精神病床数:0感染症病床数:0合計病床数:162】奈良県北葛城郡上牧町上牧４２４４" }, "geometry": { "type": "Point", "coordinates": [ 135.710568, 34.559133 ] } },
{ "type": "Feature", "properties": { "ID": 2911007300000, "正式名称": "南和広域医療企業団吉野病院", "機関区分": 1, "都道府県コード": 29, "市区町村コード": 441, "所在地": "奈良県吉野郡吉野町丹治１３０－１", "緯度": 34.389793, "経度": 135.847398, "url": "https://www.iryou.teikyouseido.mhlw.go.jp/znk-web/juminkanja/S2430/initialize?prefCd=29&kikanCd=1007300000&kikanKbn=1", "url2": "https://nanwairyou.jp/", "内容": "南和広域医療企業団吉野病院【1:病院】【診療科目:内科_整形外科】【一般病床数:50療養病床数:46精神病床数:0感染症病床数:0合計病床数:96】奈良県吉野郡吉野町丹治１３０－１" }, "geometry": { "type": "Point", "coordinates": [ 135.847398, 34.389793 ] } },
{ "type": "Feature", "properties": { "ID": 2911007700000, "正式名称": "南和病院", "機関区分": 1, "都道府県コード": 29, "市区町村コード": 442, "所在地": "奈良県吉野郡大淀町福神１－１８１", "緯度": 34.39368, "経度": 135.754239, "url": "https://www.iryou.teikyouseido.mhlw.go.jp/znk-web/juminkanja/S2430/initialize?prefCd=29&kikanCd=1007700000&kikanKbn=1", "url2": "https://www.koujin.jp", "内容": "南和病院【1:病院】【診療科目:内科_人工透析内科_外科_脳神経外科_肛門外科_整形外科_皮膚科_泌尿器科_リハビリテーション科_麻酔科】【一般病床数:42療養病床数:78精神病床数:0感染症病床数:0合計病床数:120】奈良県吉野郡大淀町福神１－１８１" }, "geometry": { "type": "Point", "coordinates": [ 135.754239, 34.39368 ] } },
{ "type": "Feature", "properties": { "ID": 2911008000000, "正式名称": "万葉クリニック", "機関区分": 1, "都道府県コード": 29, "市区町村コード": 205, "所在地": "奈良県橿原市五井町２４７", "緯度": 34.504271, "経度": 135.777052, "url": "https://www.iryou.teikyouseido.mhlw.go.jp/znk-web/juminkanja/S2430/initialize?prefCd=29&kikanCd=1008000000&kikanKbn=1", "url2": "http://www.nanfu.or.jp/manyo-clinic.html", "内容": "万葉クリニック【1:病院】【診療科目:内科_皮膚科_精神科_心療内科_歯科】【一般病床数:0療養病床数:0精神病床数:240感染症病床数:0合計病床数:240】奈良県橿原市五井町２４７" }, "geometry": { "type": "Point", "coordinates": [ 135.777052, 34.504271 ] } },
{ "type": "Feature", "properties": { "ID": 2911100700000, "正式名称": "南和広域医療企業団五條病院", "機関区分": 1, "都道府県コード": 29, "市区町村コード": 207, "所在地": "奈良県五條市野原西５丁目２－５９", "緯度": 34.341188, "経度": 135.698968, "url": "https://www.iryou.teikyouseido.mhlw.go.jp/znk-web/juminkanja/S2430/initialize?prefCd=29&kikanCd=1100700000&kikanKbn=1", "url2": "http://nanwairyou.jp/gojo", "内容": "南和広域医療企業団五條病院【1:病院】【診療科目:内科_整形外科_皮膚科】【一般病床数:45療養病床数:45精神病床数:0感染症病床数:0合計病床数:90】奈良県五條市野原西５丁目２－５９" }, "geometry": { "type": "Point", "coordinates": [ 135.698968, 34.341188 ] } },
{ "type": "Feature", "properties": { "ID": 2911307400000, "正式名称": "平成まほろば病院", "機関区分": 1, "都道府県コード": 29, "市区町村コード": 205, "所在地": "奈良県橿原市四分町８２－１", "緯度": 34.496577, "経度": 135.798262, "url": "https://www.iryou.teikyouseido.mhlw.go.jp/znk-web/juminkanja/S2430/initialize?prefCd=29&kikanCd=1307400000&kikanKbn=1", "url2": "http://www.heisei-h.or.jp/mahoroba/", "内容": "平成まほろば病院【1:病院】【診療科目:内科_リハビリテーション科】【一般病床数:0療養病床数:116精神病床数:0感染症病床数:0合計病床数:116】奈良県橿原市四分町８２－１" }, "geometry": { "type": "Point", "coordinates": [ 135.798262, 34.496577 ] } },
{ "type": "Feature", "properties": { "ID": 2911311000000, "正式名称": "生駒市立病院", "機関区分": 1, "都道府県コード": 29, "市区町村コード": 209, "所在地": "奈良県生駒市東生駒１丁目６番地２", "緯度": 34.690744, "経度": 135.711803, "url": "https://www.iryou.teikyouseido.mhlw.go.jp/znk-web/juminkanja/S2430/initialize?prefCd=29&kikanCd=1311000000&kikanKbn=1", "url2": "https://ikoma.tokushukai.or.jp/", "内容": "生駒市立病院【1:病院】【診療科目:内科_糖尿病内科_循環器内科_消化器内科_外科_脳神経外科_血管外科_整形外科_形成外科_小児科_産婦人科_皮膚科_腎臓・泌尿器科_リハビリテーション科_放射線科_麻酔科】【一般病床数:210療養病床数:0精神病床数:0感染症病床数:0合計病床数:210】奈良県生駒市東生駒１丁目６番地２" }, "geometry": { "type": "Point", "coordinates": [ 135.711803, 34.690744 ] } },
{ "type": "Feature", "properties": { "ID": 2911312300000, "正式名称": "医療法人仁誠会　奈良セントラル病院", "機関区分": 1, "都道府県コード": 29, "市区町村コード": 201, "所在地": "奈良県奈良市石木町８００番地", "緯度": 34.66494, "経度": 135.757812, "url": "https://www.iryou.teikyouseido.mhlw.go.jp/znk-web/juminkanja/S2430/initialize?prefCd=29&kikanCd=1312300000&kikanKbn=1", "url2": "https://naracentral.com/", "内容": "医療法人仁誠会　奈良セントラル病院【1:病院】【診療科目:内科_呼吸器内科_神経内科_外科_脳神経外科_整形外科_リハビリテーション科_放射線科】【一般病床数:34療養病床数:77精神病床数:0感染症病床数:0合計病床数:111】奈良県奈良市石木町８００番地" }, "geometry": { "type": "Point", "coordinates": [ 135.757812, 34.66494 ] } },
{ "type": "Feature", "properties": { "ID": 2911319700000, "正式名称": "南奈良総合医療センター（災害拠点病院）", "機関区分": 1, "都道府県コード": 29, "市区町村コード": 442, "所在地": "奈良県吉野郡大淀町福神８－１", "緯度": 34.394242, "経度": 135.747652, "url": "https://www.iryou.teikyouseido.mhlw.go.jp/znk-web/juminkanja/S2430/initialize?prefCd=29&kikanCd=1319700000&kikanKbn=1", "url2": "http://nanwairyou.jp/", "内容": "南奈良総合医療センター（災害拠点病院）【1:病院】【診療科目:内科_感染症内科_血液内科_糖尿病内科_代謝・内分泌内科_脳神経内科_呼吸器内科_循環器内科_消化器内科_腎臓内科_外科_脳神経外科_呼吸器外科_整形外科_小児科_産婦人科_眼科_耳鼻いんこう科_皮膚科_泌尿器科_精神科_歯科口腔外科_リハビリテーション科_放射線科_病理診断科_救急科_麻酔科】【一般病床数:228療養病床数:0精神病床数:0感染症病床数:4合計病床数:232】奈良県吉野郡大淀町福神８－１" }, "geometry": { "type": "Point", "coordinates": [ 135.747652, 34.394242 ] } },
{ "type": "Feature", "properties": { "ID": 2911326700000, "正式名称": "医療法人藤井会　香芝生喜病院", "機関区分": 1, "都道府県コード": 29, "市区町村コード": 210, "所在地": "奈良県香芝市穴虫３３００－３", "緯度": 34.544776, "経度": 135.672845, "url": "https://www.iryou.teikyouseido.mhlw.go.jp/znk-web/juminkanja/S2430/initialize?prefCd=29&kikanCd=1326700000&kikanKbn=1", "url2": "http://www.kashibaseiki.fujiikai.jp/", "内容": "医療法人藤井会　香芝生喜病院【1:病院】【診療科目:内科_糖尿病内科_脳神経内科_呼吸器内科_循環器内科_消化器内科_外科_脳神経外科_呼吸器外科_消化器外科_乳腺外科_整形外科_形成外科_小児科_小児外科_婦人科_眼科_皮膚科_泌尿器科_リハビリテーション科_放射線科_救急科_麻酔科】【一般病床数:191療養病床数:50精神病床数:0感染症病床数:0合計病床数:241】奈良県香芝市穴虫３３００－３" }, "geometry": { "type": "Point", "coordinates": [ 135.672845, 34.544776 ] } }
]
}
