{
"type": "FeatureCollection",
"name": "geo_29_認知症対応型通所介護",
"crs": { "type": "name", "properties": { "name": "urn:ogc:def:crs:OGC:1.3:CRS84" } },
"features": [
{ "type": "Feature", "properties": { "内容": "ぽれぽれ登美ヶ丘【認知症対応型通所介護】奈良県奈良市登美ヶ丘２-２-１５", "url": "https://www.kaigokensaku.mhlw.go.jp/29/index.php?action_kouhyou_detail_004_kani=true&JigyosyoCd=2970102576-00&ServiceCd=720&Type=search", "url2": "www.porepore.co.jp" }, "geometry": { "type": "Point", "coordinates": [ 135.750081, 34.71206489999998 ] } },
{ "type": "Feature", "properties": { "内容": "認知症対応型デイサービスこと音【認知症対応型通所介護】奈良県奈良市朱雀１－７－１５", "url": "https://www.kaigokensaku.mhlw.go.jp/29/index.php?action_kouhyou_detail_004_kani=true&JigyosyoCd=2990100105-00&ServiceCd=720&Type=search", "url2": "www.takanohara-care.com" }, "geometry": { "type": "Point", "coordinates": [ 135.793250400000034, 34.7137724 ] } },
{ "type": "Feature", "properties": { "内容": "医療法人田北クリニック　共用型デイサービスあみ【認知症対応型通所介護】奈良県奈良市二条町２－３－１８", "url": "https://www.kaigokensaku.mhlw.go.jp/29/index.php?action_kouhyou_detail_004_kani=true&JigyosyoCd=2990100725-00&ServiceCd=720&Type=search", "url2": null }, "geometry": { "type": "Point", "coordinates": [ 135.788409300000012, 34.6931596 ] } },
{ "type": "Feature", "properties": { "内容": "ＬＩＳＴＥＮ株式会社【認知症対応型通所介護】法蓮町1348", "url": "https://www.kaigokensaku.mhlw.go.jp/29/index.php?action_kouhyou_detail_004_kani=true&JigyosyoCd=2990100238-00&ServiceCd=720&Type=search", "url2": "http://liste33.jp" }, "geometry": { "type": "Point", "coordinates": [ 135.827695100000028, 34.6930028 ] } },
{ "type": "Feature", "properties": { "内容": "デイサービス太陽　高天【認知症対応型通所介護】奈良県奈良市高天市町22-1エース高天", "url": "https://www.kaigokensaku.mhlw.go.jp/29/index.php?action_kouhyou_detail_004_kani=true&JigyosyoCd=2990100352-00&ServiceCd=720&Type=search", "url2": "http://www5.kcn.ne.jp/~ace-101/" }, "geometry": { "type": "Point", "coordinates": [ 135.825615, 34.6858675 ] } },
{ "type": "Feature", "properties": { "内容": "ミック登美ヶ丘デイサービスセンターあい【認知症対応型通所介護】奈良市押熊町2261", "url": "https://www.kaigokensaku.mhlw.go.jp/29/index.php?action_kouhyou_detail_004_kani=true&JigyosyoCd=2970103483-00&ServiceCd=720&Type=search", "url2": "http://www.mic-tomigaoka.com" }, "geometry": { "type": "Point", "coordinates": [ 135.761822599999959, 34.716641 ] } },
{ "type": "Feature", "properties": { "内容": "デイハウス八重桜【認知症対応型通所介護】奈良市法蓮町410-2", "url": "https://www.kaigokensaku.mhlw.go.jp/29/index.php?action_kouhyou_detail_004_kani=true&JigyosyoCd=2970103277-00&ServiceCd=720&Type=search", "url2": "https://www.yaezakura.co.jp" }, "geometry": { "type": "Point", "coordinates": [ 135.815743500000053, 34.691214 ] } },
{ "type": "Feature", "properties": { "内容": "サンタ・マリア【認知症対応型通所介護】奈良県奈良市朱雀４丁目３番地１０", "url": "https://www.kaigokensaku.mhlw.go.jp/29/index.php?action_kouhyou_detail_004_kani=true&JigyosyoCd=2970100414-00&ServiceCd=720&Type=search", "url2": "http://www.yozefu-home.or.jp/" }, "geometry": { "type": "Point", "coordinates": [ 135.798941300000024, 34.721077200000011 ] } },
{ "type": "Feature", "properties": { "内容": "デイホーム「桜」【認知症対応型通所介護】奈良市中山町１３２４－１", "url": "https://www.kaigokensaku.mhlw.go.jp/29/index.php?action_kouhyou_detail_004_kani=true&JigyosyoCd=2970102709-00&ServiceCd=720&Type=search", "url2": "http://www.nicecare-support.com/" }, "geometry": { "type": "Point", "coordinates": [ 135.769355160419877, 34.711476102235281 ] } },
{ "type": "Feature", "properties": { "内容": "「kumiki」【認知症対応型通所介護】奈良県奈良市中山町45－79", "url": "https://www.kaigokensaku.mhlw.go.jp/29/index.php?action_kouhyou_detail_004_kani=true&JigyosyoCd=2990100485-00&ServiceCd=720&Type=search", "url2": "https://www.n-aging.co.jp" }, "geometry": { "type": "Point", "coordinates": [ 135.770483099999979, 34.7084142 ] } },
{ "type": "Feature", "properties": { "内容": "くみきせかんど【認知症対応型通所介護】奈良県奈良市中山町西3-218", "url": "https://www.kaigokensaku.mhlw.go.jp/29/index.php?action_kouhyou_detail_004_kani=true&JigyosyoCd=2990190163-00&ServiceCd=720&Type=search", "url2": "https://www.n-aging.co.jp/" }, "geometry": { "type": "Point", "coordinates": [ 135.758021899999989, 34.7115933 ] } },
{ "type": "Feature", "properties": { "内容": "ベルライフ築山【認知症対応型通所介護】奈良県大和高田市築山696番地", "url": "https://www.kaigokensaku.mhlw.go.jp/29/index.php?action_kouhyou_detail_004_kani=true&JigyosyoCd=2990200061-00&ServiceCd=720&Type=search", "url2": "http://www.bellage.co.jp/" }, "geometry": { "type": "Point", "coordinates": [ 135.734205800000041, 34.5258837 ] } },
{ "type": "Feature", "properties": { "内容": "マイホーム矢田山さんち【認知症対応型通所介護】大和郡山市小泉町２８８２－１", "url": "https://www.kaigokensaku.mhlw.go.jp/29/index.php?action_kouhyou_detail_004_kani=true&JigyosyoCd=2970300642-00&ServiceCd=720&Type=search", "url2": "https://y-myhome.com" }, "geometry": { "type": "Point", "coordinates": [ 135.751372, 34.6278892 ] } },
{ "type": "Feature", "properties": { "内容": "ひびき認知症デイサービスセンター滝本【認知症対応型通所介護】奈良県天理市滝本町236", "url": "https://www.kaigokensaku.mhlw.go.jp/29/index.php?action_kouhyou_detail_004_kani=true&JigyosyoCd=2990400117-00&ServiceCd=720&Type=search", "url2": "http://www.tenjukai.jp" }, "geometry": { "type": "Point", "coordinates": [ 135.871714900000029, 34.5932761 ] } },
{ "type": "Feature", "properties": { "内容": "グループホーム　夢野家II【認知症対応型通所介護】奈良県橿原市東坊城町197番3", "url": "https://www.kaigokensaku.mhlw.go.jp/29/index.php?action_kouhyou_detail_004_kani=true&JigyosyoCd=2970500795-00&ServiceCd=720&Type=search", "url2": "http://www.eonet.ne.jp/~yumenouchi" }, "geometry": { "type": "Point", "coordinates": [ 135.762481799999932, 34.4930163 ] } },
{ "type": "Feature", "properties": { "内容": "デイサービス花の家Ⅱ【認知症対応型通所介護】橿原市久米町５２８－１", "url": "https://www.kaigokensaku.mhlw.go.jp/29/index.php?action_kouhyou_detail_004_kani=true&JigyosyoCd=2990500064-00&ServiceCd=720&Type=search", "url2": "http://www.eonet.ne.jp/~s-hana/" }, "geometry": { "type": "Point", "coordinates": [ 135.791405605522499, 34.482565199523684 ] } },
{ "type": "Feature", "properties": { "内容": "認知症デイゆうみん【認知症対応型通所介護】奈良県桜井市池之内122-1", "url": "https://www.kaigokensaku.mhlw.go.jp/29/index.php?action_kouhyou_detail_004_kani=true&JigyosyoCd=2990600104-00&ServiceCd=720&Type=search", "url2": "https://yuai-nara.com/" }, "geometry": { "type": "Point", "coordinates": [ 135.8333308, 34.4985528 ] } },
{ "type": "Feature", "properties": { "内容": "特別養護老人ホームまきの苑【認知症対応型通所介護】奈良県五條市大沢町5-25", "url": "https://www.kaigokensaku.mhlw.go.jp/29/index.php?action_kouhyou_detail_004_kani=true&JigyosyoCd=2970700031-00&ServiceCd=720&Type=search", "url2": "http://www.seiwakai-gojo.or.jp" }, "geometry": { "type": "Point", "coordinates": [ 135.668242500000019, 34.3619368 ] } },
{ "type": "Feature", "properties": { "内容": "奈良県五條市西吉野町滝３８９番地【認知症対応型通所介護】西吉野町滝３８９番地", "url": "https://www.kaigokensaku.mhlw.go.jp/29/index.php?action_kouhyou_detail_004_kani=true&JigyosyoCd=2990700060-00&ServiceCd=720&Type=search", "url2": "https://elisewel.jp" }, "geometry": { "type": "Point", "coordinates": [ 135.714011199999959, 34.3128435 ] } },
{ "type": "Feature", "properties": { "内容": "通所介護事業所「デイセンター憩の家」【認知症対応型通所介護】奈良県生駒市元町２丁目８番４６号", "url": "https://www.kaigokensaku.mhlw.go.jp/29/index.php?action_kouhyou_detail_004_kani=true&JigyosyoCd=2970900185-00&ServiceCd=720&Type=search", "url2": "http://www１.kcn.ne.jpbaijyuso.or.jp/～baiday/ikoitop.mm" }, "geometry": { "type": "Point", "coordinates": [ 135.691862, 34.6915737 ] } },
{ "type": "Feature", "properties": { "内容": "サポートハウス壱分町ちどり【認知症対応型通所介護】奈良県生駒市壱分町83番2号", "url": "https://www.kaigokensaku.mhlw.go.jp/29/index.php?action_kouhyou_detail_004_kani=true&JigyosyoCd=2990900074-00&ServiceCd=720&Type=search", "url2": "http://www.chidori.or.jp" }, "geometry": { "type": "Point", "coordinates": [ 135.716057699999965, 34.6696896 ] } },
{ "type": "Feature", "properties": { "内容": "たわらぐちデイサービスセンター花はな【認知症対応型通所介護】俵口町１０６９－１", "url": "https://www.kaigokensaku.mhlw.go.jp/29/index.php?action_kouhyou_detail_004_kani=true&JigyosyoCd=2990900017-00&ServiceCd=720&Type=search", "url2": "http://care-net.biz/29/tawaraguchi-ds/" }, "geometry": { "type": "Point", "coordinates": [ 135.6957976, 34.7041142 ] } },
{ "type": "Feature", "properties": { "内容": "かしの木デイサービス【認知症対応型通所介護】奈良県香芝市良福寺37-3", "url": "https://www.kaigokensaku.mhlw.go.jp/29/index.php?action_kouhyou_detail_004_kani=true&JigyosyoCd=2991000072-00&ServiceCd=720&Type=search", "url2": null }, "geometry": { "type": "Point", "coordinates": [ 135.707705499999946, 34.5259111 ] } },
{ "type": "Feature", "properties": { "内容": "愛の家グループホーム香芝【認知症対応型通所介護】奈良県香芝市五位堂１丁目341-1", "url": "https://www.kaigokensaku.mhlw.go.jp/29/index.php?action_kouhyou_detail_004_kani=true&JigyosyoCd=2991000015-00&ServiceCd=720&Type=search", "url2": "http://www.mcsg.co.jp" }, "geometry": { "type": "Point", "coordinates": [ 135.714196300000026, 34.5320271 ] } },
{ "type": "Feature", "properties": { "内容": "かしの木デイサービス【認知症対応型通所介護】奈良県香芝市良福寺37-3", "url": "https://www.kaigokensaku.mhlw.go.jp/29/index.php?action_kouhyou_detail_004_kani=true&JigyosyoCd=2991000148-00&ServiceCd=720&Type=search", "url2": "https://kashinoki.haruhinosato.or.jp/grouphome/" }, "geometry": { "type": "Point", "coordinates": [ 135.707571980950917, 34.525938739163259 ] } },
{ "type": "Feature", "properties": { "内容": "悠久の里【認知症対応型通所介護】奈良県葛城市新在家３９３－３", "url": "https://www.kaigokensaku.mhlw.go.jp/29/index.php?action_kouhyou_detail_004_kani=true&JigyosyoCd=2994800015-00&ServiceCd=720&Type=search", "url2": null }, "geometry": { "type": "Point", "coordinates": [ 135.692507100000057, 34.5260913 ] } },
{ "type": "Feature", "properties": { "内容": "指定認知症対応型通所介護四つ葉のクローバー【認知症対応型通所介護】宇陀市菟田野古市場470番地", "url": "https://www.kaigokensaku.mhlw.go.jp/29/index.php?action_kouhyou_detail_004_kani=true&JigyosyoCd=2994900013-00&ServiceCd=720&Type=search", "url2": "http://www.grandsoul.co.jp/clover/" }, "geometry": { "type": "Point", "coordinates": [ 135.973843699999946, 34.4734195 ] } },
{ "type": "Feature", "properties": { "内容": "平群の里【認知症対応型通所介護】奈良県生駒郡平群町福貴１３５４－１１", "url": "https://www.kaigokensaku.mhlw.go.jp/29/index.php?action_kouhyou_detail_004_kani=true&JigyosyoCd=2971400078-00&ServiceCd=720&Type=search", "url2": "http://heguri.akebono-kai.com/" }, "geometry": { "type": "Point", "coordinates": [ 135.69250790000001, 34.6332095 ] } },
{ "type": "Feature", "properties": { "内容": "グループホームシオンの郷【認知症対応型通所介護】奈良県生駒郡三郷町信貴ケ丘３－４－２１", "url": "https://www.kaigokensaku.mhlw.go.jp/29/index.php?action_kouhyou_detail_004_kani=true&JigyosyoCd=2991500055-00&ServiceCd=720&Type=search", "url2": null }, "geometry": { "type": "Point", "coordinates": [ 135.694207799999958, 34.604615 ] } },
{ "type": "Feature", "properties": { "内容": "デイサービスセンターあかねの里【認知症対応型通所介護】奈良県生駒郡三郷町東信貴ケ丘１－５－１２", "url": "https://www.kaigokensaku.mhlw.go.jp/29/index.php?action_kouhyou_detail_004_kani=true&JigyosyoCd=2971500166-00&ServiceCd=720&Type=search", "url2": "http://www.3533house.com/" }, "geometry": { "type": "Point", "coordinates": [ 135.704201300000022, 34.6069873 ] } },
{ "type": "Feature", "properties": { "内容": "グループホーム六花【認知症対応型通所介護】奈良県北葛城郡上牧町上牧537－2", "url": "https://www.kaigokensaku.mhlw.go.jp/29/index.php?action_kouhyou_detail_004_kani=true&JigyosyoCd=2993100011-00&ServiceCd=720&Type=search", "url2": "http://www.rokka-fukusi.jp" }, "geometry": { "type": "Point", "coordinates": [ 135.71157960000005, 34.5614374 ] } },
{ "type": "Feature", "properties": { "内容": "ｸﾞﾙｰﾌﾟﾎｰﾑ和・泉共用型デイサービス【認知症対応型通所介護】奈良県北葛城郡河合町泉台3丁目８番地24", "url": "https://www.kaigokensaku.mhlw.go.jp/29/index.php?action_kouhyou_detail_004_kani=true&JigyosyoCd=2993400049-00&ServiceCd=720&Type=search", "url2": "http://www.nagomiizumi.com/index.phtml" }, "geometry": { "type": "Point", "coordinates": [ 135.736043600000016, 34.5910147 ] } },
{ "type": "Feature", "properties": { "内容": "グループホーム太陽十津川折立の郷【認知症対応型通所介護】奈良県吉野郡十津川村折立364番地の1", "url": "https://www.kaigokensaku.mhlw.go.jp/29/index.php?action_kouhyou_detail_004_kani=true&JigyosyoCd=2974300093-00&ServiceCd=720&Type=search", "url2": "http://www2.ocn.ne.jp/~oritachi/" }, "geometry": { "type": "Point", "coordinates": [ 135.8041839, 33.9491117 ] } }
]
}
