{
"type": "FeatureCollection",
"name": "geo_29_特定福祉用具販売",
"crs": { "type": "name", "properties": { "name": "urn:ogc:def:crs:OGC:1.3:CRS84" } },
"features": [
{ "type": "Feature", "properties": { "内容": "株式会社　ユースコ【特定福祉用具販売】奈良県奈良市富雄元町二丁目７－２５ＳＳＫビル７０５号", "url": "https://www.kaigokensaku.mhlw.go.jp/29/index.php?action_kouhyou_detail_004_kani=true&JigyosyoCd=2970105801-00&ServiceCd=410&Type=search", "url2": null }, "geometry": { "type": "Point", "coordinates": [ 135.735130900000058, 34.6913544 ] } },
{ "type": "Feature", "properties": { "内容": "株式会社　ユーヒナ　奈良【特定福祉用具販売】奈良県奈良市北之庄町３８番地の９", "url": "https://www.kaigokensaku.mhlw.go.jp/29/index.php?action_kouhyou_detail_004_kani=true&JigyosyoCd=2970105058-00&ServiceCd=410&Type=search", "url2": null }, "geometry": { "type": "Point", "coordinates": [ 135.82328229999996, 34.6542324 ] } },
{ "type": "Feature", "properties": { "内容": "有限会社マイムメディカルサポート【特定福祉用具販売】奈良県奈良市三碓6-9-22", "url": "https://www.kaigokensaku.mhlw.go.jp/29/index.php?action_kouhyou_detail_004_kani=true&JigyosyoCd=2970104663-00&ServiceCd=410&Type=search", "url2": null }, "geometry": { "type": "Point", "coordinates": [ 135.737747399999989, 34.6824804 ] } },
{ "type": "Feature", "properties": { "内容": "株式会社ヤマシタ　奈良西大寺営業所【特定福祉用具販売】奈良県奈良市三条大路五丁目3番1号", "url": "https://www.kaigokensaku.mhlw.go.jp/29/index.php?action_kouhyou_detail_004_kani=true&JigyosyoCd=2970108862-00&ServiceCd=410&Type=search", "url2": "https://www.yco.co.jp/" }, "geometry": { "type": "Point", "coordinates": [ 135.788476100000054, 34.684007501215845 ] } },
{ "type": "Feature", "properties": { "内容": "アップル学園前ヘルパーステーション【特定福祉用具販売】奈良市中登美ヶ丘四丁目３番", "url": "https://www.kaigokensaku.mhlw.go.jp/29/index.php?action_kouhyou_detail_004_kani=true&JigyosyoCd=2970102154-00&ServiceCd=410&Type=search", "url2": "http://www.apple-g.or.jp" }, "geometry": { "type": "Point", "coordinates": [ 135.744632300000035, 34.7216488 ] } },
{ "type": "Feature", "properties": { "内容": "ケアステーションみかん【特定福祉用具販売】奈良県奈良市藺生町１８１３番地２６", "url": "https://www.kaigokensaku.mhlw.go.jp/29/index.php?action_kouhyou_detail_004_kani=true&JigyosyoCd=2970190423-00&ServiceCd=410&Type=search", "url2": null }, "geometry": { "type": "Point", "coordinates": [ 135.9399885, 34.5950284 ] } },
{ "type": "Feature", "properties": { "内容": "ニチイケアセンターほうれん【特定福祉用具販売】奈良市法蓮町1088-1　ら・ほうれん　1階", "url": "https://www.kaigokensaku.mhlw.go.jp/29/index.php?action_kouhyou_detail_004_kani=true&JigyosyoCd=2970102758-00&ServiceCd=410&Type=search", "url2": "http://www.nichiigakkan.co.jp" }, "geometry": { "type": "Point", "coordinates": [ 135.8257509, 34.6900559 ] } },
{ "type": "Feature", "properties": { "内容": "福祉用具のかなで【特定福祉用具販売】奈良県奈良市六条西３丁目１３－１５", "url": "https://www.kaigokensaku.mhlw.go.jp/29/index.php?action_kouhyou_detail_004_kani=true&JigyosyoCd=2970190639-00&ServiceCd=410&Type=search", "url2": null }, "geometry": { "type": "Point", "coordinates": [ 135.7708893, 34.6674093 ] } },
{ "type": "Feature", "properties": { "内容": "ホームケアー奈良レンタル事業所【特定福祉用具販売】奈良県奈良市学園朝日町6-11-1", "url": "https://www.kaigokensaku.mhlw.go.jp/29/index.php?action_kouhyou_detail_004_kani=true&JigyosyoCd=2970190886-00&ServiceCd=410&Type=search", "url2": "https://homecare.co.jp/" }, "geometry": { "type": "Point", "coordinates": [ 135.7547084, 34.7007308 ] } },
{ "type": "Feature", "properties": { "内容": "いわしや森川医療器株式会社【特定福祉用具販売】奈良県奈良市四条大路2丁目2番27号", "url": "https://www.kaigokensaku.mhlw.go.jp/29/index.php?action_kouhyou_detail_004_kani=true&JigyosyoCd=2970100521-00&ServiceCd=410&Type=search", "url2": "http://www.iwashiya-med.co.jp/" }, "geometry": { "type": "Point", "coordinates": [ 135.799798099999947, 34.6784239 ] } },
{ "type": "Feature", "properties": { "内容": "ナニワ商事株式会社ヘルスケア事業部奈良営業所【特定福祉用具販売】奈良県奈良市佐保台西町７１番", "url": "https://www.kaigokensaku.mhlw.go.jp/29/index.php?action_kouhyou_detail_004_kani=true&JigyosyoCd=2970108201-00&ServiceCd=410&Type=search", "url2": "http://naniwa-shoji.co.jp" }, "geometry": { "type": "Point", "coordinates": [ 135.80869359999997, 34.7095795 ] } },
{ "type": "Feature", "properties": { "内容": "フランスベッド株式会社メディカル奈良営業所【特定福祉用具販売】奈良県奈良市尼辻北町２－４", "url": "https://www.kaigokensaku.mhlw.go.jp/29/index.php?action_kouhyou_detail_004_kani=true&JigyosyoCd=2970100950-00&ServiceCd=410&Type=search", "url2": "http://www.francebed.co.jp/" }, "geometry": { "type": "Point", "coordinates": [ 135.786806487696822, 34.683915825063991 ] } },
{ "type": "Feature", "properties": { "内容": "福祉用具貸与事業所　楓～かえで～【特定福祉用具販売】神殿町178番地の9", "url": "https://www.kaigokensaku.mhlw.go.jp/29/index.php?action_kouhyou_detail_004_kani=true&JigyosyoCd=2970190480-00&ServiceCd=410&Type=search", "url2": null }, "geometry": { "type": "Point", "coordinates": [ 135.8267123, 34.6620344 ] } },
{ "type": "Feature", "properties": { "内容": "ケアサポートかがやき【特定福祉用具販売】法蓮町635-1一條館Ⅱ　3F", "url": "https://www.kaigokensaku.mhlw.go.jp/29/index.php?action_kouhyou_detail_004_kani=true&JigyosyoCd=2970105025-00&ServiceCd=410&Type=search", "url2": null }, "geometry": { "type": "Point", "coordinates": [ 135.8156629, 34.6918528 ] } },
{ "type": "Feature", "properties": { "内容": "パナソニックエイジフリーショップ北和【特定福祉用具販売】芝辻町2丁目10番10号", "url": "https://www.kaigokensaku.mhlw.go.jp/29/index.php?action_kouhyou_detail_004_kani=true&JigyosyoCd=2970106478-00&ServiceCd=410&Type=search", "url2": "http://lacias.jp/" }, "geometry": { "type": "Point", "coordinates": [ 135.81241620000003, 34.6862368 ] } },
{ "type": "Feature", "properties": { "内容": "ウェルビー【特定福祉用具販売】奈良県奈良市三条大路1-10-43フォレストスクエア3階", "url": "https://www.kaigokensaku.mhlw.go.jp/29/index.php?action_kouhyou_detail_004_kani=true&JigyosyoCd=2970190670-00&ServiceCd=410&Type=search", "url2": null }, "geometry": { "type": "Point", "coordinates": [ 135.8008094, 34.6841098 ] } },
{ "type": "Feature", "properties": { "内容": "株式会社フロンティア奈良営業所【特定福祉用具販売】大宮町4-237-10M'sビル", "url": "https://www.kaigokensaku.mhlw.go.jp/29/index.php?action_kouhyou_detail_004_kani=true&JigyosyoCd=2970190290-00&ServiceCd=410&Type=search", "url2": "https://www.frontier-ph.com/" }, "geometry": { "type": "Point", "coordinates": [ 135.8113933, 34.6830469 ] } },
{ "type": "Feature", "properties": { "内容": "まほろばケアセンター【特定福祉用具販売】西ノ京町１８－３2階", "url": "https://www.kaigokensaku.mhlw.go.jp/29/index.php?action_kouhyou_detail_004_kani=true&JigyosyoCd=2970100299-00&ServiceCd=410&Type=search", "url2": "http://www.mahoroba-care.jp" }, "geometry": { "type": "Point", "coordinates": [ 135.7936594, 34.6697702 ] } },
{ "type": "Feature", "properties": { "内容": "株式会社愛安住　奈良営業所【特定福祉用具販売】奈良県奈良市西九条町2丁目13-6", "url": "https://www.kaigokensaku.mhlw.go.jp/29/index.php?action_kouhyou_detail_004_kani=true&JigyosyoCd=2970102436-00&ServiceCd=410&Type=search", "url2": "https://www.aianju.co.jp" }, "geometry": { "type": "Point", "coordinates": [ 135.80398409999998, 34.6562013 ] } },
{ "type": "Feature", "properties": { "内容": "福祉用具いまにし【特定福祉用具販売】奈良県奈良市此瀬町３５３番地", "url": "https://www.kaigokensaku.mhlw.go.jp/29/index.php?action_kouhyou_detail_004_kani=true&JigyosyoCd=2970108029-00&ServiceCd=410&Type=search", "url2": null }, "geometry": { "type": "Point", "coordinates": [ 135.911955900000066, 34.6657043 ] } },
{ "type": "Feature", "properties": { "内容": "株式会社三笑堂　奈良中央支店【特定福祉用具販売】奈良県奈良市八条町３５６番地", "url": "https://www.kaigokensaku.mhlw.go.jp/29/index.php?action_kouhyou_detail_004_kani=true&JigyosyoCd=2970103376-00&ServiceCd=410&Type=search", "url2": "http://www.sanshodoh.co.jp" }, "geometry": { "type": "Point", "coordinates": [ 135.802275900000041, 34.6703165 ] } },
{ "type": "Feature", "properties": { "内容": "介護相談センター福丸【特定福祉用具販売】奈良県奈良市朱雀６丁目１－１４コンフォート朱雀Ⅱ３－A", "url": "https://www.kaigokensaku.mhlw.go.jp/29/index.php?action_kouhyou_detail_004_kani=true&JigyosyoCd=2970105793-00&ServiceCd=410&Type=search", "url2": null }, "geometry": { "type": "Point", "coordinates": [ 135.7977085, 34.7132586 ] } },
{ "type": "Feature", "properties": { "内容": "合同会社Ｃｏｃｏａ【特定福祉用具販売】奈良県奈良市五条３丁目２１番１３号レスポワールＩ１０２号室", "url": "https://www.kaigokensaku.mhlw.go.jp/29/index.php?action_kouhyou_detail_004_kani=true&JigyosyoCd=2970190159-00&ServiceCd=410&Type=search", "url2": "なし" }, "geometry": { "type": "Point", "coordinates": [ 135.7730674, 34.67281450000003 ] } },
{ "type": "Feature", "properties": { "内容": "合同会社DAYS【特定福祉用具販売】奈良県奈良市菅原町698番地の1", "url": "https://www.kaigokensaku.mhlw.go.jp/29/index.php?action_kouhyou_detail_004_kani=true&JigyosyoCd=2970108110-00&ServiceCd=410&Type=search", "url2": "https://days3739.com/" }, "geometry": { "type": "Point", "coordinates": [ 135.768794899006878, 34.687516980317518 ] } },
{ "type": "Feature", "properties": { "内容": "福祉用具のリリー【特定福祉用具販売】奈良県奈良市西九条町2-4-5", "url": "https://www.kaigokensaku.mhlw.go.jp/29/index.php?action_kouhyou_detail_004_kani=true&JigyosyoCd=2970106742-00&ServiceCd=410&Type=search", "url2": null }, "geometry": { "type": "Point", "coordinates": [ 135.808960698389171, 34.655727557142043 ] } },
{ "type": "Feature", "properties": { "内容": "小山株式会社【特定福祉用具販売】奈良市大森町47番地の3", "url": "https://www.kaigokensaku.mhlw.go.jp/29/index.php?action_kouhyou_detail_004_kani=true&JigyosyoCd=2970100380-00&ServiceCd=410&Type=search", "url2": "http://www.koyama-kk.co.jp/" }, "geometry": { "type": "Point", "coordinates": [ 135.82041703394907, 34.675677065935687 ] } },
{ "type": "Feature", "properties": { "内容": "有限会社　エイジング【特定福祉用具販売】奈良県奈良市押熊町1110番地の1", "url": "https://www.kaigokensaku.mhlw.go.jp/29/index.php?action_kouhyou_detail_004_kani=true&JigyosyoCd=2970101891-00&ServiceCd=410&Type=search", "url2": "http://www.n-aging.co.jp" }, "geometry": { "type": "Point", "coordinates": [ 135.770128465992684, 34.721113556358645 ] } },
{ "type": "Feature", "properties": { "内容": "けいはんな福祉用具センター【特定福祉用具販売】奈良市北市町89番地2春デイサービス内2F", "url": "https://www.kaigokensaku.mhlw.go.jp/29/index.php?action_kouhyou_detail_004_kani=true&JigyosyoCd=2970107765-00&ServiceCd=410&Type=search", "url2": "http://www.khs91918.com" }, "geometry": { "type": "Point", "coordinates": [ 135.8243707, 34.687253 ] } },
{ "type": "Feature", "properties": { "内容": "近鉄スマイルライフ奈良支店【特定福祉用具販売】奈良県奈良市あやめ池北2-1-1", "url": "https://www.kaigokensaku.mhlw.go.jp/29/index.php?action_kouhyou_detail_004_kani=true&JigyosyoCd=2970106668-00&ServiceCd=410&Type=search", "url2": "https://www.k-smile.com/" }, "geometry": { "type": "Point", "coordinates": [ 135.76251179999997, 34.7002843 ] } },
{ "type": "Feature", "properties": { "内容": "株式会社　ユーイング【特定福祉用具販売】奈良県大和高田市昭和町2－3－703朝日プラザCITY南大和ノースウイングC棟703号", "url": "https://www.kaigokensaku.mhlw.go.jp/29/index.php?action_kouhyou_detail_004_kani=true&JigyosyoCd=2970201329-00&ServiceCd=410&Type=search", "url2": null }, "geometry": { "type": "Point", "coordinates": [ 135.7513186, 34.5133857 ] } },
{ "type": "Feature", "properties": { "内容": "有限会社　和【特定福祉用具販売】大和高田市大谷　590－14", "url": "https://www.kaigokensaku.mhlw.go.jp/29/index.php?action_kouhyou_detail_004_kani=true&JigyosyoCd=2970200370-00&ServiceCd=410&Type=search", "url2": "nagomi-care@kcn.jp" }, "geometry": { "type": "Point", "coordinates": [ 135.729131199999983, 34.5247255 ] } },
{ "type": "Feature", "properties": { "内容": "福祉用具のスミレ【特定福祉用具販売】奈良県大和高田市曙町2-10", "url": "https://www.kaigokensaku.mhlw.go.jp/29/index.php?action_kouhyou_detail_004_kani=true&JigyosyoCd=2970201253-00&ServiceCd=410&Type=search", "url2": null }, "geometry": { "type": "Point", "coordinates": [ 135.754884899999979, 34.5147911 ] } },
{ "type": "Feature", "properties": { "内容": "植村医療器(株)福祉事業所【特定福祉用具販売】奈良県大和高田市北片塩町7-10　植村ビル", "url": "https://www.kaigokensaku.mhlw.go.jp/29/index.php?action_kouhyou_detail_004_kani=true&JigyosyoCd=2970200123-00&ServiceCd=410&Type=search", "url2": null }, "geometry": { "type": "Point", "coordinates": [ 135.743910899999946, 34.5095389 ] } },
{ "type": "Feature", "properties": { "内容": "わくわくケアサービス【特定福祉用具販売】大中東町4-18", "url": "https://www.kaigokensaku.mhlw.go.jp/29/index.php?action_kouhyou_detail_004_kani=true&JigyosyoCd=2971001611-00&ServiceCd=410&Type=search", "url2": null }, "geometry": { "type": "Point", "coordinates": [ 135.7399225, 34.5145939 ] } },
{ "type": "Feature", "properties": { "内容": "ライフケアサポート平井【特定福祉用具販売】奈良県大和高田市今里町４－９", "url": "https://www.kaigokensaku.mhlw.go.jp/29/index.php?action_kouhyou_detail_004_kani=true&JigyosyoCd=2970200545-00&ServiceCd=410&Type=search", "url2": null }, "geometry": { "type": "Point", "coordinates": [ 135.751213, 34.5091808 ] } },
{ "type": "Feature", "properties": { "内容": "株式会社大床義肢【特定福祉用具販売】奈良県大和郡山市小林町西１丁目４－７", "url": "https://www.kaigokensaku.mhlw.go.jp/29/index.php?action_kouhyou_detail_004_kani=true&JigyosyoCd=2970301095-00&ServiceCd=410&Type=search", "url2": null }, "geometry": { "type": "Point", "coordinates": [ 135.767293399999971, 34.6213954 ] } },
{ "type": "Feature", "properties": { "内容": "福祉用具　北村住設【特定福祉用具販売】大和郡山市柳町76-5", "url": "https://www.kaigokensaku.mhlw.go.jp/29/index.php?action_kouhyou_detail_004_kani=true&JigyosyoCd=2970301368-00&ServiceCd=410&Type=search", "url2": "http://www.kitamura-jusetsu.com/" }, "geometry": { "type": "Point", "coordinates": [ 135.7871606, 34.6440188 ] } },
{ "type": "Feature", "properties": { "内容": "株式会社森のくまさん【特定福祉用具販売】奈良県大和郡山市筒井町376－17", "url": "https://www.kaigokensaku.mhlw.go.jp/29/index.php?action_kouhyou_detail_004_kani=true&JigyosyoCd=2970301525-00&ServiceCd=410&Type=search", "url2": null }, "geometry": { "type": "Point", "coordinates": [ 135.7756898, 34.6242344 ] } },
{ "type": "Feature", "properties": { "内容": "幸福商事株式会社　奈良ハピネス【特定福祉用具販売】奈良県大和郡山市城南町256-25", "url": "https://www.kaigokensaku.mhlw.go.jp/29/index.php?action_kouhyou_detail_004_kani=true&JigyosyoCd=2970300097-00&ServiceCd=410&Type=search", "url2": "http://www.narahappiness.co.jp" }, "geometry": { "type": "Point", "coordinates": [ 135.776092799999986, 34.6465131 ] } },
{ "type": "Feature", "properties": { "内容": "株式会社　山和タンス店【特定福祉用具販売】奈良県大和郡山市堺町３３", "url": "https://www.kaigokensaku.mhlw.go.jp/29/index.php?action_kouhyou_detail_004_kani=true&JigyosyoCd=2970300543-00&ServiceCd=410&Type=search", "url2": null }, "geometry": { "type": "Point", "coordinates": [ 135.783896899999945, 34.6486655 ] } },
{ "type": "Feature", "properties": { "内容": "アミックケア株式会社【特定福祉用具販売】番匠田中町60-1", "url": "https://www.kaigokensaku.mhlw.go.jp/29/index.php?action_kouhyou_detail_004_kani=true&JigyosyoCd=2970301848-00&ServiceCd=410&Type=search", "url2": "http://amic-care.jp/" }, "geometry": { "type": "Point", "coordinates": [ 135.807640600000013, 34.6320462 ] } },
{ "type": "Feature", "properties": { "内容": "介護レンタル　それいゆ【特定福祉用具販売】大和郡山市高田町2-1-103", "url": "https://www.kaigokensaku.mhlw.go.jp/29/index.php?action_kouhyou_detail_004_kani=true&JigyosyoCd=2970301210-00&ServiceCd=410&Type=search", "url2": null }, "geometry": { "type": "Point", "coordinates": [ 135.789525224249729, 34.647612120145155 ] } },
{ "type": "Feature", "properties": { "内容": "プラスケア【特定福祉用具販売】奈良県大和郡山市小林町558-7", "url": "https://www.kaigokensaku.mhlw.go.jp/29/index.php?action_kouhyou_detail_004_kani=true&JigyosyoCd=2970301624-00&ServiceCd=410&Type=search", "url2": null }, "geometry": { "type": "Point", "coordinates": [ 135.7720744, 34.6203322 ] } },
{ "type": "Feature", "properties": { "内容": "ケアライフ奈良営業所【特定福祉用具販売】嘉幡町349番地1", "url": "https://www.kaigokensaku.mhlw.go.jp/29/index.php?action_kouhyou_detail_004_kani=true&JigyosyoCd=2970400897-00&ServiceCd=410&Type=search", "url2": null }, "geometry": { "type": "Point", "coordinates": [ 135.797899700000016, 34.58875 ] } },
{ "type": "Feature", "properties": { "内容": "株式会社ヤマシタ　奈良営業所【特定福祉用具販売】奈良県天理市富堂町181-1", "url": "https://www.kaigokensaku.mhlw.go.jp/29/index.php?action_kouhyou_detail_004_kani=true&JigyosyoCd=2970400053-00&ServiceCd=410&Type=search", "url2": "http://www.yco.co.jp/" }, "geometry": { "type": "Point", "coordinates": [ 135.821941840603358, 34.595189891849152 ] } },
{ "type": "Feature", "properties": { "内容": "ファミさぽ【特定福祉用具販売】奈良県天理市福知堂町273-3", "url": "https://www.kaigokensaku.mhlw.go.jp/29/index.php?action_kouhyou_detail_004_kani=true&JigyosyoCd=2970401440-00&ServiceCd=410&Type=search", "url2": null }, "geometry": { "type": "Point", "coordinates": [ 135.8328603, 34.5771233 ] } },
{ "type": "Feature", "properties": { "内容": "福祉用具めいび【特定福祉用具販売】奈良県天理市遠田町574", "url": "https://www.kaigokensaku.mhlw.go.jp/29/index.php?action_kouhyou_detail_004_kani=true&JigyosyoCd=2970401549-00&ServiceCd=410&Type=search", "url2": "http://meibi-mt.co.jp/" }, "geometry": { "type": "Point", "coordinates": [ 135.823542800000013, 34.56401 ] } },
{ "type": "Feature", "properties": { "内容": "株式会社アーク福祉用具【特定福祉用具販売】奈良県天理市荒蒔町138-4メゾンブランカ302号", "url": "https://www.kaigokensaku.mhlw.go.jp/29/index.php?action_kouhyou_detail_004_kani=true&JigyosyoCd=2970401598-00&ServiceCd=410&Type=search", "url2": null }, "geometry": { "type": "Point", "coordinates": [ 135.80415690000001, 34.5994882 ] } },
{ "type": "Feature", "properties": { "内容": "ユニバーサル　チョイス【特定福祉用具販売】奈良県天理市三島町182-6", "url": "https://www.kaigokensaku.mhlw.go.jp/29/index.php?action_kouhyou_detail_004_kani=true&JigyosyoCd=2970401119-00&ServiceCd=410&Type=search", "url2": null }, "geometry": { "type": "Point", "coordinates": [ 135.8377616, 34.602030200000016 ] } },
{ "type": "Feature", "properties": { "内容": "福祉用具おやの里【特定福祉用具販売】奈良県天理市川原城町366-2", "url": "https://www.kaigokensaku.mhlw.go.jp/29/index.php?action_kouhyou_detail_004_kani=true&JigyosyoCd=2970401663-00&ServiceCd=410&Type=search", "url2": "http://oyanosato.co.jp" }, "geometry": { "type": "Point", "coordinates": [ 135.835706, 34.5974166 ] } },
{ "type": "Feature", "properties": { "内容": "株式会社　ユーヒナ【特定福祉用具販売】奈良県橿原市新口町132番地の1ラピュタ新口105", "url": "https://www.kaigokensaku.mhlw.go.jp/29/index.php?action_kouhyou_detail_004_kani=true&JigyosyoCd=2970501132-00&ServiceCd=410&Type=search", "url2": null }, "geometry": { "type": "Point", "coordinates": [ 135.795467300000013, 34.5254478 ] } },
{ "type": "Feature", "properties": { "内容": "アシストあ・える【特定福祉用具販売】奈良県橿原市葛本町299－1", "url": "https://www.kaigokensaku.mhlw.go.jp/29/index.php?action_kouhyou_detail_004_kani=true&JigyosyoCd=2970501611-00&ServiceCd=410&Type=search", "url2": null }, "geometry": { "type": "Point", "coordinates": [ 135.79904190000002, 34.5255461 ] } },
{ "type": "Feature", "properties": { "内容": "有限会社アットホーム【特定福祉用具販売】奈良県橿原市大久保町435番地5", "url": "https://www.kaigokensaku.mhlw.go.jp/29/index.php?action_kouhyou_detail_004_kani=true&JigyosyoCd=2970500134-00&ServiceCd=410&Type=search", "url2": "http://www.kaigo-club.net/" }, "geometry": { "type": "Point", "coordinates": [ 135.792459733729515, 34.493572941818819 ] } },
{ "type": "Feature", "properties": { "内容": "有限会社橿原ケアセンターユースフル21【特定福祉用具販売】奈良県橿原市今井町3-12-16", "url": "https://www.kaigokensaku.mhlw.go.jp/29/index.php?action_kouhyou_detail_004_kani=true&JigyosyoCd=2970500191-00&ServiceCd=410&Type=search", "url2": "https://www.useful21.co.jp/" }, "geometry": { "type": "Point", "coordinates": [ 135.7823812, 34.504873 ] } },
{ "type": "Feature", "properties": { "内容": "ケアステーションＴＯＷＡ【特定福祉用具販売】奈良県橿原市十市町850-2", "url": "https://www.kaigokensaku.mhlw.go.jp/29/index.php?action_kouhyou_detail_004_kani=true&JigyosyoCd=2970500878-00&ServiceCd=410&Type=search", "url2": null }, "geometry": { "type": "Point", "coordinates": [ 135.797178205750527, 34.532529036382584 ] } },
{ "type": "Feature", "properties": { "内容": "らびんぐ・ケア【特定福祉用具販売】奈良県橿原市五条野町399", "url": "https://www.kaigokensaku.mhlw.go.jp/29/index.php?action_kouhyou_detail_004_kani=true&JigyosyoCd=2970502569-00&ServiceCd=410&Type=search", "url2": null }, "geometry": { "type": "Point", "coordinates": [ 135.801957399999964, 34.4734073 ] } },
{ "type": "Feature", "properties": { "内容": "けあねん【特定福祉用具販売】奈良県橿原市今井町4-11-17", "url": "https://www.kaigokensaku.mhlw.go.jp/29/index.php?action_kouhyou_detail_004_kani=true&JigyosyoCd=2970501603-00&ServiceCd=410&Type=search", "url2": null }, "geometry": { "type": "Point", "coordinates": [ 135.785121099999969, 34.5078701 ] } },
{ "type": "Feature", "properties": { "内容": "介護センター　とらいあんぐる【特定福祉用具販売】奈良県橿原市北八木町１丁目６－２０", "url": "https://www.kaigokensaku.mhlw.go.jp/29/index.php?action_kouhyou_detail_004_kani=true&JigyosyoCd=2970500431-00&ServiceCd=410&Type=search", "url2": null }, "geometry": { "type": "Point", "coordinates": [ 135.793864699999972, 34.5127391 ] } },
{ "type": "Feature", "properties": { "内容": "ハート・ケア・ひろはし【特定福祉用具販売】奈良県橿原市五条野町399", "url": "https://www.kaigokensaku.mhlw.go.jp/29/index.php?action_kouhyou_detail_004_kani=true&JigyosyoCd=2970502684-00&ServiceCd=410&Type=search", "url2": "https://heartcare-hirohashi.com/" }, "geometry": { "type": "Point", "coordinates": [ 135.8019574, 34.4734073 ] } },
{ "type": "Feature", "properties": { "内容": "株式会社ミクニ管材【特定福祉用具販売】奈良県桜井市大字池之内１２６０番地の２", "url": "https://www.kaigokensaku.mhlw.go.jp/29/index.php?action_kouhyou_detail_004_kani=true&JigyosyoCd=2970600702-00&ServiceCd=410&Type=search", "url2": null }, "geometry": { "type": "Point", "coordinates": [ 135.834941800000024, 34.4965364 ] } },
{ "type": "Feature", "properties": { "内容": "株式会社　飛鳥【特定福祉用具販売】吉備557-2", "url": "https://www.kaigokensaku.mhlw.go.jp/29/index.php?action_kouhyou_detail_004_kani=true&JigyosyoCd=2970600876-00&ServiceCd=410&Type=search", "url2": "https://www.asukalife.com/" }, "geometry": { "type": "Point", "coordinates": [ 135.833697798147597, 34.508139683894605 ] } },
{ "type": "Feature", "properties": { "内容": "ウィルライフ【特定福祉用具販売】奈良県桜井市三輪４１７－３", "url": "https://www.kaigokensaku.mhlw.go.jp/29/index.php?action_kouhyou_detail_004_kani=true&JigyosyoCd=2970601072-00&ServiceCd=410&Type=search", "url2": null }, "geometry": { "type": "Point", "coordinates": [ 135.847859800000037, 34.5250163 ] } },
{ "type": "Feature", "properties": { "内容": "いきいき本舗【特定福祉用具販売】桜井市阿部４２６－５", "url": "https://www.kaigokensaku.mhlw.go.jp/29/index.php?action_kouhyou_detail_004_kani=true&JigyosyoCd=2970600629-00&ServiceCd=410&Type=search", "url2": null }, "geometry": { "type": "Point", "coordinates": [ 135.838319, 34.5086377 ] } },
{ "type": "Feature", "properties": { "内容": "ケアレンタルはなことば【特定福祉用具販売】桜井市大字外山１６６１", "url": "https://www.kaigokensaku.mhlw.go.jp/29/index.php?action_kouhyou_detail_004_kani=true&JigyosyoCd=2970600967-00&ServiceCd=410&Type=search", "url2": null }, "geometry": { "type": "Point", "coordinates": [ 135.859514499999932, 34.5140787 ] } },
{ "type": "Feature", "properties": { "内容": "ユースフルブレイン【特定福祉用具販売】奈良県桜井市桜井232ヤガビル202", "url": "https://www.kaigokensaku.mhlw.go.jp/29/index.php?action_kouhyou_detail_004_kani=true&JigyosyoCd=2970600413-00&ServiceCd=410&Type=search", "url2": "r-brain.nara.jp" }, "geometry": { "type": "Point", "coordinates": [ 135.843691604787637, 34.511731895227946 ] } },
{ "type": "Feature", "properties": { "内容": "有限会社エンジョイライフナイスケア【特定福祉用具販売】奈良県桜井市河西772－1", "url": "https://www.kaigokensaku.mhlw.go.jp/29/index.php?action_kouhyou_detail_004_kani=true&JigyosyoCd=2970600223-00&ServiceCd=410&Type=search", "url2": null }, "geometry": { "type": "Point", "coordinates": [ 135.846628527883922, 34.500415462072922 ] } },
{ "type": "Feature", "properties": { "内容": "福祉用具マザーズ【特定福祉用具販売】奈良県桜井市大福２４２－１", "url": "https://www.kaigokensaku.mhlw.go.jp/29/index.php?action_kouhyou_detail_004_kani=true&JigyosyoCd=2970600314-00&ServiceCd=410&Type=search", "url2": null }, "geometry": { "type": "Point", "coordinates": [ 135.828633599999989, 34.5123233 ] } },
{ "type": "Feature", "properties": { "内容": "株式会社ワースリビング【特定福祉用具販売】奈良県五條市住川町331-1", "url": "https://www.kaigokensaku.mhlw.go.jp/29/index.php?action_kouhyou_detail_004_kani=true&JigyosyoCd=2970700080-00&ServiceCd=410&Type=search", "url2": null }, "geometry": { "type": "Point", "coordinates": [ 135.716653685488836, 34.378253954664061 ] } },
{ "type": "Feature", "properties": { "内容": "ケアショップｏｎｅ【特定福祉用具販売】野原東5丁目10番31号", "url": "https://www.kaigokensaku.mhlw.go.jp/29/index.php?action_kouhyou_detail_004_kani=true&JigyosyoCd=2970700759-00&ServiceCd=410&Type=search", "url2": null }, "geometry": { "type": "Point", "coordinates": [ 135.719292599999989, 34.346548 ] } },
{ "type": "Feature", "properties": { "内容": "ＭＣレント【特定福祉用具販売】奈良県五條市今井四丁目５番３７号", "url": "https://www.kaigokensaku.mhlw.go.jp/29/index.php?action_kouhyou_detail_004_kani=true&JigyosyoCd=2970700015-00&ServiceCd=410&Type=search", "url2": "http://www.mcz.jp" }, "geometry": { "type": "Point", "coordinates": [ 135.708881, 34.3526974 ] } },
{ "type": "Feature", "properties": { "内容": "大和興産株式会社【特定福祉用具販売】奈良県御所市池之内1064番地", "url": "https://www.kaigokensaku.mhlw.go.jp/29/index.php?action_kouhyou_detail_004_kani=true&JigyosyoCd=2970800096-00&ServiceCd=410&Type=search", "url2": "http://www.kounoikekai.com/contents/daiwa/index.html" }, "geometry": { "type": "Point", "coordinates": [ 135.751217399999973, 34.450824 ] } },
{ "type": "Feature", "properties": { "内容": "タカダビルテック株式会社【特定福祉用具販売】御所市茅原84-5", "url": "https://www.kaigokensaku.mhlw.go.jp/29/index.php?action_kouhyou_detail_004_kani=true&JigyosyoCd=2970800567-00&ServiceCd=410&Type=search", "url2": "http://www.takada-billtec.com/" }, "geometry": { "type": "Point", "coordinates": [ 135.744970400000057, 34.4614115 ] } },
{ "type": "Feature", "properties": { "内容": "ダスキンヘルスレント奈良生駒ステーション【特定福祉用具販売】奈良県生駒市北田原町1674-14", "url": "https://www.kaigokensaku.mhlw.go.jp/29/index.php?action_kouhyou_detail_004_kani=true&JigyosyoCd=2970901696-00&ServiceCd=410&Type=search", "url2": null }, "geometry": { "type": "Point", "coordinates": [ 135.713662800000066, 34.7420414 ] } },
{ "type": "Feature", "properties": { "内容": "株式会社愛安住　生駒営業所【特定福祉用具販売】奈良県生駒市小明町548番3", "url": "https://www.kaigokensaku.mhlw.go.jp/29/index.php?action_kouhyou_detail_004_kani=true&JigyosyoCd=2970901589-00&ServiceCd=410&Type=search", "url2": "https://www.aianju.co.jp" }, "geometry": { "type": "Point", "coordinates": [ 135.706744960118868, 34.706152840012045 ] } },
{ "type": "Feature", "properties": { "内容": "株式会社　オクヤマ・タイアップコーポレーション【特定福祉用具販売】奈良県香芝市藤山２－１２２０－１", "url": "https://www.kaigokensaku.mhlw.go.jp/29/index.php?action_kouhyou_detail_004_kani=true&JigyosyoCd=2971000571-00&ServiceCd=410&Type=search", "url2": null }, "geometry": { "type": "Point", "coordinates": [ 135.699450347621621, 34.545561297755405 ] } },
{ "type": "Feature", "properties": { "内容": "トータルケアサポート　タナカ【特定福祉用具販売】奈良県香芝市今泉451", "url": "https://www.kaigokensaku.mhlw.go.jp/29/index.php?action_kouhyou_detail_004_kani=true&JigyosyoCd=2971000381-00&ServiceCd=410&Type=search", "url2": null }, "geometry": { "type": "Point", "coordinates": [ 135.699189100000012, 34.5641061 ] } },
{ "type": "Feature", "properties": { "内容": "株式会社　ライフネット【特定福祉用具販売】奈良県香芝市下田東1-464-4", "url": "https://www.kaigokensaku.mhlw.go.jp/29/index.php?action_kouhyou_detail_004_kani=true&JigyosyoCd=2971000720-00&ServiceCd=410&Type=search", "url2": null }, "geometry": { "type": "Point", "coordinates": [ 135.706497, 34.5449197 ] } },
{ "type": "Feature", "properties": { "内容": "株式会社ケアプラス【特定福祉用具販売】奈良県香芝市畑1-229", "url": "https://www.kaigokensaku.mhlw.go.jp/29/index.php?action_kouhyou_detail_004_kani=true&JigyosyoCd=2971001439-00&ServiceCd=410&Type=search", "url2": "http://hp.kaipoke.biz/dg0/" }, "geometry": { "type": "Point", "coordinates": [ 135.699167399999965, 34.53953 ] } },
{ "type": "Feature", "properties": { "内容": "有限会社　ベストライフ・ケアーサービス【特定福祉用具販売】奈良県香芝市五位堂６丁目２１３", "url": "https://www.kaigokensaku.mhlw.go.jp/29/index.php?action_kouhyou_detail_004_kani=true&JigyosyoCd=2971000175-00&ServiceCd=410&Type=search", "url2": null }, "geometry": { "type": "Point", "coordinates": [ 135.718368100000021, 34.5302386 ] } },
{ "type": "Feature", "properties": { "内容": "有限会社ライフステーション【特定福祉用具販売】奈良県香芝市旭ヶ丘1丁目３１－１", "url": "https://www.kaigokensaku.mhlw.go.jp/29/index.php?action_kouhyou_detail_004_kani=true&JigyosyoCd=2971000183-00&ServiceCd=410&Type=search", "url2": "http://www.life-station.co.jp/" }, "geometry": { "type": "Point", "coordinates": [ 135.699639199999979, 34.5554405 ] } },
{ "type": "Feature", "properties": { "内容": "L・デザイン【特定福祉用具販売】奈良県葛城市北花内288-2", "url": "https://www.kaigokensaku.mhlw.go.jp/29/index.php?action_kouhyou_detail_004_kani=true&JigyosyoCd=2974800340-00&ServiceCd=410&Type=search", "url2": "http://web1.kcn.jp/katuragi-l-design/index.html" }, "geometry": { "type": "Point", "coordinates": [ 135.729596099999981, 34.4850721 ] } },
{ "type": "Feature", "properties": { "内容": "有限会社今井道路標識【特定福祉用具販売】南藤井１１３－１２", "url": "https://www.kaigokensaku.mhlw.go.jp/29/index.php?action_kouhyou_detail_004_kani=true&JigyosyoCd=2974800373-00&ServiceCd=410&Type=search", "url2": "http://www.imaidourohyoushiki.jp" }, "geometry": { "type": "Point", "coordinates": [ 135.713197600000058, 34.4844245 ] } },
{ "type": "Feature", "properties": { "内容": "ケアファームウィズ【特定福祉用具販売】奈良県葛城市八川92番地1-102", "url": "https://www.kaigokensaku.mhlw.go.jp/29/index.php?action_kouhyou_detail_004_kani=true&JigyosyoCd=2974800696-00&ServiceCd=410&Type=search", "url2": "https://www.carefirm-with.com" }, "geometry": { "type": "Point", "coordinates": [ 135.716805061376959, 34.510161540837359 ] } },
{ "type": "Feature", "properties": { "内容": "福祉用具　すずらん【特定福祉用具販売】奈良県宇陀市榛原萩原1909株式会社　天下堂", "url": "https://www.kaigokensaku.mhlw.go.jp/29/index.php?action_kouhyou_detail_004_kani=true&JigyosyoCd=2974900397-00&ServiceCd=410&Type=search", "url2": null }, "geometry": { "type": "Point", "coordinates": [ 135.952477499999986, 34.5374445 ] } },
{ "type": "Feature", "properties": { "内容": "ナガサワぷらす【特定福祉用具販売】奈良県宇陀市大宇陀拾生64-3", "url": "https://www.kaigokensaku.mhlw.go.jp/29/index.php?action_kouhyou_detail_004_kani=true&JigyosyoCd=2974900207-00&ServiceCd=410&Type=search", "url2": "http://www.nagasawa-reform.jp/" }, "geometry": { "type": "Point", "coordinates": [ 135.930721299999959, 34.4775982 ] } },
{ "type": "Feature", "properties": { "内容": "森野福祉レンタルサービス【特定福祉用具販売】菟田野古市場1310", "url": "https://www.kaigokensaku.mhlw.go.jp/29/index.php?action_kouhyou_detail_004_kani=true&JigyosyoCd=2974900108-00&ServiceCd=410&Type=search", "url2": "ｍｏｒｉｋａｎａ＠ｋ．ｃ．ｎ．ｊｐ" }, "geometry": { "type": "Point", "coordinates": [ 135.9671612, 34.4763841 ] } },
{ "type": "Feature", "properties": { "内容": "五楽の里【特定福祉用具販売】奈良県宇陀市榛原額井1066番地の4", "url": "https://www.kaigokensaku.mhlw.go.jp/29/index.php?action_kouhyou_detail_004_kani=true&JigyosyoCd=2972300137-00&ServiceCd=410&Type=search", "url2": "https://kaigo.touwa-giken.com/" }, "geometry": { "type": "Point", "coordinates": [ 135.977488590118355, 34.544369441274114 ] } },
{ "type": "Feature", "properties": { "内容": "株式会社　ふくろ工房【特定福祉用具販売】奈良県生駒郡三郷町城山台5-1-8", "url": "https://www.kaigokensaku.mhlw.go.jp/29/index.php?action_kouhyou_detail_004_kani=true&JigyosyoCd=2971500455-00&ServiceCd=410&Type=search", "url2": "http://www.fukuro.ne.jp/" }, "geometry": { "type": "Point", "coordinates": [ 135.685792, 34.6000793 ] } },
{ "type": "Feature", "properties": { "内容": "株式会社　フジヤマサービス【特定福祉用具販売】生駒郡三郷町立野南１丁目２１－６４１０２号", "url": "https://www.kaigokensaku.mhlw.go.jp/29/index.php?action_kouhyou_detail_004_kani=true&JigyosyoCd=2971500349-00&ServiceCd=410&Type=search", "url2": "http://www.fujiyama-service.com" }, "geometry": { "type": "Point", "coordinates": [ 135.689941990135139, 34.59144612361068 ] } },
{ "type": "Feature", "properties": { "内容": "NPO法人ライフケア王寺【特定福祉用具販売】奈良県生駒郡三郷町勢野東４丁目３番２０号", "url": "https://www.kaigokensaku.mhlw.go.jp/29/index.php?action_kouhyou_detail_004_kani=true&JigyosyoCd=2971500273-00&ServiceCd=410&Type=search", "url2": "http://lifecare-ouji.or.jp/" }, "geometry": { "type": "Point", "coordinates": [ 135.700868300000025, 34.6066817 ] } },
{ "type": "Feature", "properties": { "内容": "今村住設株式会社【特定福祉用具販売】生駒郡斑鳩町法隆寺1-7-10", "url": "https://www.kaigokensaku.mhlw.go.jp/29/index.php?action_kouhyou_detail_004_kani=true&JigyosyoCd=2971600453-00&ServiceCd=410&Type=search", "url2": "http://minaoshitai.jp/search/shop/101388/index.html" }, "geometry": { "type": "Point", "coordinates": [ 135.7345183, 34.610343 ] } },
{ "type": "Feature", "properties": { "内容": "株式会社　イカリトンボ【特定福祉用具販売】奈良県生駒郡斑鳩町龍田西4丁目1-40", "url": "https://www.kaigokensaku.mhlw.go.jp/29/index.php?action_kouhyou_detail_004_kani=true&JigyosyoCd=2971600024-00&ServiceCd=410&Type=search", "url2": "http://www.ikaritombo.jp/" }, "geometry": { "type": "Point", "coordinates": [ 135.7160308, 34.6064182 ] } },
{ "type": "Feature", "properties": { "内容": "なごみ【特定福祉用具販売】生駒郡斑鳩町法隆寺南2-1-3ｻﾝﾄﾙ法隆寺壱番館1階", "url": "https://www.kaigokensaku.mhlw.go.jp/29/index.php?action_kouhyou_detail_004_kani=true&JigyosyoCd=2971600586-00&ServiceCd=410&Type=search", "url2": null }, "geometry": { "type": "Point", "coordinates": [ 135.738009, 34.6095308 ] } },
{ "type": "Feature", "properties": { "内容": "モクショウケアサービス【特定福祉用具販売】奈良県磯城郡川西町唐院256-1", "url": "https://www.kaigokensaku.mhlw.go.jp/29/index.php?action_kouhyou_detail_004_kani=true&JigyosyoCd=2971800079-00&ServiceCd=410&Type=search", "url2": "http://www.mokushou.info" }, "geometry": { "type": "Point", "coordinates": [ 135.76265, 34.5816105 ] } },
{ "type": "Feature", "properties": { "内容": "くまさんスマイル【特定福祉用具販売】八尾584-5メゾン良101", "url": "https://www.kaigokensaku.mhlw.go.jp/29/index.php?action_kouhyou_detail_004_kani=true&JigyosyoCd=2972000836-00&ServiceCd=410&Type=search", "url2": "https://kumasan-smile.com/" }, "geometry": { "type": "Point", "coordinates": [ 135.792641547968344, 34.561875425354401 ] } },
{ "type": "Feature", "properties": { "内容": "株式会社ココすまいる【特定福祉用具販売】奈良県磯城郡田原本町十六面10番1", "url": "https://www.kaigokensaku.mhlw.go.jp/29/index.php?action_kouhyou_detail_004_kani=true&JigyosyoCd=2972000877-00&ServiceCd=410&Type=search", "url2": null }, "geometry": { "type": "Point", "coordinates": [ 135.785635, 34.5526061 ] } },
{ "type": "Feature", "properties": { "内容": "奈良ヘルスケアシステム株式会社【特定福祉用具販売】奈良県磯城郡田原本町千代632-1", "url": "https://www.kaigokensaku.mhlw.go.jp/29/index.php?action_kouhyou_detail_004_kani=true&JigyosyoCd=2972000018-00&ServiceCd=410&Type=search", "url2": null }, "geometry": { "type": "Point", "coordinates": [ 135.8035357, 34.5462854 ] } },
{ "type": "Feature", "properties": { "内容": "有限会社ツザキ・ケア・ブレイス【特定福祉用具販売】奈良県磯城郡田原本町新木1－141", "url": "https://www.kaigokensaku.mhlw.go.jp/29/index.php?action_kouhyou_detail_004_kani=true&JigyosyoCd=2972000083-00&ServiceCd=410&Type=search", "url2": null }, "geometry": { "type": "Point", "coordinates": [ 135.787437599999947, 34.5414438 ] } },
{ "type": "Feature", "properties": { "内容": "福祉用具つむぎ【特定福祉用具販売】奈良県高市郡高取町大字丹生谷1833番地の1", "url": "https://www.kaigokensaku.mhlw.go.jp/29/index.php?action_kouhyou_detail_004_kani=true&JigyosyoCd=2972700237-00&ServiceCd=410&Type=search", "url2": null }, "geometry": { "type": "Point", "coordinates": [ 135.768685799999986, 34.4251087 ] } },
{ "type": "Feature", "properties": { "内容": "明悠ケア【特定福祉用具販売】奈良県高市郡明日香村飛鳥691番地", "url": "https://www.kaigokensaku.mhlw.go.jp/29/index.php?action_kouhyou_detail_004_kani=true&JigyosyoCd=2972800136-00&ServiceCd=410&Type=search", "url2": null }, "geometry": { "type": "Point", "coordinates": [ 135.82114059629518, 34.478178577885835 ] } },
{ "type": "Feature", "properties": { "内容": "株式会社　優和【特定福祉用具販売】奈良県北葛城郡上牧町大字上牧2209番地5", "url": "https://www.kaigokensaku.mhlw.go.jp/29/index.php?action_kouhyou_detail_004_kani=true&JigyosyoCd=2973100452-00&ServiceCd=410&Type=search", "url2": null }, "geometry": { "type": "Point", "coordinates": [ 135.722737654303842, 34.564320968730826 ] } },
{ "type": "Feature", "properties": { "内容": "介護ステーションにこにこ【特定福祉用具販売】奈良県北葛城郡上牧町上牧３８１５", "url": "https://www.kaigokensaku.mhlw.go.jp/29/index.php?action_kouhyou_detail_004_kani=true&JigyosyoCd=2973100148-00&ServiceCd=410&Type=search", "url2": null }, "geometry": { "type": "Point", "coordinates": [ 135.706732800000026, 34.5609234 ] } },
{ "type": "Feature", "properties": { "内容": "ACサポート【特定福祉用具販売】奈良県北葛城郡上牧町上牧2850-7", "url": "https://www.kaigokensaku.mhlw.go.jp/29/index.php?action_kouhyou_detail_004_kani=true&JigyosyoCd=2973100288-00&ServiceCd=410&Type=search", "url2": null }, "geometry": { "type": "Point", "coordinates": [ 135.724167299999976, 34.5684896 ] } },
{ "type": "Feature", "properties": { "内容": "株式会社三晴【特定福祉用具販売】奈良県北葛城郡上牧町大字上牧3374-1", "url": "https://www.kaigokensaku.mhlw.go.jp/29/index.php?action_kouhyou_detail_004_kani=true&JigyosyoCd=2973100684-00&ServiceCd=410&Type=search", "url2": null }, "geometry": { "type": "Point", "coordinates": [ 135.715388, 34.5627051 ] } },
{ "type": "Feature", "properties": { "内容": "福祉用具　ツェイス【特定福祉用具販売】奈良県北葛城郡上牧町米山台六丁目3-12", "url": "https://www.kaigokensaku.mhlw.go.jp/29/index.php?action_kouhyou_detail_004_kani=true&JigyosyoCd=2973100668-00&ServiceCd=410&Type=search", "url2": null }, "geometry": { "type": "Point", "coordinates": [ 135.715390399999933, 34.5649391 ] } },
{ "type": "Feature", "properties": { "内容": "ホームエコテック【特定福祉用具販売】奈良県北葛城郡上牧町上牧2741-3", "url": "https://www.kaigokensaku.mhlw.go.jp/29/index.php?action_kouhyou_detail_004_kani=true&JigyosyoCd=2973100627-00&ServiceCd=410&Type=search", "url2": null }, "geometry": { "type": "Point", "coordinates": [ 135.722706300000027, 34.5701838 ] } },
{ "type": "Feature", "properties": { "内容": "株式会社　ひだまり工房【特定福祉用具販売】奈良県北葛城郡王寺町久度1丁目10番24号", "url": "https://www.kaigokensaku.mhlw.go.jp/29/index.php?action_kouhyou_detail_004_kani=true&JigyosyoCd=2973200310-00&ServiceCd=410&Type=search", "url2": null }, "geometry": { "type": "Point", "coordinates": [ 135.706831800000032, 34.5995521 ] } },
{ "type": "Feature", "properties": { "内容": "ケアクラフト合同会社【特定福祉用具販売】奈良県北葛城郡広陵町的場１３７－４", "url": "https://www.kaigokensaku.mhlw.go.jp/29/index.php?action_kouhyou_detail_004_kani=true&JigyosyoCd=2973300144-00&ServiceCd=410&Type=search", "url2": null }, "geometry": { "type": "Point", "coordinates": [ 135.755811799999947, 34.5659788 ] } },
{ "type": "Feature", "properties": { "内容": "西川株式会社/ネーブルハウス奈良事業所【特定福祉用具販売】奈良県北葛城郡広陵町馬見北1丁目7番12号", "url": "https://www.kaigokensaku.mhlw.go.jp/29/index.php?action_kouhyou_detail_004_kani=true&JigyosyoCd=2973300581-00&ServiceCd=410&Type=search", "url2": "https://nablehouse.co.jp/" }, "geometry": { "type": "Point", "coordinates": [ 135.733282800000012, 34.5550878 ] } },
{ "type": "Feature", "properties": { "内容": "有限会社　マホロバセンター【特定福祉用具販売】奈良県北葛城郡広陵町馬見北９丁目１－３２", "url": "https://www.kaigokensaku.mhlw.go.jp/29/index.php?action_kouhyou_detail_004_kani=true&JigyosyoCd=2973300037-00&ServiceCd=410&Type=search", "url2": null }, "geometry": { "type": "Point", "coordinates": [ 135.722320200000013, 34.5507834 ] } },
{ "type": "Feature", "properties": { "内容": "ニッセイせいれい在宅介護サービスセンターベル西大和店【特定福祉用具販売】奈良県北葛城郡河合町高塚台1-8-1", "url": "https://www.kaigokensaku.mhlw.go.jp/29/index.php?action_kouhyou_detail_004_kani=true&JigyosyoCd=2973400027-00&ServiceCd=410&Type=search", "url2": "http://www.nissay-seirei.org/" }, "geometry": { "type": "Point", "coordinates": [ 135.7231865, 34.5796244 ] } },
{ "type": "Feature", "properties": { "内容": "よしの介護ネットまんてん【特定福祉用具販売】奈良県吉野郡吉野町丹治１９０－２", "url": "https://www.kaigokensaku.mhlw.go.jp/29/index.php?action_kouhyou_detail_004_kani=true&JigyosyoCd=2973500099-00&ServiceCd=410&Type=search", "url2": "yoshino-manten.com/" }, "geometry": { "type": "Point", "coordinates": [ 135.849458101852406, 34.389525626807888 ] } },
{ "type": "Feature", "properties": { "内容": "(有)はたホームケアサービス【特定福祉用具販売】奈良県吉野郡吉野町大字楢井４９４番地の１", "url": "https://www.kaigokensaku.mhlw.go.jp/29/index.php?action_kouhyou_detail_004_kani=true&JigyosyoCd=2973500065-00&ServiceCd=410&Type=search", "url2": null }, "geometry": { "type": "Point", "coordinates": [ 135.882494599999973, 34.3841057 ] } },
{ "type": "Feature", "properties": { "内容": "松八ケアサービス【特定福祉用具販売】奈良県吉野郡大淀町大字桧垣本７０２－２", "url": "https://www.kaigokensaku.mhlw.go.jp/29/index.php?action_kouhyou_detail_004_kani=true&JigyosyoCd=2973600204-00&ServiceCd=410&Type=search", "url2": "https://ma2hachi.wixsite.com/base" }, "geometry": { "type": "Point", "coordinates": [ 135.796725700000025, 34.4060351 ] } },
{ "type": "Feature", "properties": { "内容": "野木商店株式会社【特定福祉用具販売】奈良県吉野郡大淀町桧垣本２０番地", "url": "https://www.kaigokensaku.mhlw.go.jp/29/index.php?action_kouhyou_detail_004_kani=true&JigyosyoCd=2973600220-00&ServiceCd=410&Type=search", "url2": null }, "geometry": { "type": "Point", "coordinates": [ 135.794173933729581, 34.384248366896223 ] } },
{ "type": "Feature", "properties": { "内容": "有限会社　羽根【特定福祉用具販売】奈良県吉野郡大淀町桧垣本786-1", "url": "https://www.kaigokensaku.mhlw.go.jp/29/index.php?action_kouhyou_detail_004_kani=true&JigyosyoCd=2973600048-00&ServiceCd=410&Type=search", "url2": null }, "geometry": { "type": "Point", "coordinates": [ 135.793715, 34.4016523 ] } },
{ "type": "Feature", "properties": { "内容": "介護用品らくらくレンタル　ケアテック【特定福祉用具販売】奈良県吉野郡大淀町北野78-10", "url": "https://www.kaigokensaku.mhlw.go.jp/29/index.php?action_kouhyou_detail_004_kani=true&JigyosyoCd=2973600477-00&ServiceCd=410&Type=search", "url2": null }, "geometry": { "type": "Point", "coordinates": [ 135.8235582, 34.4008654 ] } }
]
}
