{
"type": "FeatureCollection",
"name": "geo_29_特定施設入居者生活介護（有料老人ホーム）",
"crs": { "type": "name", "properties": { "name": "urn:ogc:def:crs:OGC:1.3:CRS84" } },
"features": [
{ "type": "Feature", "properties": { "内容": "ベルパージュ奈良あやめ池ケアレジデンス【特定施設入居者生活介護（有料老人ホーム）】奈良市あやめ池北１丁目32-10-1", "url": "https://www.kaigokensaku.mhlw.go.jp/29/index.php?action_kouhyou_detail_004_kani=true&JigyosyoCd=2970105587-00&ServiceCd=331&Type=search", "url2": "htt://www.kjl.co.jp" }, "geometry": { "type": "Point", "coordinates": [ 135.761164969311523, 34.70164194643295 ] } },
{ "type": "Feature", "properties": { "内容": "ききのもり奈良駅前【特定施設入居者生活介護（有料老人ホーム）】奈良県奈良市三条本町2番20号マツダオフィースビル3F～6F", "url": "https://www.kaigokensaku.mhlw.go.jp/29/index.php?action_kouhyou_detail_004_kani=true&JigyosyoCd=2970102998-00&ServiceCd=331&Type=search", "url2": null }, "geometry": { "type": "Point", "coordinates": [ 135.819737900000064, 34.6798681 ] } },
{ "type": "Feature", "properties": { "内容": "エリシオン学園前【特定施設入居者生活介護（有料老人ホーム）】奈良県奈良市中登美ケ丘一丁目１９９４－６", "url": "https://www.kaigokensaku.mhlw.go.jp/29/index.php?action_kouhyou_detail_004_kani=true&JigyosyoCd=2970104952-00&ServiceCd=331&Type=search", "url2": "http:gakuenmae.elysion-gr.com/" }, "geometry": { "type": "Point", "coordinates": [ 135.751515199999972, 34.7170186 ] } },
{ "type": "Feature", "properties": { "内容": "介護付有料老人ホーム　春日苑【特定施設入居者生活介護（有料老人ホーム）】奈良市三松3丁目640-1", "url": "https://www.kaigokensaku.mhlw.go.jp/29/index.php?action_kouhyou_detail_004_kani=true&JigyosyoCd=2970103657-00&ServiceCd=331&Type=search", "url2": "http://www.kasugaen.net" }, "geometry": { "type": "Point", "coordinates": [ 135.727153899999962, 34.7001535 ] } },
{ "type": "Feature", "properties": { "内容": "エリシオン学園前【特定施設入居者生活介護（有料老人ホーム）】奈良市中登美ケ丘一丁目1994-6", "url": "https://www.kaigokensaku.mhlw.go.jp/29/index.php?action_kouhyou_detail_004_kani=true&JigyosyoCd=2970190951-00&ServiceCd=331&Type=search", "url2": "http：//elysion.gr.com/" }, "geometry": { "type": "Point", "coordinates": [ 135.7514946, 34.7170884 ] } },
{ "type": "Feature", "properties": { "内容": "エリシオン登美ヶ丘【特定施設入居者生活介護（有料老人ホーム）】奈良県奈良市松陽台２丁目３番３３号", "url": "https://www.kaigokensaku.mhlw.go.jp/29/index.php?action_kouhyou_detail_004_kani=true&JigyosyoCd=2970190969-00&ServiceCd=331&Type=search", "url2": "https://elysion.jp/" }, "geometry": { "type": "Point", "coordinates": [ 135.738281199999989, 34.718598 ] } },
{ "type": "Feature", "properties": { "内容": "介護付有料老人ホーム　なら八条【特定施設入居者生活介護（有料老人ホーム）】奈良県奈良市八条５丁目４８９－１", "url": "https://www.kaigokensaku.mhlw.go.jp/29/index.php?action_kouhyou_detail_004_kani=true&JigyosyoCd=2970105108-00&ServiceCd=331&Type=search", "url2": "http://houzankai.jp" }, "geometry": { "type": "Point", "coordinates": [ 135.799245599999949, 34.6656531 ] } },
{ "type": "Feature", "properties": { "内容": "エスティームライフ学園前【特定施設入居者生活介護（有料老人ホーム）】奈良市大倭町1-35", "url": "https://www.kaigokensaku.mhlw.go.jp/29/index.php?action_kouhyou_detail_004_kani=true&JigyosyoCd=2970100273-00&ServiceCd=331&Type=search", "url2": "https://www.activelife.co.jp/" }, "geometry": { "type": "Point", "coordinates": [ 135.756748499999958, 34.6818558 ] } },
{ "type": "Feature", "properties": { "内容": "Charm(チャーム)奈良公園【特定施設入居者生活介護（有料老人ホーム）】奈良市東紀寺町一丁目11番５号", "url": "https://www.kaigokensaku.mhlw.go.jp/29/index.php?action_kouhyou_detail_004_kani=true&JigyosyoCd=2970103715-00&ServiceCd=331&Type=search", "url2": "http://www.charmcc.jp/" }, "geometry": { "type": "Point", "coordinates": [ 135.837458800000036, 34.6709641 ] } },
{ "type": "Feature", "properties": { "内容": "介護付有料老人ホーム　らくじ苑　大和西大寺【特定施設入居者生活介護（有料老人ホーム）】奈良市西大寺南町6番地11号介護付有料老人ホーム　らくじ苑　大和西大寺", "url": "https://www.kaigokensaku.mhlw.go.jp/29/index.php?action_kouhyou_detail_004_kani=true&JigyosyoCd=2970105553-00&ServiceCd=331&Type=search", "url2": "http://www.s-rakuji.com" }, "geometry": { "type": "Point", "coordinates": [ 135.782946198147556, 34.692228327561644 ] } },
{ "type": "Feature", "properties": { "内容": "彩りの郷”なら”白寿苑【特定施設入居者生活介護（有料老人ホーム）】奈良市法蓮佐保山一丁目８番３０号", "url": "https://www.kaigokensaku.mhlw.go.jp/29/index.php?action_kouhyou_detail_004_kani=true&JigyosyoCd=2970103350-00&ServiceCd=331&Type=search", "url2": "http://www/rakuji.com" }, "geometry": { "type": "Point", "coordinates": [ 135.826100699999984, 34.6967968 ] } },
{ "type": "Feature", "properties": { "内容": "介護付有料老人ホーム　やまと【特定施設入居者生活介護（有料老人ホーム）】奈良県奈良市窪之庄町721番地", "url": "https://www.kaigokensaku.mhlw.go.jp/29/index.php?action_kouhyou_detail_004_kani=true&JigyosyoCd=2970107237-00&ServiceCd=331&Type=search", "url2": "http://www.fureai-net.com/" }, "geometry": { "type": "Point", "coordinates": [ 135.844341409297158, 34.638192256931632 ] } },
{ "type": "Feature", "properties": { "内容": "介護付有料老人ホーム春日苑【特定施設入居者生活介護（有料老人ホーム）】三松3丁目4-11", "url": "https://www.kaigokensaku.mhlw.go.jp/29/index.php?action_kouhyou_detail_004_kani=true&JigyosyoCd=2970191157-00&ServiceCd=331&Type=search", "url2": "http://www.kasugaen.net" }, "geometry": { "type": "Point", "coordinates": [ 135.7285574, 34.7014352 ] } },
{ "type": "Feature", "properties": { "内容": "介護付き有料老人ホーム「チェリー・ワン大和高田」【特定施設入居者生活介護（有料老人ホーム）】神楽２丁目１３番２５号チェリー・ワン大和高田", "url": "https://www.kaigokensaku.mhlw.go.jp/29/index.php?action_kouhyou_detail_004_kani=true&JigyosyoCd=2970201725-00&ServiceCd=331&Type=search", "url2": "http://www.nihon-kaigo.com/" }, "geometry": { "type": "Point", "coordinates": [ 135.742682528498818, 34.524143927242662 ] } },
{ "type": "Feature", "properties": { "内容": "介護付有料老人ホーム　ベルライフ大和高田【特定施設入居者生活介護（有料老人ホーム）】奈良県大和高田市西町2番30号", "url": "https://www.kaigokensaku.mhlw.go.jp/29/index.php?action_kouhyou_detail_004_kani=true&JigyosyoCd=2970201022-00&ServiceCd=331&Type=search", "url2": "http://belllife.jp" }, "geometry": { "type": "Point", "coordinates": [ 135.740119400000026, 34.517185 ] } },
{ "type": "Feature", "properties": { "内容": "介護付有料老人ホーム　青藍の郷【特定施設入居者生活介護（有料老人ホーム）】奈良県大和郡山市本庄町312番地の1", "url": "https://www.kaigokensaku.mhlw.go.jp/29/index.php?action_kouhyou_detail_004_kani=true&JigyosyoCd=2970301616-00&ServiceCd=331&Type=search", "url2": "http://seiran-sato.com" }, "geometry": { "type": "Point", "coordinates": [ 135.786499206359878, 34.637458467473614 ] } },
{ "type": "Feature", "properties": { "内容": "ウェルライフ郡山【特定施設入居者生活介護（有料老人ホーム）】大和郡山市田中町761", "url": "https://www.kaigokensaku.mhlw.go.jp/29/index.php?action_kouhyou_detail_004_kani=true&JigyosyoCd=2970300931-00&ServiceCd=331&Type=search", "url2": "www.wellconsul.co.jp" }, "geometry": { "type": "Point", "coordinates": [ 135.768149499999964, 34.6452498 ] } },
{ "type": "Feature", "properties": { "内容": "介護付有料老人ホーム　メビウス大和郡山【特定施設入居者生活介護（有料老人ホーム）】奈良県大和郡山市柳１－１４－１", "url": "https://www.kaigokensaku.mhlw.go.jp/29/index.php?action_kouhyou_detail_004_kani=true&JigyosyoCd=2970301129-00&ServiceCd=331&Type=search", "url2": "http://www.mebius.or.jp" }, "geometry": { "type": "Point", "coordinates": [ 135.783035899999959, 34.6484544 ] } },
{ "type": "Feature", "properties": { "内容": "スーパー・コート郡山筒井【特定施設入居者生活介護（有料老人ホーム）】大和郡山市筒井町856-2スーパー・コート郡山筒井", "url": "https://www.kaigokensaku.mhlw.go.jp/29/index.php?action_kouhyou_detail_004_kani=true&JigyosyoCd=2970301285-00&ServiceCd=331&Type=search", "url2": "http://www.supercourt.jp/supercourt/koriyama/index.html" }, "geometry": { "type": "Point", "coordinates": [ 135.78355590000001, 34.6174049 ] } },
{ "type": "Feature", "properties": { "内容": "Charm（チャーム）郡山九条【特定施設入居者生活介護（有料老人ホーム）】奈良県大和郡山市九条町293-1", "url": "https://www.kaigokensaku.mhlw.go.jp/29/index.php?action_kouhyou_detail_004_kani=true&JigyosyoCd=2970301400-00&ServiceCd=331&Type=search", "url2": "http://www.charmcc.jp" }, "geometry": { "type": "Point", "coordinates": [ 135.776914, 34.6598643 ] } },
{ "type": "Feature", "properties": { "内容": "Ｃharm（チャーム）やまとこおりやま【特定施設入居者生活介護（有料老人ホーム）】大和郡山市本庄町307番地1、308番地1", "url": "https://www.kaigokensaku.mhlw.go.jp/29/index.php?action_kouhyou_detail_004_kani=true&JigyosyoCd=2970300634-00&ServiceCd=331&Type=search", "url2": "http://www.charmcc.jp" }, "geometry": { "type": "Point", "coordinates": [ 135.786044, 34.6374444 ] } },
{ "type": "Feature", "properties": { "内容": "エバーライフ【特定施設入居者生活介護（有料老人ホーム）】奈良県天理市中之庄町555番地", "url": "https://www.kaigokensaku.mhlw.go.jp/29/index.php?action_kouhyou_detail_004_kani=true&JigyosyoCd=2970401523-00&ServiceCd=331&Type=search", "url2": "http://www.fureai-net.com/" }, "geometry": { "type": "Point", "coordinates": [ 135.8436556, 34.6369749 ] } },
{ "type": "Feature", "properties": { "内容": "有料老人ホーム友楽苑【特定施設入居者生活介護（有料老人ホーム）】奈良県御所市重阪771番地の3", "url": "https://www.kaigokensaku.mhlw.go.jp/29/index.php?action_kouhyou_detail_004_kani=true&JigyosyoCd=2970800807-00&ServiceCd=331&Type=search", "url2": "http://www.sanju.or.jp" }, "geometry": { "type": "Point", "coordinates": [ 135.7244957, 34.3881138 ] } },
{ "type": "Feature", "properties": { "内容": "有料老人ホーム　おおとり【特定施設入居者生活介護（有料老人ホーム）】奈良県御所市池之内１０６４番地", "url": "https://www.kaigokensaku.mhlw.go.jp/29/index.php?action_kouhyou_detail_004_kani=true&JigyosyoCd=2970800690-00&ServiceCd=331&Type=search", "url2": "https://www.kounoikekai.com/" }, "geometry": { "type": "Point", "coordinates": [ 135.750705789549244, 34.450883733245114 ] } },
{ "type": "Feature", "properties": { "内容": "有料老人ホーム　おおとりⅡ【特定施設入居者生活介護（有料老人ホーム）】奈良県御所市池之内1064番地", "url": "https://www.kaigokensaku.mhlw.go.jp/29/index.php?action_kouhyou_detail_004_kani=true&JigyosyoCd=2970800773-00&ServiceCd=331&Type=search", "url2": "https://www.kounoikekai.com/" }, "geometry": { "type": "Point", "coordinates": [ 135.7508413, 34.4514422 ] } },
{ "type": "Feature", "properties": { "内容": "介護付有料老人ホーム「ホームケアー生駒」【特定施設入居者生活介護（有料老人ホーム）】生駒市門前町8-16", "url": "https://www.kaigokensaku.mhlw.go.jp/29/index.php?action_kouhyou_detail_004_kani=true&JigyosyoCd=2970900557-00&ServiceCd=331&Type=search", "url2": "http://www.homecare-ikoma.co.jp/" }, "geometry": { "type": "Point", "coordinates": [ 135.688549500000022, 34.6865061 ] } },
{ "type": "Feature", "properties": { "内容": "介護付有料老人ホーム　いにしえの里　創生【特定施設入居者生活介護（有料老人ホーム）】奈良県生駒市萩の台4－4－1", "url": "https://www.kaigokensaku.mhlw.go.jp/29/index.php?action_kouhyou_detail_004_kani=true&JigyosyoCd=2970900490-00&ServiceCd=331&Type=search", "url2": "http://www.sousei-ikoma.com" }, "geometry": { "type": "Point", "coordinates": [ 135.714988400000038, 34.6547881 ] } },
{ "type": "Feature", "properties": { "内容": "エバーライフ香芝【特定施設入居者生活介護（有料老人ホーム）】奈良県香芝市高206", "url": "https://www.kaigokensaku.mhlw.go.jp/29/index.php?action_kouhyou_detail_004_kani=true&JigyosyoCd=2971000761-00&ServiceCd=331&Type=search", "url2": "http://www.fureai-net.com/" }, "geometry": { "type": "Point", "coordinates": [ 135.70364440000003, 34.5542019 ] } },
{ "type": "Feature", "properties": { "内容": "エバーライフ香芝【特定施設入居者生活介護（有料老人ホーム）】奈良県香芝市高206エバーライフ香芝", "url": "https://www.kaigokensaku.mhlw.go.jp/29/index.php?action_kouhyou_detail_004_kani=true&JigyosyoCd=2971001777-00&ServiceCd=331&Type=search", "url2": "https://www.fureai-net.com/" }, "geometry": { "type": "Point", "coordinates": [ 135.70368127116393, 34.554356460370443 ] } },
{ "type": "Feature", "properties": { "内容": "ニチイケアセンター奈良葛城【特定施設入居者生活介護（有料老人ホーム）】北花内292-1", "url": "https://www.kaigokensaku.mhlw.go.jp/29/index.php?action_kouhyou_detail_004_kani=true&JigyosyoCd=2974800415-00&ServiceCd=331&Type=search", "url2": "http://ｗｗｗ.nichiigakkan.co.jp" }, "geometry": { "type": "Point", "coordinates": [ 135.728785772847004, 34.485142515243261 ] } },
{ "type": "Feature", "properties": { "内容": "介護付有料老人ホーム　ベルライフ葛城【特定施設入居者生活介護（有料老人ホーム）】奈良県葛城市北花内527-1", "url": "https://www.kaigokensaku.mhlw.go.jp/29/index.php?action_kouhyou_detail_004_kani=true&JigyosyoCd=2974800480-00&ServiceCd=331&Type=search", "url2": "http://www.bellage.co.jp" }, "geometry": { "type": "Point", "coordinates": [ 135.732407834779337, 34.486774851389363 ] } },
{ "type": "Feature", "properties": { "内容": "介護付有料老人ホーム四つ葉のクローバー【特定施設入居者生活介護（有料老人ホーム）】奈良県宇陀市菟田野松井1－1", "url": "https://www.kaigokensaku.mhlw.go.jp/29/index.php?action_kouhyou_detail_004_kani=true&JigyosyoCd=2974900256-00&ServiceCd=331&Type=search", "url2": "http://www.yotsuba-clover.co.jp/" }, "geometry": { "type": "Point", "coordinates": [ 135.975287917765826, 34.473594185636237 ] } },
{ "type": "Feature", "properties": { "内容": "ひまわり生駒苑【特定施設入居者生活介護（有料老人ホーム）】奈良県生駒郡平群町上庄１－１５－１６", "url": "https://www.kaigokensaku.mhlw.go.jp/29/index.php?action_kouhyou_detail_004_kani=true&JigyosyoCd=2971400110-00&ServiceCd=331&Type=search", "url2": "http://ikomaen.jp/" }, "geometry": { "type": "Point", "coordinates": [ 135.70286770000007, 34.6403839 ] } },
{ "type": "Feature", "properties": { "内容": "介護付有料老人ホーム　もみじの里【特定施設入居者生活介護（有料老人ホーム）】奈良県生駒郡斑鳩町龍田南5-1-40", "url": "https://www.kaigokensaku.mhlw.go.jp/29/index.php?action_kouhyou_detail_004_kani=true&JigyosyoCd=2971600420-00&ServiceCd=331&Type=search", "url2": "http://momijinosato-nara.jimdo.com/" }, "geometry": { "type": "Point", "coordinates": [ 135.721905200000037, 34.6067656 ] } },
{ "type": "Feature", "properties": { "内容": "介護付有料老人ホームぬくもり絆【特定施設入居者生活介護（有料老人ホーム）】奈良県磯城郡田原本町黒田２８６－４", "url": "https://www.kaigokensaku.mhlw.go.jp/29/index.php?action_kouhyou_detail_004_kani=true&JigyosyoCd=2972001024-00&ServiceCd=331&Type=search", "url2": "https://www.nukumori-group.jp/" }, "geometry": { "type": "Point", "coordinates": [ 135.776974599999988, 34.5688782 ] } },
{ "type": "Feature", "properties": { "内容": "介護付有料老人ホーム　あんしん館【特定施設入居者生活介護（有料老人ホーム）】奈良県北葛城郡上牧町中筋出作56-1", "url": "https://www.kaigokensaku.mhlw.go.jp/29/index.php?action_kouhyou_detail_004_kani=true&JigyosyoCd=2973100445-00&ServiceCd=331&Type=search", "url2": null }, "geometry": { "type": "Point", "coordinates": [ 135.706339115799665, 34.556379354126591 ] } },
{ "type": "Feature", "properties": { "内容": "友楽の杜　西大和【特定施設入居者生活介護（有料老人ホーム）】奈良県北葛城郡上牧町ささゆり台三丁目２番１号", "url": "https://www.kaigokensaku.mhlw.go.jp/29/index.php?action_kouhyou_detail_004_kani=true&JigyosyoCd=2973100213-00&ServiceCd=331&Type=search", "url2": "http://www.yuurakunomori.net/" }, "geometry": { "type": "Point", "coordinates": [ 135.718284499999982, 34.566848 ] } },
{ "type": "Feature", "properties": { "内容": "友楽の杜ささゆり【特定施設入居者生活介護（有料老人ホーム）】奈良県北葛城郡上牧町ささゆり台三丁目２番３号", "url": "https://www.kaigokensaku.mhlw.go.jp/29/index.php?action_kouhyou_detail_004_kani=true&JigyosyoCd=2973100494-00&ServiceCd=331&Type=search", "url2": "http://www.yuurakunomori.net/sasayuri/" }, "geometry": { "type": "Point", "coordinates": [ 135.719187927400185, 34.566627086180929 ] } },
{ "type": "Feature", "properties": { "内容": "エリシオン真美ヶ丘アネックス【特定施設入居者生活介護（有料老人ホーム）】奈良県北葛城郡広陵町馬見南４丁目１番１８号", "url": "https://www.kaigokensaku.mhlw.go.jp/29/index.php?action_kouhyou_detail_004_kani=true&JigyosyoCd=2973300771-00&ServiceCd=331&Type=search", "url2": "http://elysion-gr.jp" }, "geometry": { "type": "Point", "coordinates": [ 135.7289324, 34.5376361 ] } },
{ "type": "Feature", "properties": { "内容": "エリシオン真美ヶ丘【特定施設入居者生活介護（有料老人ホーム）】奈良県北葛城郡広陵町馬見南四丁目１－１９", "url": "https://www.kaigokensaku.mhlw.go.jp/29/index.php?action_kouhyou_detail_004_kani=true&JigyosyoCd=2973300763-00&ServiceCd=331&Type=search", "url2": "https://elysion.jp/" }, "geometry": { "type": "Point", "coordinates": [ 135.72859, 34.5380415 ] } },
{ "type": "Feature", "properties": { "内容": "有料老人ホーム　奈良ニッセイエデンの園【特定施設入居者生活介護（有料老人ホーム）】奈良県北葛城郡河合町高塚台1丁目8番地１", "url": "https://www.kaigokensaku.mhlw.go.jp/29/index.php?action_kouhyou_detail_004_kani=true&JigyosyoCd=2973400118-00&ServiceCd=331&Type=search", "url2": "https://www.nissay-seirei.org/nara/" }, "geometry": { "type": "Point", "coordinates": [ 135.724164403943121, 34.579713450616509 ] } }
]
}
