{
"type": "FeatureCollection",
"name": "geo_29_通所リハビリテーション",
"crs": { "type": "name", "properties": { "name": "urn:ogc:def:crs:OGC:1.3:CRS84" } },
"features": [
{ "type": "Feature", "properties": { "内容": "医療法人岡谷会　高畑診療所【通所リハビリテーション】奈良市高畑町95-1", "url": "https://www.kaigokensaku.mhlw.go.jp/29/index.php?action_kouhyou_detail_004_kani=true&JigyosyoCd=2910110135-00&ServiceCd=160&Type=search", "url2": "http://www.okatani.or.jp/takabatake/index.htm" }, "geometry": { "type": "Point", "coordinates": [ 135.840883500000018, 34.671192 ] } },
{ "type": "Feature", "properties": { "内容": "介護老人保健施設　サンライフ奈良【通所リハビリテーション】奈良県奈良市南肘塚町205-1", "url": "https://www.kaigokensaku.mhlw.go.jp/29/index.php?action_kouhyou_detail_004_kani=true&JigyosyoCd=2950180089-00&ServiceCd=160&Type=search", "url2": "//www.seiwakai-group.or.jp" }, "geometry": { "type": "Point", "coordinates": [ 135.8327954, 34.6676088 ] } },
{ "type": "Feature", "properties": { "内容": "介護老人保健施設アンジェロ【通所リハビリテーション】奈良市帝塚山2丁目21番21号", "url": "https://www.kaigokensaku.mhlw.go.jp/29/index.php?action_kouhyou_detail_004_kani=true&JigyosyoCd=2950180022-00&ServiceCd=160&Type=search", "url2": "https://asukakai.or.jp" }, "geometry": { "type": "Point", "coordinates": [ 135.730900799999972, 34.6854938 ] } },
{ "type": "Feature", "properties": { "内容": "医療法人岡谷会介護老人保健施設やくしの里【通所リハビリテーション】奈良市高畑町２１０番地", "url": "https://www.kaigokensaku.mhlw.go.jp/29/index.php?action_kouhyou_detail_004_kani=true&JigyosyoCd=2950180048-00&ServiceCd=160&Type=search", "url2": "https://okatani.or.jp/clinic/yakushi/" }, "geometry": { "type": "Point", "coordinates": [ 135.8463524, 34.6724364 ] } },
{ "type": "Feature", "properties": { "内容": "西奈良メディカルクリニック【通所リハビリテーション】奈良県奈良市二名町平野2丁目2148-2", "url": "https://www.kaigokensaku.mhlw.go.jp/29/index.php?action_kouhyou_detail_004_kani=true&JigyosyoCd=2910161534-00&ServiceCd=160&Type=search", "url2": "www.nishinara-med.com/" }, "geometry": { "type": "Point", "coordinates": [ 135.7314, 34.708017 ] } },
{ "type": "Feature", "properties": { "内容": "医療法人社団谷掛整形外科診療所【通所リハビリテーション】奈良市神殿町644-1", "url": "https://www.kaigokensaku.mhlw.go.jp/29/index.php?action_kouhyou_detail_004_kani=true&JigyosyoCd=2910101910-00&ServiceCd=160&Type=search", "url2": "http://www.tanikake.com" }, "geometry": { "type": "Point", "coordinates": [ 135.8192355, 34.6572125 ] } },
{ "type": "Feature", "properties": { "内容": "医療法人　かづきクリニック【通所リハビリテーション】奈良県奈良市大宮町5丁目1－10－1", "url": "https://www.kaigokensaku.mhlw.go.jp/29/index.php?action_kouhyou_detail_004_kani=true&JigyosyoCd=2910111034-00&ServiceCd=160&Type=search", "url2": null }, "geometry": { "type": "Point", "coordinates": [ 135.816734299999979, 34.6846363 ] } },
{ "type": "Feature", "properties": { "内容": "リハビリこうあん【通所リハビリテーション】奈良市三条大路１－１－９０奈良セントラルビル１F", "url": "https://www.kaigokensaku.mhlw.go.jp/29/index.php?action_kouhyou_detail_004_kani=true&JigyosyoCd=2970104234-00&ServiceCd=160&Type=search", "url2": "www.kouan-clinic.or.jp" }, "geometry": { "type": "Point", "coordinates": [ 135.804116410203505, 34.684146003993085 ] } },
{ "type": "Feature", "properties": { "内容": "介護老人保健施設ロイヤルフェニックス【通所リハビリテーション】奈良市六条町99の2介護老人保健施設ロイヤルフェニックス", "url": "https://www.kaigokensaku.mhlw.go.jp/29/index.php?action_kouhyou_detail_004_kani=true&JigyosyoCd=2950180105-00&ServiceCd=160&Type=search", "url2": "http://www.nishinokyo.or.jp/" }, "geometry": { "type": "Point", "coordinates": [ 135.789979799999969, 34.6657086 ] } },
{ "type": "Feature", "properties": { "内容": "通所リハビリテーション　慈友苑【通所リハビリテーション】奈良県奈良市藤の木台３丁目１５−１", "url": "https://www.kaigokensaku.mhlw.go.jp/29/index.php?action_kouhyou_detail_004_kani=true&JigyosyoCd=2910109681-00&ServiceCd=160&Type=search", "url2": "http://jiyuen.jp" }, "geometry": { "type": "Point", "coordinates": [ 135.8048019, 34.685109 ] } },
{ "type": "Feature", "properties": { "内容": "医療法人　新仁会　奈良春日病院【通所リハビリテーション】奈良県奈良市鹿野園町１２１２－１", "url": "https://www.kaigokensaku.mhlw.go.jp/29/index.php?action_kouhyou_detail_004_kani=true&JigyosyoCd=2910101811-00&ServiceCd=160&Type=search", "url2": "https://www.narakasuga-hospital.or.jp" }, "geometry": { "type": "Point", "coordinates": [ 135.853454599999964, 34.6640737 ] } },
{ "type": "Feature", "properties": { "内容": "奈良セントラル病院【通所リハビリテーション】奈良県奈良市石木町800", "url": "https://www.kaigokensaku.mhlw.go.jp/29/index.php?action_kouhyou_detail_004_kani=true&JigyosyoCd=2910111240-00&ServiceCd=160&Type=search", "url2": "http://nrh.elysion-gr.com/" }, "geometry": { "type": "Point", "coordinates": [ 135.757709699999964, 34.66504110000001 ] } },
{ "type": "Feature", "properties": { "内容": "介護老人保険施設　秋篠【通所リハビリテーション】奈良県奈良市秋篠町１４３２－１", "url": "https://www.kaigokensaku.mhlw.go.jp/29/index.php?action_kouhyou_detail_004_kani=true&JigyosyoCd=2950180030-00&ServiceCd=160&Type=search", "url2": null }, "geometry": { "type": "Point", "coordinates": [ 135.778557500000062, 34.7074368 ] } },
{ "type": "Feature", "properties": { "内容": "医療法人宝山会　介護老人保健施設桜の里【通所リハビリテーション】奈良市八条五丁目437-10", "url": "https://www.kaigokensaku.mhlw.go.jp/29/index.php?action_kouhyou_detail_004_kani=true&JigyosyoCd=2950180055-00&ServiceCd=160&Type=search", "url2": null }, "geometry": { "type": "Point", "coordinates": [ 135.799837238761967, 34.666544839469395 ] } },
{ "type": "Feature", "properties": { "内容": "介護老人保健施設アップル学園前【通所リハビリテーション】奈良市中登美ヶ丘四丁目３番", "url": "https://www.kaigokensaku.mhlw.go.jp/29/index.php?action_kouhyou_detail_004_kani=true&JigyosyoCd=2950180139-00&ServiceCd=160&Type=search", "url2": "http://www.apple-g.or.jp" }, "geometry": { "type": "Point", "coordinates": [ 135.744712125794962, 34.721607926629261 ] } },
{ "type": "Feature", "properties": { "内容": "とみお診療所【通所リハビリテーション】奈良市三碓２丁目１番６号川上第２ビル　２階", "url": "https://www.kaigokensaku.mhlw.go.jp/29/index.php?action_kouhyou_detail_004_kani=true&JigyosyoCd=2910102959-00&ServiceCd=160&Type=search", "url2": "https://kenseikai-nara.or.jp/" }, "geometry": { "type": "Point", "coordinates": [ 135.736361399999964, 34.69111 ] } },
{ "type": "Feature", "properties": { "内容": "社会医療法人松本快生会　介護老人保健施設　大和田の里【通所リハビリテーション】奈良県奈良市丸山二丁目1220-163", "url": "https://www.kaigokensaku.mhlw.go.jp/29/index.php?action_kouhyou_detail_004_kani=true&JigyosyoCd=2950180006-00&ServiceCd=160&Type=search", "url2": "http://oowada.m-kaiseikai.jp/" }, "geometry": { "type": "Point", "coordinates": [ 135.749907500000063, 34.666974 ] } },
{ "type": "Feature", "properties": { "内容": "介護老人保健施設ももたろう【通所リハビリテーション】奈良県奈良市都祁友田町515番地の1", "url": "https://www.kaigokensaku.mhlw.go.jp/29/index.php?action_kouhyou_detail_004_kani=true&JigyosyoCd=2951180146-00&ServiceCd=160&Type=search", "url2": "http://www．Kaigo-momotaro．jp/" }, "geometry": { "type": "Point", "coordinates": [ 135.953214500000058, 34.6006045 ] } },
{ "type": "Feature", "properties": { "内容": "いぬいクリニック【通所リハビリテーション】奈良県奈良市疋田町２丁目１番５号なし", "url": "https://www.kaigokensaku.mhlw.go.jp/29/index.php?action_kouhyou_detail_004_kani=true&JigyosyoCd=2910109467-00&ServiceCd=160&Type=search", "url2": "https://inui-urosurgery-clinic.jp" }, "geometry": { "type": "Point", "coordinates": [ 135.767828900000012, 34.6908629 ] } },
{ "type": "Feature", "properties": { "内容": "介護老人保健施設　光陽【通所リハビリテーション】奈良県大和高田市根成柿321番地の１", "url": "https://www.kaigokensaku.mhlw.go.jp/29/index.php?action_kouhyou_detail_004_kani=true&JigyosyoCd=2950280004-00&ServiceCd=160&Type=search", "url2": "https://nishiikai.com/" }, "geometry": { "type": "Point", "coordinates": [ 135.765154, 34.4859116 ] } },
{ "type": "Feature", "properties": { "内容": "日の出診療所【通所リハビリテーション】奈良県大和高田市日之出町１１番６号", "url": "https://www.kaigokensaku.mhlw.go.jp/29/index.php?action_kouhyou_detail_004_kani=true&JigyosyoCd=2910801352-00&ServiceCd=160&Type=search", "url2": "http://www.kenseikai-nara.or.jp/" }, "geometry": { "type": "Point", "coordinates": [ 135.7482493, 34.5210457 ] } },
{ "type": "Feature", "properties": { "内容": "日の出診療所【通所リハビリテーション】奈良県大和高田市日之出町11番6号", "url": "https://www.kaigokensaku.mhlw.go.jp/29/index.php?action_kouhyou_detail_004_kani=true&JigyosyoCd=2970200719-00&ServiceCd=160&Type=search", "url2": "http//www.kenseikai-nara.or.jp/" }, "geometry": { "type": "Point", "coordinates": [ 135.7482493, 34.5210457 ] } },
{ "type": "Feature", "properties": { "内容": "介護老人保健施設ふれあい【通所リハビリテーション】奈良県大和高田市日之出町１３－１５", "url": "https://www.kaigokensaku.mhlw.go.jp/29/index.php?action_kouhyou_detail_004_kani=true&JigyosyoCd=2950880175-00&ServiceCd=160&Type=search", "url2": "http://www.kenseikai-nara.jp/" }, "geometry": { "type": "Point", "coordinates": [ 135.748901898147551, 34.522014727289694 ] } },
{ "type": "Feature", "properties": { "内容": "医療法人藤和会　通所リハビリテーションほがらか【通所リハビリテーション】奈良県大和郡山市北郡山町１０４－３", "url": "https://www.kaigokensaku.mhlw.go.jp/29/index.php?action_kouhyou_detail_004_kani=true&JigyosyoCd=2910201322-00&ServiceCd=160&Type=search", "url2": "www.touwakai.or.jp" }, "geometry": { "type": "Point", "coordinates": [ 135.7840969, 34.6555038 ] } },
{ "type": "Feature", "properties": { "内容": "医療法人厚生会奈良厚生会病院【通所リハビリテーション】奈良県大和郡山市椎木町769番地の3", "url": "https://www.kaigokensaku.mhlw.go.jp/29/index.php?action_kouhyou_detail_004_kani=true&JigyosyoCd=2910201181-00&ServiceCd=160&Type=search", "url2": "https://www.nara-koseikai.or.jp" }, "geometry": { "type": "Point", "coordinates": [ 135.7689464, 34.6082274 ] } },
{ "type": "Feature", "properties": { "内容": "上田医院・北和診療所【通所リハビリテーション】奈良県大和郡山市九条町362-2", "url": "https://www.kaigokensaku.mhlw.go.jp/29/index.php?action_kouhyou_detail_004_kani=true&JigyosyoCd=2910201355-00&ServiceCd=160&Type=search", "url2": "http://www.myclinic.ne,jp/hokuwaclinic/" }, "geometry": { "type": "Point", "coordinates": [ 135.782804390212959, 34.660156088436281 ] } },
{ "type": "Feature", "properties": { "内容": "介護老人保健施設ピュアネス藍【通所リハビリテーション】奈良県大和郡山市本庄町１番地の５", "url": "https://www.kaigokensaku.mhlw.go.jp/29/index.php?action_kouhyou_detail_004_kani=true&JigyosyoCd=2950280111-00&ServiceCd=160&Type=search", "url2": "http://www.seiran.or.jp/pureness/index.html" }, "geometry": { "type": "Point", "coordinates": [ 135.785440030671111, 34.637393494153088 ] } },
{ "type": "Feature", "properties": { "内容": "医療法人芳愛会　通所リハビリテーション　だいち【通所リハビリテーション】大和郡山市横田町708番地の3", "url": "https://www.kaigokensaku.mhlw.go.jp/29/index.php?action_kouhyou_detail_004_kani=true&JigyosyoCd=2970300824-00&ServiceCd=160&Type=search", "url2": "http://www.drh-cl.com/" }, "geometry": { "type": "Point", "coordinates": [ 135.802220228836063, 34.618612845721593 ] } },
{ "type": "Feature", "properties": { "内容": "医療法人　明樹会　介護老人保健施設　夢眠やまざくら【通所リハビリテーション】奈良県大和郡山市矢田町686-4", "url": "https://www.kaigokensaku.mhlw.go.jp/29/index.php?action_kouhyou_detail_004_kani=true&JigyosyoCd=2950380028-00&ServiceCd=160&Type=search", "url2": "https://meijyukai.net/" }, "geometry": { "type": "Point", "coordinates": [ 135.7544811, 34.64925 ] } },
{ "type": "Feature", "properties": { "内容": "デイケアセンターウェルケア悠【通所リハビリテーション】奈良県大和郡山市田中町728番地", "url": "https://www.kaigokensaku.mhlw.go.jp/29/index.php?action_kouhyou_detail_004_kani=true&JigyosyoCd=2950380010-00&ServiceCd=160&Type=search", "url2": "http://imura-clinic.jp/" }, "geometry": { "type": "Point", "coordinates": [ 135.76841479999996, 34.6480262 ] } },
{ "type": "Feature", "properties": { "内容": "郡山いむらクリニック【通所リハビリテーション】奈良県大和郡山市田中町763番地", "url": "https://www.kaigokensaku.mhlw.go.jp/29/index.php?action_kouhyou_detail_004_kani=true&JigyosyoCd=2910201538-00&ServiceCd=160&Type=search", "url2": "http://imura-clinic.jp/" }, "geometry": { "type": "Point", "coordinates": [ 135.768115, 34.644665 ] } },
{ "type": "Feature", "properties": { "内容": "片桐民主診療所【通所リハビリテーション】大和郡山市新町305－92", "url": "https://www.kaigokensaku.mhlw.go.jp/29/index.php?action_kouhyou_detail_004_kani=true&JigyosyoCd=2910201413-00&ServiceCd=160&Type=search", "url2": "http://www1.mahoroba.ne.jp/~ykmao/hp/katagiriminshu/" }, "geometry": { "type": "Point", "coordinates": [ 135.75658820000001, 34.640446 ] } },
{ "type": "Feature", "properties": { "内容": "介護老人保健施設　幸寿苑【通所リハビリテーション】奈良県大和郡山市城南町2-13", "url": "https://www.kaigokensaku.mhlw.go.jp/29/index.php?action_kouhyou_detail_004_kani=true&JigyosyoCd=2950280079-00&ServiceCd=160&Type=search", "url2": "http://www.takitakai.or.jp/" }, "geometry": { "type": "Point", "coordinates": [ 135.776181678573579, 34.646345646207301 ] } },
{ "type": "Feature", "properties": { "内容": "医療法人宮城会　宮城医院【通所リハビリテーション】天理市丹波市町３０２-３", "url": "https://www.kaigokensaku.mhlw.go.jp/29/index.php?action_kouhyou_detail_004_kani=true&JigyosyoCd=2910901129-00&ServiceCd=160&Type=search", "url2": "http://www.miyagikai.or.jp" }, "geometry": { "type": "Point", "coordinates": [ 135.835951846032657, 34.596813513617981 ] } },
{ "type": "Feature", "properties": { "内容": "介護老人保健施設ならふくじゅ荘【通所リハビリテーション】奈良県天理市中之庄町493-1", "url": "https://www.kaigokensaku.mhlw.go.jp/29/index.php?action_kouhyou_detail_004_kani=true&JigyosyoCd=2950980124-00&ServiceCd=160&Type=search", "url2": "http://www.fureai-net.com" }, "geometry": { "type": "Point", "coordinates": [ 135.843425, 34.6366156 ] } },
{ "type": "Feature", "properties": { "内容": "介護老人保健施設　万葉テラス【通所リハビリテーション】橿原市五井町247番地", "url": "https://www.kaigokensaku.mhlw.go.jp/29/index.php?action_kouhyou_detail_004_kani=true&JigyosyoCd=2950580049-00&ServiceCd=160&Type=search", "url2": "http://www.nanfu.or.jp/manyo-terrace.html" }, "geometry": { "type": "Point", "coordinates": [ 135.7770246, 34.5041816 ] } },
{ "type": "Feature", "properties": { "内容": "さかもとクリニック　通所リハビリテーション【通所リハビリテーション】奈良県橿原市木原町２６－１", "url": "https://www.kaigokensaku.mhlw.go.jp/29/index.php?action_kouhyou_detail_004_kani=true&JigyosyoCd=2911202725-00&ServiceCd=160&Type=search", "url2": null }, "geometry": { "type": "Point", "coordinates": [ 135.8027416, 34.5115062 ] } },
{ "type": "Feature", "properties": { "内容": "医療法人吉川医院通所リハビリテーション【通所リハビリテーション】奈良県橿原市中曽司町１７５", "url": "https://www.kaigokensaku.mhlw.go.jp/29/index.php?action_kouhyou_detail_004_kani=true&JigyosyoCd=2911201362-00&ServiceCd=160&Type=search", "url2": "http://www.yoshikawa-clinic.or.jp/" }, "geometry": { "type": "Point", "coordinates": [ 135.772352800000021, 34.5213099 ] } },
{ "type": "Feature", "properties": { "内容": "介護老人保健施設花橿【通所リハビリテーション】奈良県橿原市古川町３９５－１", "url": "https://www.kaigokensaku.mhlw.go.jp/29/index.php?action_kouhyou_detail_004_kani=true&JigyosyoCd=2950580007-00&ServiceCd=160&Type=search", "url2": "http://www.nanfu.or.jp/hanakashi.html" }, "geometry": { "type": "Point", "coordinates": [ 135.7690202, 34.4874503 ] } },
{ "type": "Feature", "properties": { "内容": "介護老人保健施設　大和三山【通所リハビリテーション】奈良県橿原市膳夫町477-17", "url": "https://www.kaigokensaku.mhlw.go.jp/29/index.php?action_kouhyou_detail_004_kani=true&JigyosyoCd=2950580056-00&ServiceCd=160&Type=search", "url2": "http://yushinkai-nara.com" }, "geometry": { "type": "Point", "coordinates": [ 135.822501234918235, 34.508127733763594 ] } },
{ "type": "Feature", "properties": { "内容": "介護老人保健施設　鷺栖の里【通所リハビリテーション】奈良県橿原市四分町85-1", "url": "https://www.kaigokensaku.mhlw.go.jp/29/index.php?action_kouhyou_detail_004_kani=true&JigyosyoCd=2950580064-00&ServiceCd=160&Type=search", "url2": "http://www.heisei-h.or.jp/sagisu/index.html" }, "geometry": { "type": "Point", "coordinates": [ 135.798086127647366, 34.496479144645839 ] } },
{ "type": "Feature", "properties": { "内容": "介護老人保健施設ケアステージみみなし【通所リハビリテーション】奈良県橿原市常盤町１５８番地１", "url": "https://www.kaigokensaku.mhlw.go.jp/29/index.php?action_kouhyou_detail_004_kani=true&JigyosyoCd=2950580023-00&ServiceCd=160&Type=search", "url2": "http://shoufukukai.or.jp/" }, "geometry": { "type": "Point", "coordinates": [ 135.81619569999998, 34.5187085 ] } },
{ "type": "Feature", "properties": { "内容": "介護老人保健施設リンク橿原【通所リハビリテーション】奈良県橿原市雲梯町28番地", "url": "https://www.kaigokensaku.mhlw.go.jp/29/index.php?action_kouhyou_detail_004_kani=true&JigyosyoCd=2951280201-00&ServiceCd=160&Type=search", "url2": "http://kanahashien.iinaa.net/" }, "geometry": { "type": "Point", "coordinates": [ 135.7670561, 34.5027235 ] } },
{ "type": "Feature", "properties": { "内容": "介護老人保健施設　まきむく草庵【通所リハビリテーション】奈良県桜井市草川５８番地", "url": "https://www.kaigokensaku.mhlw.go.jp/29/index.php?action_kouhyou_detail_004_kani=true&JigyosyoCd=2950680013-00&ServiceCd=160&Type=search", "url2": "https://www.yamanobe.or.jp/makimuku-souan" }, "geometry": { "type": "Point", "coordinates": [ 135.838347761464803, 34.549363351198899 ] } },
{ "type": "Feature", "properties": { "内容": "介護老人保健施設やまのべグリーンヒルズ【通所リハビリテーション】奈良県桜井市大豆越１０４－１", "url": "https://www.kaigokensaku.mhlw.go.jp/29/index.php?action_kouhyou_detail_004_kani=true&JigyosyoCd=2950480091-00&ServiceCd=160&Type=search", "url2": "https://www.yamanobe.or.jp" }, "geometry": { "type": "Point", "coordinates": [ 135.836920891219961, 34.549080278427731 ] } },
{ "type": "Feature", "properties": { "内容": "大福診療所通所リハビリテーション　シュエット【通所リハビリテーション】奈良県桜井市大福240-1", "url": "https://www.kaigokensaku.mhlw.go.jp/29/index.php?action_kouhyou_detail_004_kani=true&JigyosyoCd=2910401245-00&ServiceCd=160&Type=search", "url2": "https://kenseikai-nara.or.jp/" }, "geometry": { "type": "Point", "coordinates": [ 135.829263800000035, 34.5125032 ] } },
{ "type": "Feature", "properties": { "内容": "介護老人保健施設シルバーケアまほろば【通所リハビリテーション】桜井市阿部323", "url": "https://www.kaigokensaku.mhlw.go.jp/29/index.php?action_kouhyou_detail_004_kani=true&JigyosyoCd=2950480067-00&ServiceCd=160&Type=search", "url2": "https://sc-mahoroba.jp/" }, "geometry": { "type": "Point", "coordinates": [ 135.839174500000013, 34.5077045 ] } },
{ "type": "Feature", "properties": { "内容": "医療法人　医眞会　デイケアみわ【通所リハビリテーション】奈良県桜井市三輪496-1", "url": "https://www.kaigokensaku.mhlw.go.jp/29/index.php?action_kouhyou_detail_004_kani=true&JigyosyoCd=2970600504-00&ServiceCd=160&Type=search", "url2": "http://www.isinkai.com/" }, "geometry": { "type": "Point", "coordinates": [ 135.8471098, 34.5259578 ] } },
{ "type": "Feature", "properties": { "内容": "介護老人保健施設　ローズ【通所リハビリテーション】奈良県　五條市　二見　５丁目　３番　６４号", "url": "https://www.kaigokensaku.mhlw.go.jp/29/index.php?action_kouhyou_detail_004_kani=true&JigyosyoCd=2950780003-00&ServiceCd=160&Type=search", "url2": "http://www.hajime-kai.com/" }, "geometry": { "type": "Point", "coordinates": [ 135.691993599999932, 34.3417371 ] } },
{ "type": "Feature", "properties": { "内容": "介護老人保健施設　ルポゼまきの【通所リハビリテーション】奈良県五條市大沢町9-8", "url": "https://www.kaigokensaku.mhlw.go.jp/29/index.php?action_kouhyou_detail_004_kani=true&JigyosyoCd=2951480157-00&ServiceCd=160&Type=search", "url2": "http://www.seiwakai-gojo.or.jp/" }, "geometry": { "type": "Point", "coordinates": [ 135.6681036, 34.360648 ] } },
{ "type": "Feature", "properties": { "内容": "医療法人友愛会　沢田医院　いきいきデイケア【通所リハビリテーション】奈良県御所市180-14沢田医院２階", "url": "https://www.kaigokensaku.mhlw.go.jp/29/index.php?action_kouhyou_detail_004_kani=true&JigyosyoCd=2911301162-00&ServiceCd=160&Type=search", "url2": "http://youai-kai.com/sawada/" }, "geometry": { "type": "Point", "coordinates": [ 135.732245450242004, 34.463981029268695 ] } },
{ "type": "Feature", "properties": { "内容": "介護老人保健施設　鴻池荘　サテライト蜻蛉【通所リハビリテーション】奈良県御所市茅原168-1", "url": "https://www.kaigokensaku.mhlw.go.jp/29/index.php?action_kouhyou_detail_004_kani=true&JigyosyoCd=2950880019-00&ServiceCd=160&Type=search", "url2": "https://www.kounoikekai.com/" }, "geometry": { "type": "Point", "coordinates": [ 135.748828399999979, 34.4623643 ] } },
{ "type": "Feature", "properties": { "内容": "介護老人保健施設　鴻池荘【通所リハビリテーション】奈良県御所市池之内１０６４番地", "url": "https://www.kaigokensaku.mhlw.go.jp/29/index.php?action_kouhyou_detail_004_kani=true&JigyosyoCd=2951380001-00&ServiceCd=160&Type=search", "url2": "https://www.kounoikekai.com/" }, "geometry": { "type": "Point", "coordinates": [ 135.750734602377293, 34.45142560248258 ] } },
{ "type": "Feature", "properties": { "内容": "介護老人保健施設ハビリス【通所リハビリテーション】奈良県生駒市上町88番地1", "url": "https://www.kaigokensaku.mhlw.go.jp/29/index.php?action_kouhyou_detail_004_kani=true&JigyosyoCd=2950980033-00&ServiceCd=160&Type=search", "url2": "https://asukakai.or.jp" }, "geometry": { "type": "Point", "coordinates": [ 135.7224927, 34.7198994 ] } },
{ "type": "Feature", "properties": { "内容": "医療法人風尚会やました医院【通所リハビリテーション】奈良県生駒市南田原町１０３９", "url": "https://www.kaigokensaku.mhlw.go.jp/29/index.php?action_kouhyou_detail_004_kani=true&JigyosyoCd=2970900938-00&ServiceCd=160&Type=search", "url2": "ikoma-yamashyaiinn.com]" }, "geometry": { "type": "Point", "coordinates": [ 135.70452750000004, 34.713891 ] } },
{ "type": "Feature", "properties": { "内容": "介護老人保健施設　グランファミリア【通所リハビリテーション】生駒市小明町１１３０－１１１", "url": "https://www.kaigokensaku.mhlw.go.jp/29/index.php?action_kouhyou_detail_004_kani=true&JigyosyoCd=2950380168-00&ServiceCd=160&Type=search", "url2": "http://www.allpines.jp/grandfamilia/" }, "geometry": { "type": "Point", "coordinates": [ 135.705047, 34.70217 ] } },
{ "type": "Feature", "properties": { "内容": "医療法人社団松下会東生駒病院【通所リハビリテーション】奈良県生駒市辻町４－１", "url": "https://www.kaigokensaku.mhlw.go.jp/29/index.php?action_kouhyou_detail_004_kani=true&JigyosyoCd=2910301098-00&ServiceCd=160&Type=search", "url2": "http://www.allpines.jp" }, "geometry": { "type": "Point", "coordinates": [ 135.708174899999989, 34.6994957 ] } },
{ "type": "Feature", "properties": { "内容": "生駒市介護老人保健施設　やすらぎの杜優楽【通所リハビリテーション】奈良県生駒市小瀬町３２４番地の２", "url": "https://www.kaigokensaku.mhlw.go.jp/29/index.php?action_kouhyou_detail_004_kani=true&JigyosyoCd=2950980025-00&ServiceCd=160&Type=search", "url2": "http://www.ikoma-yuraku.com/" }, "geometry": { "type": "Point", "coordinates": [ 135.722518199999968, 34.664154 ] } },
{ "type": "Feature", "properties": { "内容": "介護老人保健施設　オークピア鹿芝【通所リハビリテーション】香芝市穴虫885-1", "url": "https://www.kaigokensaku.mhlw.go.jp/29/index.php?action_kouhyou_detail_004_kani=true&JigyosyoCd=2951080007-00&ServiceCd=160&Type=search", "url2": "http://www.suiyuukai.or.jp/kashiba" }, "geometry": { "type": "Point", "coordinates": [ 135.686918399999968, 34.5497853 ] } },
{ "type": "Feature", "properties": { "内容": "ぬくもりクリニック【通所リハビリテーション】奈良県香芝市下田西2丁目7-61通所リハビリぬくもり", "url": "https://www.kaigokensaku.mhlw.go.jp/29/index.php?action_kouhyou_detail_004_kani=true&JigyosyoCd=2911801310-00&ServiceCd=160&Type=search", "url2": "http://www.nukumori-group.jp/" }, "geometry": { "type": "Point", "coordinates": [ 135.703258499999947, 34.5438726 ] } },
{ "type": "Feature", "properties": { "内容": "介護老人保健施設てんとう虫【通所リハビリテーション】奈良県香芝市平野２３－１", "url": "https://www.kaigokensaku.mhlw.go.jp/29/index.php?action_kouhyou_detail_004_kani=true&JigyosyoCd=2951080015-00&ServiceCd=160&Type=search", "url2": "http://www.hakujukai.or.jp" }, "geometry": { "type": "Point", "coordinates": [ 135.696078199999988, 34.5661224 ] } },
{ "type": "Feature", "properties": { "内容": "医療法人優慶会　デイケアセンターまみの里【通所リハビリテーション】奈良県香芝市真美ヶ丘4－16－3", "url": "https://www.kaigokensaku.mhlw.go.jp/29/index.php?action_kouhyou_detail_004_kani=true&JigyosyoCd=2971000480-00&ServiceCd=160&Type=search", "url2": null }, "geometry": { "type": "Point", "coordinates": [ 135.72754450663578, 34.537520925519964 ] } },
{ "type": "Feature", "properties": { "内容": "介護老人保健施設　ぬくもり葛城【通所リハビリテーション】奈良県葛城市西室150-8", "url": "https://www.kaigokensaku.mhlw.go.jp/29/index.php?action_kouhyou_detail_004_kani=true&JigyosyoCd=2954880015-00&ServiceCd=160&Type=search", "url2": "http://www.nukumori-group.jp/" }, "geometry": { "type": "Point", "coordinates": [ 135.7282765, 34.492685 ] } },
{ "type": "Feature", "properties": { "内容": "医療法人博愛会　介護老人保健施設かつらぎ【通所リハビリテーション】奈良県葛城市林堂360-1", "url": "https://www.kaigokensaku.mhlw.go.jp/29/index.php?action_kouhyou_detail_004_kani=true&JigyosyoCd=2954880007-00&ServiceCd=160&Type=search", "url2": "https://hakuaikai-k.or.jp/" }, "geometry": { "type": "Point", "coordinates": [ 135.718986, 34.4812306 ] } },
{ "type": "Feature", "properties": { "内容": "医療法人友愛会　かつらぎクリニック【通所リハビリテーション】奈良県葛城市北花内６１６－１かつらぎクリニック　３階", "url": "https://www.kaigokensaku.mhlw.go.jp/29/index.php?action_kouhyou_detail_004_kani=true&JigyosyoCd=2911901086-00&ServiceCd=160&Type=search", "url2": "http://www.katsuragi-clinic.asia/" }, "geometry": { "type": "Point", "coordinates": [ 135.730945900000052, 34.4881828 ] } },
{ "type": "Feature", "properties": { "内容": "医療法人吉生会吉井整形外科医院【通所リハビリテーション】奈良県宇陀市榛原福地３７４－１", "url": "https://www.kaigokensaku.mhlw.go.jp/29/index.php?action_kouhyou_detail_004_kani=true&JigyosyoCd=2912001068-00&ServiceCd=160&Type=search", "url2": "https://www.yoshii-seikeigeka-iin.net/information-1" }, "geometry": { "type": "Point", "coordinates": [ 135.963582299999985, 34.5329092 ] } },
{ "type": "Feature", "properties": { "内容": "宇陀市介護老人保健施設さんとぴあ榛原【通所リハビリテーション】奈良県宇陀市榛原萩原801番地の１", "url": "https://www.kaigokensaku.mhlw.go.jp/29/index.php?action_kouhyou_detail_004_kani=true&JigyosyoCd=2950680187-00&ServiceCd=160&Type=search", "url2": "http://www.city.uda.nara.jp/santopia/index.html" }, "geometry": { "type": "Point", "coordinates": [ 135.960032773849434, 34.530586677186058 ] } },
{ "type": "Feature", "properties": { "内容": "介護老人保健施設悠々の郷【通所リハビリテーション】奈良県生駒郡平群町上庄1-15-1", "url": "https://www.kaigokensaku.mhlw.go.jp/29/index.php?action_kouhyou_detail_004_kani=true&JigyosyoCd=2951480009-00&ServiceCd=160&Type=search", "url2": "http://www.yawaragikai.jp/" }, "geometry": { "type": "Point", "coordinates": [ 135.703495400000065, 34.6410616 ] } },
{ "type": "Feature", "properties": { "内容": "介護老人保健施設もののみの郷【通所リハビリテーション】奈良県生駒郡三郷町信貴山東4番10号", "url": "https://www.kaigokensaku.mhlw.go.jp/29/index.php?action_kouhyou_detail_004_kani=true&JigyosyoCd=2951580006-00&ServiceCd=160&Type=search", "url2": "https://www.kikawa.or.jp/wp/" }, "geometry": { "type": "Point", "coordinates": [ 135.676101099999983, 34.6060596 ] } },
{ "type": "Feature", "properties": { "内容": "医療法人　西和会　西和往診クリニック【通所リハビリテーション】奈良県生駒郡斑鳩町小吉田2丁目7ー15", "url": "https://www.kaigokensaku.mhlw.go.jp/29/index.php?action_kouhyou_detail_004_kani=true&JigyosyoCd=2910501341-00&ServiceCd=160&Type=search", "url2": "http//seiwa-medicalcare-center.co.jp/" }, "geometry": { "type": "Point", "coordinates": [ 135.727718900000013, 34.6029688 ] } },
{ "type": "Feature", "properties": { "内容": "石崎整形外科・内科通所リハビリテーション【通所リハビリテーション】興留5-10-28", "url": "https://www.kaigokensaku.mhlw.go.jp/29/index.php?action_kouhyou_detail_004_kani=true&JigyosyoCd=2910500657-00&ServiceCd=160&Type=search", "url2": "http://ishizaki.medicoop.ne.jp/" }, "geometry": { "type": "Point", "coordinates": [ 135.737665500000048, 34.6036298 ] } },
{ "type": "Feature", "properties": { "内容": "介護老人保健施設若草園【通所リハビリテーション】奈良県生駒郡安堵町岡崎５８番地", "url": "https://www.kaigokensaku.mhlw.go.jp/29/index.php?action_kouhyou_detail_004_kani=true&JigyosyoCd=2950580031-00&ServiceCd=160&Type=search", "url2": "http://www.wakakusaen324.com/" }, "geometry": { "type": "Point", "coordinates": [ 135.768197124753641, 34.608347286296421 ] } },
{ "type": "Feature", "properties": { "内容": "老人保健施設　サンライフ田原本【通所リハビリテーション】磯城郡田原本町小阪305-1", "url": "https://www.kaigokensaku.mhlw.go.jp/29/index.php?action_kouhyou_detail_004_kani=true&JigyosyoCd=2950780193-00&ServiceCd=160&Type=search", "url2": "http://www.seiwakai-group.or.jp/sunlife-tawaramoto.html" }, "geometry": { "type": "Point", "coordinates": [ 135.797061399999961, 34.5605029 ] } },
{ "type": "Feature", "properties": { "内容": "介護老人保健施設　ぬくもり田原本【通所リハビリテーション】奈良県磯城郡田原本町黒田285-1", "url": "https://www.kaigokensaku.mhlw.go.jp/29/index.php?action_kouhyou_detail_004_kani=true&JigyosyoCd=2952080014-00&ServiceCd=160&Type=search", "url2": "http://www.nukumori-group.jp/" }, "geometry": { "type": "Point", "coordinates": [ 135.777857541278081, 34.569011063615086 ] } },
{ "type": "Feature", "properties": { "内容": "介護老人保健施設　萩の里あすか【通所リハビリテーション】高市郡高取町松山685番地介護老人保健施設　萩の里あすか", "url": "https://www.kaigokensaku.mhlw.go.jp/29/index.php?action_kouhyou_detail_004_kani=true&JigyosyoCd=2952780019-00&ServiceCd=160&Type=search", "url2": "www.asuka-hp.or.jp" }, "geometry": { "type": "Point", "coordinates": [ 135.792758400000054, 34.4409727 ] } },
{ "type": "Feature", "properties": { "内容": "介護老人保健施設　グランディまきば【通所リハビリテーション】上牧899-7介護老人保健施設　グランディまきば", "url": "https://www.kaigokensaku.mhlw.go.jp/29/index.php?action_kouhyou_detail_004_kani=true&JigyosyoCd=2953180011-00&ServiceCd=160&Type=search", "url2": "http://makiba.jp/grandi" }, "geometry": { "type": "Point", "coordinates": [ 135.715924308598346, 34.555516216151794 ] } },
{ "type": "Feature", "properties": { "内容": "医療法人友紘会西大和リハビリテーション病院【通所リハビリテーション】奈良県北葛城郡上牧町ささゆり台3-2-2", "url": "https://www.kaigokensaku.mhlw.go.jp/29/index.php?action_kouhyou_detail_004_kani=true&JigyosyoCd=2911501506-00&ServiceCd=160&Type=search", "url2": "http://www.nishiyamato.net/" }, "geometry": { "type": "Point", "coordinates": [ 135.7186011, 34.5665675 ] } },
{ "type": "Feature", "properties": { "内容": "介護老人保健施設ユートピア・ゆり【通所リハビリテーション】奈良県北葛城郡上牧町上牧4244番地", "url": "https://www.kaigokensaku.mhlw.go.jp/29/index.php?action_kouhyou_detail_004_kani=true&JigyosyoCd=2951580014-00&ServiceCd=160&Type=search", "url2": "www.ikujikai.or.jp" }, "geometry": { "type": "Point", "coordinates": [ 135.709214978790186, 34.558854979914862 ] } },
{ "type": "Feature", "properties": { "内容": "介護老人保健施設　こころ上牧【通所リハビリテーション】奈良県北葛城郡上牧町大字上牧2768-2", "url": "https://www.kaigokensaku.mhlw.go.jp/29/index.php?action_kouhyou_detail_004_kani=true&JigyosyoCd=2953180003-00&ServiceCd=160&Type=search", "url2": "http://www.chowahukushikai.or.jp/kanmaki.html" }, "geometry": { "type": "Point", "coordinates": [ 135.723175699999956, 34.5687785 ] } },
{ "type": "Feature", "properties": { "内容": "介護老人保健施設ぬくもり広陵【通所リハビリテーション】奈良県北葛城郡広陵町馬見北5-13-11", "url": "https://www.kaigokensaku.mhlw.go.jp/29/index.php?action_kouhyou_detail_004_kani=true&JigyosyoCd=2953380025-00&ServiceCd=160&Type=search", "url2": "https://nukumori-group.jp/seiankai/index.html" }, "geometry": { "type": "Point", "coordinates": [ 135.7264514, 34.5540732 ] } },
{ "type": "Feature", "properties": { "内容": "介護老人保健施設　かぐやの里【通所リハビリテーション】北葛城郡広陵町大字三吉1799番地1", "url": "https://www.kaigokensaku.mhlw.go.jp/29/index.php?action_kouhyou_detail_004_kani=true&JigyosyoCd=2953380017-00&ServiceCd=160&Type=search", "url2": "http://www.kaguyanosato.jp" }, "geometry": { "type": "Point", "coordinates": [ 135.749543099999983, 34.5536692 ] } },
{ "type": "Feature", "properties": { "内容": "介護老人保健施設　奈良ベテルホーム【通所リハビリテーション】奈良県北葛城郡河合町高塚台1丁目8番地1", "url": "https://www.kaigokensaku.mhlw.go.jp/29/index.php?action_kouhyou_detail_004_kani=true&JigyosyoCd=2951580055-00&ServiceCd=160&Type=search", "url2": "https://www.nissay-seirei.org/nara/facilities/betel.php" }, "geometry": { "type": "Point", "coordinates": [ 135.722251169822698, 34.579630177328163 ] } },
{ "type": "Feature", "properties": { "内容": "介護老人保健施設でぃあほうむ吉野【通所リハビリテーション】奈良県吉野郡大淀町矢走666番地の6", "url": "https://www.kaigokensaku.mhlw.go.jp/29/index.php?action_kouhyou_detail_004_kani=true&JigyosyoCd=2953680002-00&ServiceCd=160&Type=search", "url2": "http://www.e-dearhome.com" }, "geometry": { "type": "Point", "coordinates": [ 135.785576799999944, 34.4043685 ] } }
]
}
