{
"type": "FeatureCollection",
"name": "geo_29_訪問看護",
"crs": { "type": "name", "properties": { "name": "urn:ogc:def:crs:OGC:1.3:CRS84" } },
"features": [
{ "type": "Feature", "properties": { "内容": "ケアステーション和【訪問看護】奈良県奈良市左京１丁目８番７号", "url": "https://www.kaigokensaku.mhlw.go.jp/29/index.php?action_kouhyou_detail_004_kani=true&JigyosyoCd=2960190458-00&ServiceCd=130&Type=search", "url2": null }, "geometry": { "type": "Point", "coordinates": [ 135.800483200000031, 34.7097702 ] } },
{ "type": "Feature", "properties": { "内容": "東谷医院【訪問看護】奈良県奈良市南魚屋町３７番地", "url": "https://www.kaigokensaku.mhlw.go.jp/29/index.php?action_kouhyou_detail_004_kani=true&JigyosyoCd=2910108253-00&ServiceCd=130&Type=search", "url2": "http://higashitani-iin.com/" }, "geometry": { "type": "Point", "coordinates": [ 135.82551239999998, 34.6786684 ] } },
{ "type": "Feature", "properties": { "内容": "訪問看護ステーションデューン奈良【訪問看護】奈良県奈良市大宮町２丁目４番２７号スカイヴィレッジ大宮２階", "url": "https://www.kaigokensaku.mhlw.go.jp/29/index.php?action_kouhyou_detail_004_kani=true&JigyosyoCd=2960190227-00&ServiceCd=130&Type=search", "url2": "http://www.nfield.co.jp" }, "geometry": { "type": "Point", "coordinates": [ 135.81527239797515, 34.684208548655967 ] } },
{ "type": "Feature", "properties": { "内容": "社会福祉法人晃宝会　訪問看護ステーション　いちご【訪問看護】奈良市南紀寺町１－２１９", "url": "https://www.kaigokensaku.mhlw.go.jp/29/index.php?action_kouhyou_detail_004_kani=true&JigyosyoCd=2960190540-00&ServiceCd=130&Type=search", "url2": "http://www.ajisaien.or.jp" }, "geometry": { "type": "Point", "coordinates": [ 135.833153700000025, 34.6682837 ] } },
{ "type": "Feature", "properties": { "内容": "訪問看護ステーション佐保の里【訪問看護】佐保台2丁目902－377", "url": "https://www.kaigokensaku.mhlw.go.jp/29/index.php?action_kouhyou_detail_004_kani=true&JigyosyoCd=2960191175-00&ServiceCd=130&Type=search", "url2": "http://www.lifeartcommunity.com/" }, "geometry": { "type": "Point", "coordinates": [ 135.815313, 34.708087300000017 ] } },
{ "type": "Feature", "properties": { "内容": "訪問看護ステーション　Pieces【訪問看護】奈良市三碓6丁目10-48コスモプラザ大神　203", "url": "https://www.kaigokensaku.mhlw.go.jp/29/index.php?action_kouhyou_detail_004_kani=true&JigyosyoCd=2960199111-00&ServiceCd=130&Type=search", "url2": null }, "geometry": { "type": "Point", "coordinates": [ 135.738237, 34.6839554 ] } },
{ "type": "Feature", "properties": { "内容": "訪問看護ステーションなつめ奈良【訪問看護】奈良県奈良市西木辻町150-2エスポワール奈良八嘉304", "url": "https://www.kaigokensaku.mhlw.go.jp/29/index.php?action_kouhyou_detail_004_kani=true&JigyosyoCd=2960199236-00&ServiceCd=130&Type=search", "url2": null }, "geometry": { "type": "Point", "coordinates": [ 135.823403500000012, 34.673291200000016 ] } },
{ "type": "Feature", "properties": { "内容": "訪問看護ステーション　友舞【訪問看護】左京四丁目3番地の5", "url": "https://www.kaigokensaku.mhlw.go.jp/29/index.php?action_kouhyou_detail_004_kani=true&JigyosyoCd=2960199251-00&ServiceCd=130&Type=search", "url2": null }, "geometry": { "type": "Point", "coordinates": [ 135.804899295106537, 34.717082962347469 ] } },
{ "type": "Feature", "properties": { "内容": "訪問看護ステーションアンジェロ【訪問看護】奈良市富雄元町3丁目3-11", "url": "https://www.kaigokensaku.mhlw.go.jp/29/index.php?action_kouhyou_detail_004_kani=true&JigyosyoCd=2960199269-00&ServiceCd=130&Type=search", "url2": "https://asukakai.or.jp" }, "geometry": { "type": "Point", "coordinates": [ 135.732353100000012, 34.6925564 ] } },
{ "type": "Feature", "properties": { "内容": "訪問看護ステーションベア【訪問看護】奈良県奈良市三条大路2丁目3-39シティハイム103号", "url": "https://www.kaigokensaku.mhlw.go.jp/29/index.php?action_kouhyou_detail_004_kani=true&JigyosyoCd=2960199160-00&ServiceCd=130&Type=search", "url2": "https://sakura-plg.com/visiting/e-step" }, "geometry": { "type": "Point", "coordinates": [ 135.797112380950921, 34.682687555014418 ] } },
{ "type": "Feature", "properties": { "内容": "訪問看護ステーション　フレンドリー奈良【訪問看護】あやめ池北三丁目10-7あやめ池ガーデンハイツ505号室", "url": "https://www.kaigokensaku.mhlw.go.jp/29/index.php?action_kouhyou_detail_004_kani=true&JigyosyoCd=2960199277-00&ServiceCd=130&Type=search", "url2": null }, "geometry": { "type": "Point", "coordinates": [ 135.766250700000029, 34.6980737 ] } },
{ "type": "Feature", "properties": { "内容": "訪問看護ステーションあゆみ【訪問看護】奈良県奈良市平松1丁目31番24号", "url": "https://www.kaigokensaku.mhlw.go.jp/29/index.php?action_kouhyou_detail_004_kani=true&JigyosyoCd=2960199285-00&ServiceCd=130&Type=search", "url2": "http://www.ayumi1007.com/" }, "geometry": { "type": "Point", "coordinates": [ 135.7751113, 34.6802395 ] } },
{ "type": "Feature", "properties": { "内容": "医療法人岡谷会訪問看護ステーションぬくもりポート【訪問看護】奈良市西木辻町200番地岡谷会本館3階", "url": "https://www.kaigokensaku.mhlw.go.jp/29/index.php?action_kouhyou_detail_004_kani=true&JigyosyoCd=2960190011-00&ServiceCd=130&Type=search", "url2": "http://www.okatani.or.jp/zaitaku/" }, "geometry": { "type": "Point", "coordinates": [ 135.825034800000026, 34.6740856 ] } },
{ "type": "Feature", "properties": { "内容": "株式会社今西建商　訪問看護ステーションはなみずき【訪問看護】奈良県奈良市都祁友田町1459番地", "url": "https://www.kaigokensaku.mhlw.go.jp/29/index.php?action_kouhyou_detail_004_kani=true&JigyosyoCd=2960199244-00&ServiceCd=130&Type=search", "url2": "hanamizuki-nara.com" }, "geometry": { "type": "Point", "coordinates": [ 135.946713499999987, 34.601273 ] } },
{ "type": "Feature", "properties": { "内容": "吉田病院訪問看護ステーションひだまり【訪問看護】奈良市右京3-2-2", "url": "https://www.kaigokensaku.mhlw.go.jp/29/index.php?action_kouhyou_detail_004_kani=true&JigyosyoCd=2960190185-00&ServiceCd=130&Type=search", "url2": null }, "geometry": { "type": "Point", "coordinates": [ 135.786725899999965, 34.717308 ] } },
{ "type": "Feature", "properties": { "内容": "吉田病院訪問看護ステーションほほえみポート【訪問看護】奈良市三碓2-1-6第２川上ビル3Ｆ4号室", "url": "https://www.kaigokensaku.mhlw.go.jp/29/index.php?action_kouhyou_detail_004_kani=true&JigyosyoCd=2960190094-00&ServiceCd=130&Type=search", "url2": null }, "geometry": { "type": "Point", "coordinates": [ 135.736361399999964, 34.69111 ] } },
{ "type": "Feature", "properties": { "内容": "訪問看護ステーションツルーハート【訪問看護】奈良県奈良市法蓮町1934-11", "url": "https://www.kaigokensaku.mhlw.go.jp/29/index.php?action_kouhyou_detail_004_kani=true&JigyosyoCd=2960190920-00&ServiceCd=130&Type=search", "url2": null }, "geometry": { "type": "Point", "coordinates": [ 135.814196300000049, 34.6941942 ] } },
{ "type": "Feature", "properties": { "内容": "ディア訪問看護ステーション【訪問看護】奈良県奈良市大森町24ー1メゾンアンテルナ奈良506", "url": "https://www.kaigokensaku.mhlw.go.jp/29/index.php?action_kouhyou_detail_004_kani=true&JigyosyoCd=2960199335-00&ServiceCd=130&Type=search", "url2": null }, "geometry": { "type": "Point", "coordinates": [ 135.821702, 34.676506200000034 ] } },
{ "type": "Feature", "properties": { "内容": "訪問看護ステーションなら八条【訪問看護】奈良県奈良市八条五丁目437-10住宅型有料老人ホームなら八条内1階", "url": "https://www.kaigokensaku.mhlw.go.jp/29/index.php?action_kouhyou_detail_004_kani=true&JigyosyoCd=2960199178-00&ServiceCd=130&Type=search", "url2": null }, "geometry": { "type": "Point", "coordinates": [ 135.799728499999986, 34.6662629 ] } },
{ "type": "Feature", "properties": { "内容": "訪問看護ステーションLIFEDESIGN【訪問看護】奈良県奈良市杉ヶ町87-2", "url": "https://www.kaigokensaku.mhlw.go.jp/29/index.php?action_kouhyou_detail_004_kani=true&JigyosyoCd=2960196257-00&ServiceCd=130&Type=search", "url2": "http://hisa.info" }, "geometry": { "type": "Point", "coordinates": [ 135.824437463177333, 34.678582407376098 ] } },
{ "type": "Feature", "properties": { "内容": "訪問看護ステーションライフ【訪問看護】奈良県奈良市神功5丁目3-15ルルデハイツ103", "url": "https://www.kaigokensaku.mhlw.go.jp/29/index.php?action_kouhyou_detail_004_kani=true&JigyosyoCd=2960190219-00&ServiceCd=130&Type=search", "url2": "http://www.houmon-life.jp" }, "geometry": { "type": "Point", "coordinates": [ 135.7722966, 34.7213561 ] } },
{ "type": "Feature", "properties": { "内容": "吉田病院訪問看護ステーションいこーる【訪問看護】奈良市西大寺赤田町1-7-1", "url": "https://www.kaigokensaku.mhlw.go.jp/29/index.php?action_kouhyou_detail_004_kani=true&JigyosyoCd=2960190706-00&ServiceCd=130&Type=search", "url2": null }, "geometry": { "type": "Point", "coordinates": [ 135.771922099999983, 34.6996986 ] } },
{ "type": "Feature", "properties": { "内容": "おうとく訪問看護ステーション【訪問看護】奈良県奈良市北之庄町736-1奈良事務機本館104", "url": "https://www.kaigokensaku.mhlw.go.jp/29/index.php?action_kouhyou_detail_004_kani=true&JigyosyoCd=2960199343-00&ServiceCd=130&Type=search", "url2": null }, "geometry": { "type": "Point", "coordinates": [ 135.819695200000012, 34.6545551 ] } },
{ "type": "Feature", "properties": { "内容": "訪問看護ステーションオアシスなら【訪問看護】奈良県奈良市二名五丁目１６０６番地の４", "url": "https://www.kaigokensaku.mhlw.go.jp/29/index.php?action_kouhyou_detail_004_kani=true&JigyosyoCd=2960190615-00&ServiceCd=130&Type=search", "url2": null }, "geometry": { "type": "Point", "coordinates": [ 135.725973852394986, 34.707739329109003 ] } },
{ "type": "Feature", "properties": { "内容": "ジョイライフ訪問看護ステーション【訪問看護】奈良県奈良市神殿町149-1", "url": "https://www.kaigokensaku.mhlw.go.jp/29/index.php?action_kouhyou_detail_004_kani=true&JigyosyoCd=2960190490-00&ServiceCd=130&Type=search", "url2": "https://joylife-nara.com/" }, "geometry": { "type": "Point", "coordinates": [ 135.824490309786967, 34.661828095981818 ] } },
{ "type": "Feature", "properties": { "内容": "訪問看護ステーションのるん【訪問看護】奈良県奈良市押熊町1296-2", "url": "https://www.kaigokensaku.mhlw.go.jp/29/index.php?action_kouhyou_detail_004_kani=true&JigyosyoCd=2960199350-00&ServiceCd=130&Type=search", "url2": "https://rook-playz.net/norn/" }, "geometry": { "type": "Point", "coordinates": [ 135.7687692, 34.7214988 ] } },
{ "type": "Feature", "properties": { "内容": "けいはんな訪問看護ステーション【訪問看護】奈良市神功5丁目3-15ルルデハイツ103", "url": "https://www.kaigokensaku.mhlw.go.jp/29/index.php?action_kouhyou_detail_004_kani=true&JigyosyoCd=2960190607-00&ServiceCd=130&Type=search", "url2": "http://www.khs91918.com" }, "geometry": { "type": "Point", "coordinates": [ 135.772385500209879, 34.721450453118905 ] } },
{ "type": "Feature", "properties": { "内容": "訪問看護ステーションポシブル飛鳥【訪問看護】雑司町368-2", "url": "https://www.kaigokensaku.mhlw.go.jp/29/index.php?action_kouhyou_detail_004_kani=true&JigyosyoCd=2960190714-00&ServiceCd=130&Type=search", "url2": "http://www.possible-plus.co.jp" }, "geometry": { "type": "Point", "coordinates": [ 135.835451686508151, 34.690517935832048 ] } },
{ "type": "Feature", "properties": { "内容": "医療法人健和会訪問看護ステーション　ひまわり奈良【訪問看護】奈良県奈良市左京４丁目６－４", "url": "https://www.kaigokensaku.mhlw.go.jp/29/index.php?action_kouhyou_detail_004_kani=true&JigyosyoCd=2960190482-00&ServiceCd=130&Type=search", "url2": "http://www.fureai-net.com" }, "geometry": { "type": "Point", "coordinates": [ 135.805332499999963, 34.7175805 ] } },
{ "type": "Feature", "properties": { "内容": "訪問看護ステーション　ひまわり北之庄【訪問看護】西九条町2-4-10", "url": "https://www.kaigokensaku.mhlw.go.jp/29/index.php?action_kouhyou_detail_004_kani=true&JigyosyoCd=2960190144-00&ServiceCd=130&Type=search", "url2": "http://www.fureai-net.com" }, "geometry": { "type": "Point", "coordinates": [ 135.808363108120716, 34.655533885520647 ] } },
{ "type": "Feature", "properties": { "内容": "医療法人健和会訪問看護ステーションひまわり秋篠【訪問看護】奈良県奈良市中山町１２４－６", "url": "https://www.kaigokensaku.mhlw.go.jp/29/index.php?action_kouhyou_detail_004_kani=true&JigyosyoCd=2960190201-00&ServiceCd=130&Type=search", "url2": null }, "geometry": { "type": "Point", "coordinates": [ 135.770266399999969, 34.7114028 ] } },
{ "type": "Feature", "properties": { "内容": "医療法人康仁会　西の京訪問看護ステーションかがやき【訪問看護】奈良市六条町９９－２", "url": "https://www.kaigokensaku.mhlw.go.jp/29/index.php?action_kouhyou_detail_004_kani=true&JigyosyoCd=2960190318-00&ServiceCd=130&Type=search", "url2": "http://www.nishinokyo.or.jp/kaigo/kagayaki/" }, "geometry": { "type": "Point", "coordinates": [ 135.789979799999969, 34.6657086 ] } },
{ "type": "Feature", "properties": { "内容": "医療法人寺崎クリニック【訪問看護】奈良県奈良市南城戸町67", "url": "https://www.kaigokensaku.mhlw.go.jp/29/index.php?action_kouhyou_detail_004_kani=true&JigyosyoCd=2910103015-00&ServiceCd=130&Type=search", "url2": "terasaki-clinic.com" }, "geometry": { "type": "Point", "coordinates": [ 135.827473300000094, 34.6777062 ] } },
{ "type": "Feature", "properties": { "内容": "ハローケア訪問看護ステーション奈良【訪問看護】奈良県奈良市三条大路５丁目1-28", "url": "https://www.kaigokensaku.mhlw.go.jp/29/index.php?action_kouhyou_detail_004_kani=true&JigyosyoCd=2960190193-00&ServiceCd=130&Type=search", "url2": "http://www.heartland.or.jp/" }, "geometry": { "type": "Point", "coordinates": [ 135.788845212687875, 34.683795628653755 ] } },
{ "type": "Feature", "properties": { "内容": "医療法人新仁会奈良春日病院訪問看護ステーションこまどり【訪問看護】奈良県奈良市鹿野園町１２１２番地の１", "url": "https://www.kaigokensaku.mhlw.go.jp/29/index.php?action_kouhyou_detail_004_kani=true&JigyosyoCd=2960190235-00&ServiceCd=130&Type=search", "url2": "https://narakasuga-hospital.or.jp/" }, "geometry": { "type": "Point", "coordinates": [ 135.853454599999964, 34.6640737 ] } },
{ "type": "Feature", "properties": { "内容": "訪問看護ステーションあさがお【訪問看護】奈良県奈良市右京1丁目3-15-105", "url": "https://www.kaigokensaku.mhlw.go.jp/29/index.php?action_kouhyou_detail_004_kani=true&JigyosyoCd=2960190839-00&ServiceCd=130&Type=search", "url2": "http://www.takanohara-ch.or.jp" }, "geometry": { "type": "Point", "coordinates": [ 135.788902351451043, 34.720686566852343 ] } },
{ "type": "Feature", "properties": { "内容": "訪問看護ステーション　アップル学園前【訪問看護】中登美ケ丘３丁目１３番２", "url": "https://www.kaigokensaku.mhlw.go.jp/29/index.php?action_kouhyou_detail_004_kani=true&JigyosyoCd=2960193437-00&ServiceCd=130&Type=search", "url2": "https://hokujyukai.or.jp/" }, "geometry": { "type": "Point", "coordinates": [ 135.745343203179914, 34.721890939817058 ] } },
{ "type": "Feature", "properties": { "内容": "一般財団法人沢井病院　訪問看護ステーション佐保【訪問看護】奈良市北市町57-3", "url": "https://www.kaigokensaku.mhlw.go.jp/29/index.php?action_kouhyou_detail_004_kani=true&JigyosyoCd=2960190383-00&ServiceCd=130&Type=search", "url2": "http://sawai.or.jp/" }, "geometry": { "type": "Point", "coordinates": [ 135.821722723942543, 34.688904940200054 ] } },
{ "type": "Feature", "properties": { "内容": "みらい精華訪問看護ステーション【訪問看護】奈良市神功5-19-2エルメゾン神功8-A", "url": "https://www.kaigokensaku.mhlw.go.jp/29/index.php?action_kouhyou_detail_004_kani=true&JigyosyoCd=2960190177-00&ServiceCd=130&Type=search", "url2": "mirai-seika.com" }, "geometry": { "type": "Point", "coordinates": [ 135.774156286508173, 34.721227749487909 ] } },
{ "type": "Feature", "properties": { "内容": "なら訪問看護リハビリステーション【訪問看護】奈良県奈良市大安寺2丁目3番13号", "url": "https://www.kaigokensaku.mhlw.go.jp/29/index.php?action_kouhyou_detail_004_kani=true&JigyosyoCd=2960190664-00&ServiceCd=130&Type=search", "url2": null }, "geometry": { "type": "Point", "coordinates": [ 135.811829352778659, 34.669719300000089 ] } },
{ "type": "Feature", "properties": { "内容": "あいナース学園前訪問看護ステーション【訪問看護】学園朝日町２－６ハイマート学園前３０２", "url": "https://www.kaigokensaku.mhlw.go.jp/29/index.php?action_kouhyou_detail_004_kani=true&JigyosyoCd=2960190334-00&ServiceCd=130&Type=search", "url2": null }, "geometry": { "type": "Point", "coordinates": [ 135.751726700000063, 34.7009257 ] } },
{ "type": "Feature", "properties": { "内容": "訪問看護ステーション　穏笑【訪問看護】奈良県奈良市押熊町395-1梅守マンション203号", "url": "https://www.kaigokensaku.mhlw.go.jp/29/index.php?action_kouhyou_detail_004_kani=true&JigyosyoCd=2960190573-00&ServiceCd=130&Type=search", "url2": "https://www.calmness-smile.com/" }, "geometry": { "type": "Point", "coordinates": [ 135.771797, 34.7154097 ] } },
{ "type": "Feature", "properties": { "内容": "看護クラーク奈良【訪問看護】大森町148番", "url": "https://www.kaigokensaku.mhlw.go.jp/29/index.php?action_kouhyou_detail_004_kani=true&JigyosyoCd=2960199210-00&ServiceCd=130&Type=search", "url2": "https://cuc-hospice.com/rehope/hospice/786/" }, "geometry": { "type": "Point", "coordinates": [ 140.1485181, 35.5792978 ] } },
{ "type": "Feature", "properties": { "内容": "ツクイ奈良訪問看護ステーション【訪問看護】奈良県奈良市大宮町4丁目295-10朝日生命奈良川口ビル3階", "url": "https://www.kaigokensaku.mhlw.go.jp/29/index.php?action_kouhyou_detail_004_kani=true&JigyosyoCd=2960199137-00&ServiceCd=130&Type=search", "url2": "https://www.tsukui.net/home-care/5025/" }, "geometry": { "type": "Point", "coordinates": [ 135.8089369, 34.684200800000035 ] } },
{ "type": "Feature", "properties": { "内容": "訪問看護ステーションアスモ【訪問看護】奈良県奈良市富雄元町4-8-14ハイツあづま106号", "url": "https://www.kaigokensaku.mhlw.go.jp/29/index.php?action_kouhyou_detail_004_kani=true&JigyosyoCd=2960199194-00&ServiceCd=130&Type=search", "url2": null }, "geometry": { "type": "Point", "coordinates": [ 135.734475160118848, 34.689792617412984 ] } },
{ "type": "Feature", "properties": { "内容": "訪問看護ハッピーリハビリ＆ナースステーション【訪問看護】六条2-18-1", "url": "https://www.kaigokensaku.mhlw.go.jp/29/index.php?action_kouhyou_detail_004_kani=true&JigyosyoCd=2960190078-00&ServiceCd=130&Type=search", "url2": "www.happy-service.co.jp" }, "geometry": { "type": "Point", "coordinates": [ 135.776636199999984, 34.668674599999939 ] } },
{ "type": "Feature", "properties": { "内容": "ぽれぽれ訪問看護ステーション【訪問看護】奈良市四条大路2-860-1", "url": "https://www.kaigokensaku.mhlw.go.jp/29/index.php?action_kouhyou_detail_004_kani=true&JigyosyoCd=2960190029-00&ServiceCd=130&Type=search", "url2": "http://www.porepore.co.jp" }, "geometry": { "type": "Point", "coordinates": [ 135.798898099999974, 34.6804042 ] } },
{ "type": "Feature", "properties": { "内容": "ハッピーケア奈良【訪問看護】大宮町6-6-1アルファコート204", "url": "https://www.kaigokensaku.mhlw.go.jp/29/index.php?action_kouhyou_detail_004_kani=true&JigyosyoCd=2960190425-00&ServiceCd=130&Type=search", "url2": "https://lifecare-happylife.com/" }, "geometry": { "type": "Point", "coordinates": [ 135.8086418, 34.6855255 ] } },
{ "type": "Feature", "properties": { "内容": "訪問看護ステーションLily【訪問看護】奈良県奈良市佐保台西町47-3", "url": "https://www.kaigokensaku.mhlw.go.jp/29/index.php?action_kouhyou_detail_004_kani=true&JigyosyoCd=2960199319-00&ServiceCd=130&Type=search", "url2": "https://www.rupinasu-inc.co.jp" }, "geometry": { "type": "Point", "coordinates": [ 135.807726099999968, 34.708873 ] } },
{ "type": "Feature", "properties": { "内容": "リハビリ訪問看護ステーションルピナス【訪問看護】奈良市大宮町4丁目275番地の5森村第2ビル303号室", "url": "https://www.kaigokensaku.mhlw.go.jp/29/index.php?action_kouhyou_detail_004_kani=true&JigyosyoCd=2960190995-00&ServiceCd=130&Type=search", "url2": "http://www.rupinasu-inc.co.jp/" }, "geometry": { "type": "Point", "coordinates": [ 135.809930300000019, 34.6841815 ] } },
{ "type": "Feature", "properties": { "内容": "訪問看護ステーション七葉【訪問看護】奈良県奈良市石木町580番地", "url": "https://www.kaigokensaku.mhlw.go.jp/29/index.php?action_kouhyou_detail_004_kani=true&JigyosyoCd=2960190581-00&ServiceCd=130&Type=search", "url2": "https://nanaha-kango.com/" }, "geometry": { "type": "Point", "coordinates": [ 135.7616937, 34.6642384 ] } },
{ "type": "Feature", "properties": { "内容": "八重桜　訪問看護ステーションぷらす【訪問看護】法蓮町410番地の2ユアーズプラザ202号室", "url": "https://www.kaigokensaku.mhlw.go.jp/29/index.php?action_kouhyou_detail_004_kani=true&JigyosyoCd=2960199129-00&ServiceCd=130&Type=search", "url2": "https://www.yaezakura.co.jp" }, "geometry": { "type": "Point", "coordinates": [ 135.8157277, 34.691188 ] } },
{ "type": "Feature", "properties": { "内容": "訪問看護ステーション　オレガノ【訪問看護】奈良県奈良市松陽台４丁目21-3ミールム松陽台B201", "url": "https://www.kaigokensaku.mhlw.go.jp/29/index.php?action_kouhyou_detail_004_kani=true&JigyosyoCd=2960190474-00&ServiceCd=130&Type=search", "url2": "https://yuuwa.oboroduki.com/index.html" }, "geometry": { "type": "Point", "coordinates": [ 135.73424030000001, 34.7145897 ] } },
{ "type": "Feature", "properties": { "内容": "訪問看護ステーションあん【訪問看護】奈良県奈良市西大寺北町２丁目1-16三芳ビル210号", "url": "https://www.kaigokensaku.mhlw.go.jp/29/index.php?action_kouhyou_detail_004_kani=true&JigyosyoCd=2960199186-00&ServiceCd=130&Type=search", "url2": null }, "geometry": { "type": "Point", "coordinates": [ 135.7776854, 34.6978757 ] } },
{ "type": "Feature", "properties": { "内容": "訪問看護ステーション　アトム【訪問看護】奈良県奈良市南京終町3丁目401-5", "url": "https://www.kaigokensaku.mhlw.go.jp/29/index.php?action_kouhyou_detail_004_kani=true&JigyosyoCd=2960190433-00&ServiceCd=130&Type=search", "url2": "https://www.atom365.co.jp/" }, "geometry": { "type": "Point", "coordinates": [ 135.823290591002888, 34.666978894425249 ] } },
{ "type": "Feature", "properties": { "内容": "社会医療法人松本快生会訪問看護ステーション「なでしこ」【訪問看護】奈良市学園大和町5丁目16番地16SENビル1階", "url": "https://www.kaigokensaku.mhlw.go.jp/29/index.php?action_kouhyou_detail_004_kani=true&JigyosyoCd=2960190128-00&ServiceCd=130&Type=search", "url2": "http://www.nishinarachuo.or.jp/hospital/nadeshiko.html" }, "geometry": { "type": "Point", "coordinates": [ 135.744988400000011, 34.687682700000011 ] } },
{ "type": "Feature", "properties": { "内容": "社会医療法人　松本快生会　訪問看護ステーション「さわやか」【訪問看護】奈良県奈良市鶴舞西町1-16マツヨシビル　2階", "url": "https://www.kaigokensaku.mhlw.go.jp/29/index.php?action_kouhyou_detail_004_kani=true&JigyosyoCd=2960190508-00&ServiceCd=130&Type=search", "url2": "http://zaitaku.m-kaiseikai.jp/" }, "geometry": { "type": "Point", "coordinates": [ 135.750047889024387, 34.704572905233434 ] } },
{ "type": "Feature", "properties": { "内容": "社会福祉法人恩賜財団済生会奈良病院訪問看護ステーション野の花【訪問看護】奈良市八条四丁目643", "url": "https://www.kaigokensaku.mhlw.go.jp/29/index.php?action_kouhyou_detail_004_kani=true&JigyosyoCd=2960190292-00&ServiceCd=130&Type=search", "url2": "http://www.saiseikai-nara-hp.jp" }, "geometry": { "type": "Point", "coordinates": [ 135.805128400000058, 34.6689972 ] } },
{ "type": "Feature", "properties": { "内容": "訪問看護ステーションもも【訪問看護】都祁友田町515番地の1介護老人保健施設ももたろう", "url": "https://www.kaigokensaku.mhlw.go.jp/29/index.php?action_kouhyou_detail_004_kani=true&JigyosyoCd=2960199202-00&ServiceCd=130&Type=search", "url2": "https：//kaigo-momotaro.jp/" }, "geometry": { "type": "Point", "coordinates": [ 135.9531651, 34.6005227 ] } },
{ "type": "Feature", "properties": { "内容": "訪問看護ステーションあおい【訪問看護】奈良県奈良市中山町1251-1", "url": "https://www.kaigokensaku.mhlw.go.jp/29/index.php?action_kouhyou_detail_004_kani=true&JigyosyoCd=2960190276-00&ServiceCd=130&Type=search", "url2": "http://www.anshingakuenmae.jp" }, "geometry": { "type": "Point", "coordinates": [ 135.755795700000021, 34.700184100000023 ] } },
{ "type": "Feature", "properties": { "内容": "訪問看護ステーションならまち【訪問看護】奈良市六条1丁目1番12号サンライズ西ノ京202号", "url": "https://www.kaigokensaku.mhlw.go.jp/29/index.php?action_kouhyou_detail_004_kani=true&JigyosyoCd=2960190847-00&ServiceCd=130&Type=search", "url2": "https://naramach.wixsite.com/my-site" }, "geometry": { "type": "Point", "coordinates": [ 135.782276655819686, 34.668764756558929 ] } },
{ "type": "Feature", "properties": { "内容": "医療法人　飯田医院【訪問看護】奈良市北市町36", "url": "https://www.kaigokensaku.mhlw.go.jp/29/index.php?action_kouhyou_detail_004_kani=true&JigyosyoCd=2910102058-00&ServiceCd=130&Type=search", "url2": "https://www.iidasc.com/" }, "geometry": { "type": "Point", "coordinates": [ 135.823440099999971, 34.6880311 ] } },
{ "type": "Feature", "properties": { "内容": "株式会社SCLife【訪問看護】奈良県奈良市山陵町79-1", "url": "https://www.kaigokensaku.mhlw.go.jp/29/index.php?action_kouhyou_detail_004_kani=true&JigyosyoCd=2960199459-00&ServiceCd=130&Type=search", "url2": null }, "geometry": { "type": "Point", "coordinates": [ 135.787964, 34.6968816 ] } },
{ "type": "Feature", "properties": { "内容": "訪問看護ステーションシエル【訪問看護】奈良県奈良市西木辻町134-4グレイス2F", "url": "https://www.kaigokensaku.mhlw.go.jp/29/index.php?action_kouhyou_detail_004_kani=true&JigyosyoCd=2960199426-00&ServiceCd=130&Type=search", "url2": "https://www.careline-ghome.com/" }, "geometry": { "type": "Point", "coordinates": [ 135.825047500000011, 34.6728518 ] } },
{ "type": "Feature", "properties": { "内容": "訪問看護ステーション　アウル【訪問看護】奈良県奈良市神功２丁目4-18", "url": "https://www.kaigokensaku.mhlw.go.jp/29/index.php?action_kouhyou_detail_004_kani=true&JigyosyoCd=2960199442-00&ServiceCd=130&Type=search", "url2": "https://sites.google.com/view/auru0701/" }, "geometry": { "type": "Point", "coordinates": [ 135.781052100000011, 34.721706 ] } },
{ "type": "Feature", "properties": { "内容": "吉田病院訪問看護ステーションひだまり【訪問看護】奈良県奈良市右京3-2-2ならやま診療所　2階", "url": "https://www.kaigokensaku.mhlw.go.jp/29/index.php?action_kouhyou_detail_004_kani=true&JigyosyoCd=2960199392-00&ServiceCd=130&Type=search", "url2": "https://kenseikai-nara.or.jp/" }, "geometry": { "type": "Point", "coordinates": [ 135.786990300000014, 34.7172955 ] } },
{ "type": "Feature", "properties": { "内容": "吉田病院訪問看護ステーションほほえみポート【訪問看護】奈良県奈良市三碓2-1-6第2川上ビル3F4号室", "url": "https://www.kaigokensaku.mhlw.go.jp/29/index.php?action_kouhyou_detail_004_kani=true&JigyosyoCd=2960199400-00&ServiceCd=130&Type=search", "url2": "http://kenseikai-nara.or.jp/" }, "geometry": { "type": "Point", "coordinates": [ 135.736339, 34.6911044 ] } },
{ "type": "Feature", "properties": { "内容": "吉田病院訪問看護ステーションいこーる【訪問看護】奈良市西大寺赤田町1-7-1", "url": "https://www.kaigokensaku.mhlw.go.jp/29/index.php?action_kouhyou_detail_004_kani=true&JigyosyoCd=2960199418-00&ServiceCd=130&Type=search", "url2": "https://kenseikai-nara.or.jp/" }, "geometry": { "type": "Point", "coordinates": [ 135.7719434, 34.6993957 ] } },
{ "type": "Feature", "properties": { "内容": "訪問看護ステーションぬくもりポート【訪問看護】奈良県奈良市西木辻町200番地岡谷会本館３階", "url": "https://www.kaigokensaku.mhlw.go.jp/29/index.php?action_kouhyou_detail_004_kani=true&JigyosyoCd=2960199384-00&ServiceCd=130&Type=search", "url2": "http://www.okatani.or.jp/zaitaku/" }, "geometry": { "type": "Point", "coordinates": [ 135.8255667, 34.6743815 ] } },
{ "type": "Feature", "properties": { "内容": "精神科特化型訪問看護ステーションつなぐ【訪問看護】奈良県奈良市法華寺町348サンハイツ2号館105号", "url": "https://www.kaigokensaku.mhlw.go.jp/29/index.php?action_kouhyou_detail_004_kani=true&JigyosyoCd=2960199467-00&ServiceCd=130&Type=search", "url2": null }, "geometry": { "type": "Point", "coordinates": [ 135.8084141, 34.6911097 ] } },
{ "type": "Feature", "properties": { "内容": "トライズ訪問看護ステーション奈良【訪問看護】奈良県奈良市瓦堂町22サンコーポ瓦堂201号室", "url": "https://www.kaigokensaku.mhlw.go.jp/29/index.php?action_kouhyou_detail_004_kani=true&JigyosyoCd=2960199475-00&ServiceCd=130&Type=search", "url2": "https://www.ts-tryz.jp/" }, "geometry": { "type": "Point", "coordinates": [ 135.8292869, 34.6744203 ] } },
{ "type": "Feature", "properties": { "内容": "訪問看護ステーションあったかい【訪問看護】奈良県奈良市三碓6‐8‐4", "url": "https://www.kaigokensaku.mhlw.go.jp/29/index.php?action_kouhyou_detail_004_kani=true&JigyosyoCd=2960190300-00&ServiceCd=130&Type=search", "url2": "www.j-welfare.jp" }, "geometry": { "type": "Point", "coordinates": [ 135.737598600000013, 34.6817921 ] } },
{ "type": "Feature", "properties": { "内容": "訪問看護ステーション福優【訪問看護】芝辻町2丁目5-3タウニィマサキ105号", "url": "https://www.kaigokensaku.mhlw.go.jp/29/index.php?action_kouhyou_detail_004_kani=true&JigyosyoCd=2960199509-00&ServiceCd=130&Type=search", "url2": null }, "geometry": { "type": "Point", "coordinates": [ 135.8143454, 34.6856247 ] } },
{ "type": "Feature", "properties": { "内容": "あすならホーム西の京　訪問看護ステーション【訪問看護】奈良県奈良市六条2丁目20番65号", "url": "https://www.kaigokensaku.mhlw.go.jp/29/index.php?action_kouhyou_detail_004_kani=true&JigyosyoCd=2960199491-00&ServiceCd=130&Type=search", "url2": "https://asunaraen.or.jp/" }, "geometry": { "type": "Point", "coordinates": [ 135.775801521021521, 34.671015097554964 ] } },
{ "type": "Feature", "properties": { "内容": "訪問看護ステーションラシクル葛城【訪問看護】奈良県大和高田市大中99-2高田吉田ビル3階", "url": "https://www.kaigokensaku.mhlw.go.jp/29/index.php?action_kouhyou_detail_004_kani=true&JigyosyoCd=2960290084-00&ServiceCd=130&Type=search", "url2": "https://amiraiz.wixsite.com/rashikuru" }, "geometry": { "type": "Point", "coordinates": [ 135.7368808, 34.515599 ] } },
{ "type": "Feature", "properties": { "内容": "訪問看護ステーション希望【訪問看護】奈良県大和高田市神楽３丁目１番２０号サンプラザ神楽３０６号", "url": "https://www.kaigokensaku.mhlw.go.jp/29/index.php?action_kouhyou_detail_004_kani=true&JigyosyoCd=2960290092-00&ServiceCd=130&Type=search", "url2": "https://vns-kibou.com" }, "geometry": { "type": "Point", "coordinates": [ 135.743816435581948, 34.522226434664795 ] } },
{ "type": "Feature", "properties": { "内容": "訪問看護ステーションののか【訪問看護】中三倉堂1-6-23ヌーベル上島A棟203", "url": "https://www.kaigokensaku.mhlw.go.jp/29/index.php?action_kouhyou_detail_004_kani=true&JigyosyoCd=2960290209-00&ServiceCd=130&Type=search", "url2": null }, "geometry": { "type": "Point", "coordinates": [ 135.746648, 34.5038249 ] } },
{ "type": "Feature", "properties": { "内容": "リンクハート株式会社　ゆい訪問看護ステーション【訪問看護】奈良県大和高田市土庫3丁目332-7MKビル201", "url": "https://www.kaigokensaku.mhlw.go.jp/29/index.php?action_kouhyou_detail_004_kani=true&JigyosyoCd=2960890263-00&ServiceCd=130&Type=search", "url2": "http//link-heart.nara.jp" }, "geometry": { "type": "Point", "coordinates": [ 135.755320655680862, 34.524461047807144 ] } },
{ "type": "Feature", "properties": { "内容": "訪問看護ステーションまっしろ【訪問看護】奈良県大和高田市中三倉堂1-6-30-2", "url": "https://www.kaigokensaku.mhlw.go.jp/29/index.php?action_kouhyou_detail_004_kani=true&JigyosyoCd=2960290175-00&ServiceCd=130&Type=search", "url2": null }, "geometry": { "type": "Point", "coordinates": [ 135.7458157, 34.5038016 ] } },
{ "type": "Feature", "properties": { "内容": "訪問看護ステーション人楽【訪問看護】奈良県大和高田市大中78-7", "url": "https://www.kaigokensaku.mhlw.go.jp/29/index.php?action_kouhyou_detail_004_kani=true&JigyosyoCd=2960290050-00&ServiceCd=130&Type=search", "url2": "http;//jinraku.co.jp" }, "geometry": { "type": "Point", "coordinates": [ 135.737364977830424, 34.512696525772903 ] } },
{ "type": "Feature", "properties": { "内容": "ほっとナビ訪問看護ステーション大和高田事業所【訪問看護】奈良県大和高田市有井58-1豊富ビル2階5号室", "url": "https://www.kaigokensaku.mhlw.go.jp/29/index.php?action_kouhyou_detail_004_kani=true&JigyosyoCd=2960290118-00&ServiceCd=130&Type=search", "url2": "http://hotnavi.co.jp" }, "geometry": { "type": "Point", "coordinates": [ 135.740628, 34.5203909 ] } },
{ "type": "Feature", "properties": { "内容": "オークリー訪問看護ステーション【訪問看護】奈良県大和高田市東三倉堂町18－27野田整骨院　２階", "url": "https://www.kaigokensaku.mhlw.go.jp/29/index.php?action_kouhyou_detail_004_kani=true&JigyosyoCd=2960290100-00&ServiceCd=130&Type=search", "url2": null }, "geometry": { "type": "Point", "coordinates": [ 135.748474336176287, 34.503645062977604 ] } },
{ "type": "Feature", "properties": { "内容": "訪問看護ステーションSHARK【訪問看護】奈良県大和高田市南陽町5-19", "url": "https://www.kaigokensaku.mhlw.go.jp/29/index.php?action_kouhyou_detail_004_kani=true&JigyosyoCd=2960290225-00&ServiceCd=130&Type=search", "url2": null }, "geometry": { "type": "Point", "coordinates": [ 135.74711210000001, 34.4979504 ] } },
{ "type": "Feature", "properties": { "内容": "訪問看護ステーション　ふく【訪問看護】奈良県大和高田市片塩町13-12", "url": "https://www.kaigokensaku.mhlw.go.jp/29/index.php?action_kouhyou_detail_004_kani=true&JigyosyoCd=2960290233-00&ServiceCd=130&Type=search", "url2": "https://www.story-2022.com" }, "geometry": { "type": "Point", "coordinates": [ 135.7434237, 34.50736 ] } },
{ "type": "Feature", "properties": { "内容": "医療法人酒本医院訪問看護ステーションあおぞら【訪問看護】奈良県大和高田市中今里町１－３４", "url": "https://www.kaigokensaku.mhlw.go.jp/29/index.php?action_kouhyou_detail_004_kani=true&JigyosyoCd=2960890198-00&ServiceCd=130&Type=search", "url2": null }, "geometry": { "type": "Point", "coordinates": [ 135.749665899999968, 34.5081253 ] } },
{ "type": "Feature", "properties": { "内容": "医療法人西井会訪問看護ステーションさらら【訪問看護】奈良県大和高田市根成柿321-1介護老人保健施設光陽", "url": "https://www.kaigokensaku.mhlw.go.jp/29/index.php?action_kouhyou_detail_004_kani=true&JigyosyoCd=2960290159-00&ServiceCd=130&Type=search", "url2": "https://nishiikai.com/" }, "geometry": { "type": "Point", "coordinates": [ 135.765316099999978, 34.4858469 ] } },
{ "type": "Feature", "properties": { "内容": "アイデルリハビリ訪問看護ステーション【訪問看護】奈良県大和高田市西坊城51-1", "url": "https://www.kaigokensaku.mhlw.go.jp/29/index.php?action_kouhyou_detail_004_kani=true&JigyosyoCd=2960890156-00&ServiceCd=130&Type=search", "url2": "www.aidel.co.jp" }, "geometry": { "type": "Point", "coordinates": [ 135.755894870391785, 34.490701137708008 ] } },
{ "type": "Feature", "properties": { "内容": "訪問看護ステーションさく【訪問看護】奈良県大和高田市市場766-21", "url": "https://www.kaigokensaku.mhlw.go.jp/29/index.php?action_kouhyou_detail_004_kani=true&JigyosyoCd=2960290068-00&ServiceCd=130&Type=search", "url2": null }, "geometry": { "type": "Point", "coordinates": [ 135.746613300000035, 34.5171406 ] } },
{ "type": "Feature", "properties": { "内容": "訪問看護ステーションはる【訪問看護】大和高田市市場774-1", "url": "https://www.kaigokensaku.mhlw.go.jp/29/index.php?action_kouhyou_detail_004_kani=true&JigyosyoCd=2960890867-00&ServiceCd=130&Type=search", "url2": "http://naracare-haru.com/" }, "geometry": { "type": "Point", "coordinates": [ 135.734592099999986, 34.5134298 ] } },
{ "type": "Feature", "properties": { "内容": "土庫病院　訪問看護ステーションそよかぜ【訪問看護】奈良県大和高田市日之出町17-22", "url": "https://www.kaigokensaku.mhlw.go.jp/29/index.php?action_kouhyou_detail_004_kani=true&JigyosyoCd=2960890131-00&ServiceCd=130&Type=search", "url2": "http://www.kenseikai-nara.or.jp" }, "geometry": { "type": "Point", "coordinates": [ 135.748758211114477, 34.522663201006438 ] } },
{ "type": "Feature", "properties": { "内容": "大和高田市訪問看護ステーション【訪問看護】大和高田市礒野北町1番2号", "url": "https://www.kaigokensaku.mhlw.go.jp/29/index.php?action_kouhyou_detail_004_kani=true&JigyosyoCd=2960890396-00&ServiceCd=130&Type=search", "url2": "https://ym-hp.yamatotakada.nara.jp/medical/houmonkango.html" }, "geometry": { "type": "Point", "coordinates": [ 135.737311399999953, 34.5096276 ] } },
{ "type": "Feature", "properties": { "内容": "訪問看護ステーション　あいりー【訪問看護】奈良県大和高田市池尻260ｴｸｾﾙ吉紀c201", "url": "https://www.kaigokensaku.mhlw.go.jp/29/index.php?action_kouhyou_detail_004_kani=true&JigyosyoCd=2960290241-00&ServiceCd=130&Type=search", "url2": null }, "geometry": { "type": "Point", "coordinates": [ 135.7474455, 34.5249306 ] } },
{ "type": "Feature", "properties": { "内容": "矢田山診療所【訪問看護】奈良県大和郡山市矢田山町58", "url": "https://www.kaigokensaku.mhlw.go.jp/29/index.php?action_kouhyou_detail_004_kani=true&JigyosyoCd=2910202577-00&ServiceCd=130&Type=search", "url2": null }, "geometry": { "type": "Point", "coordinates": [ 135.746691599999963, 34.6416289 ] } },
{ "type": "Feature", "properties": { "内容": "大和郡山病院訪問看護室コスモス【訪問看護】朝日町1番62号", "url": "https://www.kaigokensaku.mhlw.go.jp/29/index.php?action_kouhyou_detail_004_kani=true&JigyosyoCd=2910201066-00&ServiceCd=130&Type=search", "url2": null }, "geometry": { "type": "Point", "coordinates": [ 135.779808399999979, 34.6472239 ] } },
{ "type": "Feature", "properties": { "内容": "医療法人　藤和会　藤村病院【訪問看護】奈良県大和郡山市北郡山町104-3", "url": "https://www.kaigokensaku.mhlw.go.jp/29/index.php?action_kouhyou_detail_004_kani=true&JigyosyoCd=2910201322-00&ServiceCd=130&Type=search", "url2": "www.touwakai.or.jp" }, "geometry": { "type": "Point", "coordinates": [ 135.7840969, 34.6555038 ] } },
{ "type": "Feature", "properties": { "内容": "医療法人芳愛会原医院【訪問看護】奈良県大和郡山市横田町７０８－３", "url": "https://www.kaigokensaku.mhlw.go.jp/29/index.php?action_kouhyou_detail_004_kani=true&JigyosyoCd=2910201520-00&ServiceCd=130&Type=search", "url2": "haraclinic@nara.med.o.jp" }, "geometry": { "type": "Point", "coordinates": [ 135.8022095, 34.6187497 ] } },
{ "type": "Feature", "properties": { "内容": "奈良県大和郡山市新木町361‐1【訪問看護】奈良県大和郡山市新木町361‐1", "url": "https://www.kaigokensaku.mhlw.go.jp/29/index.php?action_kouhyou_detail_004_kani=true&JigyosyoCd=2960390140-00&ServiceCd=130&Type=search", "url2": "http://www.asunaraen.com" }, "geometry": { "type": "Point", "coordinates": [ 135.7735372, 34.6420381 ] } },
{ "type": "Feature", "properties": { "内容": "株式会社オリーブのうみ　訪問看護ステーションあずみ【訪問看護】奈良県大和郡山市小泉町2996-41", "url": "https://www.kaigokensaku.mhlw.go.jp/29/index.php?action_kouhyou_detail_004_kani=true&JigyosyoCd=2960390157-00&ServiceCd=130&Type=search", "url2": "https://azumi-olive.com" }, "geometry": { "type": "Point", "coordinates": [ 135.753745900000013, 34.6336014 ] } },
{ "type": "Feature", "properties": { "内容": "ほっとナビ訪問看護ステーション大和郡山【訪問看護】奈良県大和郡山市泉原町10-4", "url": "https://www.kaigokensaku.mhlw.go.jp/29/index.php?action_kouhyou_detail_004_kani=true&JigyosyoCd=2960390165-00&ServiceCd=130&Type=search", "url2": "https://hotnavi.co.jp/" }, "geometry": { "type": "Point", "coordinates": [ 135.7475732, 34.6331335 ] } },
{ "type": "Feature", "properties": { "内容": "医療法人岡谷会訪問看護ステーションあじさい【訪問看護】大和郡山市新町３０５－９２", "url": "https://www.kaigokensaku.mhlw.go.jp/29/index.php?action_kouhyou_detail_004_kani=true&JigyosyoCd=2960290076-00&ServiceCd=130&Type=search", "url2": "https://www.okatanikai.or.jp/branch" }, "geometry": { "type": "Point", "coordinates": [ 135.756538914409361, 34.640444344939283 ] } },
{ "type": "Feature", "properties": { "内容": "訪問看護ステーションはれやか【訪問看護】奈良県大和郡山市北郡山町311-6", "url": "https://www.kaigokensaku.mhlw.go.jp/29/index.php?action_kouhyou_detail_004_kani=true&JigyosyoCd=2960390124-00&ServiceCd=130&Type=search", "url2": "www.touwakai.or.jp" }, "geometry": { "type": "Point", "coordinates": [ 135.782878399999987, 34.6541572 ] } },
{ "type": "Feature", "properties": { "内容": "郡山訪問看護ステーションゆう【訪問看護】大和郡山市田中町741番地", "url": "https://www.kaigokensaku.mhlw.go.jp/29/index.php?action_kouhyou_detail_004_kani=true&JigyosyoCd=2960290035-00&ServiceCd=130&Type=search", "url2": "http://www.imura-clinic.net" }, "geometry": { "type": "Point", "coordinates": [ 135.768383693254123, 34.647194495125248 ] } },
{ "type": "Feature", "properties": { "内容": "一般社団法人大和郡山市医師会立訪問看護ステーションやすらぎ【訪問看護】大和郡山市本庄町317番地の2", "url": "https://www.kaigokensaku.mhlw.go.jp/29/index.php?action_kouhyou_detail_004_kani=true&JigyosyoCd=2960290142-00&ServiceCd=130&Type=search", "url2": "http://www.nara.med.or.jp/koriyama/" }, "geometry": { "type": "Point", "coordinates": [ 135.787607799999932, 34.6377333 ] } },
{ "type": "Feature", "properties": { "内容": "訪問看護ステーションたいむ【訪問看護】奈良県大和郡山小泉町2733-2", "url": "https://www.kaigokensaku.mhlw.go.jp/29/index.php?action_kouhyou_detail_004_kani=true&JigyosyoCd=2960390017-00&ServiceCd=130&Type=search", "url2": "http://thymethyme.jp/" }, "geometry": { "type": "Point", "coordinates": [ 135.748880119646373, 34.625893031357855 ] } },
{ "type": "Feature", "properties": { "内容": "訪問看護ステーションIrie【訪問看護】奈良県大和郡山市額田部北町546-3", "url": "https://www.kaigokensaku.mhlw.go.jp/29/index.php?action_kouhyou_detail_004_kani=true&JigyosyoCd=2960390132-00&ServiceCd=130&Type=search", "url2": "https://irie-kango.co.jp" }, "geometry": { "type": "Point", "coordinates": [ 135.781541435581971, 34.60875479738678 ] } },
{ "type": "Feature", "properties": { "内容": "訪問看護ステーションenisia倭【訪問看護】北郡山町525-5", "url": "https://www.kaigokensaku.mhlw.go.jp/29/index.php?action_kouhyou_detail_004_kani=true&JigyosyoCd=2960390033-00&ServiceCd=130&Type=search", "url2": "www.houkan-whitefamily.com/" }, "geometry": { "type": "Point", "coordinates": [ 135.77745010000001, 34.6570479 ] } },
{ "type": "Feature", "properties": { "内容": "訪問看護ステーションもぁ【訪問看護】泉原町6361-7スプリングフィールドB‐101", "url": "https://www.kaigokensaku.mhlw.go.jp/29/index.php?action_kouhyou_detail_004_kani=true&JigyosyoCd=2960290043-00&ServiceCd=130&Type=search", "url2": "http://mo-2009.wixsite.com/more" }, "geometry": { "type": "Point", "coordinates": [ 135.74664180000002, 34.6355073 ] } },
{ "type": "Feature", "properties": { "内容": "リハビリ訪問看護ステーション　ルピナス郡山【訪問看護】奈良県大和郡山市小泉町522-4コート・コスモ201号室", "url": "https://www.kaigokensaku.mhlw.go.jp/29/index.php?action_kouhyou_detail_004_kani=true&JigyosyoCd=2960390066-00&ServiceCd=130&Type=search", "url2": "http://www.rupinasu-inc.co.jp/" }, "geometry": { "type": "Point", "coordinates": [ 135.762206993917886, 34.621793400634374 ] } },
{ "type": "Feature", "properties": { "内容": "こころの訪問看護ステーションひなた【訪問看護】奈良県大和郡山市筒井町688-12階", "url": "https://www.kaigokensaku.mhlw.go.jp/29/index.php?action_kouhyou_detail_004_kani=true&JigyosyoCd=2960390116-00&ServiceCd=130&Type=search", "url2": null }, "geometry": { "type": "Point", "coordinates": [ 135.7811486, 34.620486300000017 ] } },
{ "type": "Feature", "properties": { "内容": "大和園平和訪問看護ステーション【訪問看護】奈良県大和郡山市美濃庄町236-1", "url": "https://www.kaigokensaku.mhlw.go.jp/29/index.php?action_kouhyou_detail_004_kani=true&JigyosyoCd=2960390082-00&ServiceCd=130&Type=search", "url2": "heiwa@yamatoen.or.jp" }, "geometry": { "type": "Point", "coordinates": [ 135.806342200000017, 34.6393253 ] } },
{ "type": "Feature", "properties": { "内容": "大和郡山病院附属訪問看護ステーション【訪問看護】朝日町1番62号", "url": "https://www.kaigokensaku.mhlw.go.jp/29/index.php?action_kouhyou_detail_004_kani=true&JigyosyoCd=2960390041-00&ServiceCd=130&Type=search", "url2": "http://yamatokoriyama.jcho.go.jp/" }, "geometry": { "type": "Point", "coordinates": [ 135.779808399999979, 34.6472239 ] } },
{ "type": "Feature", "properties": { "内容": "訪問看護ステーションforyou【訪問看護】奈良県大和郡山市今国府町384", "url": "https://www.kaigokensaku.mhlw.go.jp/29/index.php?action_kouhyou_detail_004_kani=true&JigyosyoCd=2960390215-00&ServiceCd=130&Type=search", "url2": "https://foryou-houmonkango.studio.site/" }, "geometry": { "type": "Point", "coordinates": [ 135.7718556, 34.6158085 ] } },
{ "type": "Feature", "properties": { "内容": "訪問看護ステーションあじさい【訪問看護】奈良県大和郡山市新町305-92", "url": "https://www.kaigokensaku.mhlw.go.jp/29/index.php?action_kouhyou_detail_004_kani=true&JigyosyoCd=2960390207-00&ServiceCd=130&Type=search", "url2": "https://okatani.or.jp/about" }, "geometry": { "type": "Point", "coordinates": [ 135.756510031877127, 34.6404648 ] } },
{ "type": "Feature", "properties": { "内容": "医療法人　友永循環器医院【訪問看護】奈良県天理市川原城町２７５－１松尾ビル2階", "url": "https://www.kaigokensaku.mhlw.go.jp/29/index.php?action_kouhyou_detail_004_kani=true&JigyosyoCd=2910901194-00&ServiceCd=130&Type=search", "url2": null }, "geometry": { "type": "Point", "coordinates": [ 135.833501, 34.5993244 ] } },
{ "type": "Feature", "properties": { "内容": "公益財団法人　天理よろづ相談所病院【訪問看護】奈良県天理市三島町200番地", "url": "https://www.kaigokensaku.mhlw.go.jp/29/index.php?action_kouhyou_detail_004_kani=true&JigyosyoCd=2910901087-00&ServiceCd=130&Type=search", "url2": "http://www/tenriyorozujp/" }, "geometry": { "type": "Point", "coordinates": [ 135.83856430000003, 34.6025047 ] } },
{ "type": "Feature", "properties": { "内容": "訪問看護ステーション　アルタス【訪問看護】奈良県天理市田井庄町117-5ル・ヴィラージュ117、201号", "url": "https://www.kaigokensaku.mhlw.go.jp/29/index.php?action_kouhyou_detail_004_kani=true&JigyosyoCd=2960490064-00&ServiceCd=130&Type=search", "url2": null }, "geometry": { "type": "Point", "coordinates": [ 135.822616, 34.5994661 ] } },
{ "type": "Feature", "properties": { "内容": "訪問看護ステーションあかり【訪問看護】奈良県天理市川原城町841エンゼルビル3F", "url": "https://www.kaigokensaku.mhlw.go.jp/29/index.php?action_kouhyou_detail_004_kani=true&JigyosyoCd=2960490015-00&ServiceCd=130&Type=search", "url2": "https://kamuchikara.or.jp/" }, "geometry": { "type": "Point", "coordinates": [ 135.8299624, 34.6004824 ] } },
{ "type": "Feature", "properties": { "内容": "医療法人　宮城会　訪問看護ステーション　みみずく【訪問看護】天理市丹波市町３０２", "url": "https://www.kaigokensaku.mhlw.go.jp/29/index.php?action_kouhyou_detail_004_kani=true&JigyosyoCd=2960990303-00&ServiceCd=130&Type=search", "url2": "http//www.miyagikai.or.jp" }, "geometry": { "type": "Point", "coordinates": [ 135.835823099999971, 34.596447 ] } },
{ "type": "Feature", "properties": { "内容": "天理訪問看護ステーションひまわりII【訪問看護】奈良県天理市中之庄町４８３番地", "url": "https://www.kaigokensaku.mhlw.go.jp/29/index.php?action_kouhyou_detail_004_kani=true&JigyosyoCd=2960990162-00&ServiceCd=130&Type=search", "url2": "s2-himawari@fureai-net.com" }, "geometry": { "type": "Point", "coordinates": [ 135.844297748719526, 34.637178979514324 ] } },
{ "type": "Feature", "properties": { "内容": "ベストラボ．訪問看護ステーション【訪問看護】奈良県天理市西長柄町16番地", "url": "https://www.kaigokensaku.mhlw.go.jp/29/index.php?action_kouhyou_detail_004_kani=true&JigyosyoCd=2960490106-00&ServiceCd=130&Type=search", "url2": "https://www.best-lab-station.com/" }, "geometry": { "type": "Point", "coordinates": [ 135.8239414, 34.5771141 ] } },
{ "type": "Feature", "properties": { "内容": "訪問看護ステーションほのか【訪問看護】奈良県天理市前栽町70-1", "url": "https://www.kaigokensaku.mhlw.go.jp/29/index.php?action_kouhyou_detail_004_kani=true&JigyosyoCd=2960490056-00&ServiceCd=130&Type=search", "url2": "http://meibi-mt.co.jp/" }, "geometry": { "type": "Point", "coordinates": [ 135.8222441, 34.604164 ] } },
{ "type": "Feature", "properties": { "内容": "公益財団法人天理よろづ相談所病院白川分院在宅世話どりセンター【訪問看護】奈良県天理市岩屋町604番地白川分院", "url": "https://www.kaigokensaku.mhlw.go.jp/29/index.php?action_kouhyou_detail_004_kani=true&JigyosyoCd=2910901244-00&ServiceCd=130&Type=search", "url2": "https://www.tenriyorozu.jp/shirakawabunin" }, "geometry": { "type": "Point", "coordinates": [ 135.855475646557579, 34.618610786633646 ] } },
{ "type": "Feature", "properties": { "内容": "訪問看護ステーション帆帆【訪問看護】富堂町300-57", "url": "https://www.kaigokensaku.mhlw.go.jp/29/index.php?action_kouhyou_detail_004_kani=true&JigyosyoCd=2960490098-00&ServiceCd=130&Type=search", "url2": "https://www.tenri-medicaleast.jp/" }, "geometry": { "type": "Point", "coordinates": [ 135.8180044, 34.5977496 ] } },
{ "type": "Feature", "properties": { "内容": "あすならホーム山の辺　訪問看護ステーション【訪問看護】天理市別所町246", "url": "https://www.kaigokensaku.mhlw.go.jp/29/index.php?action_kouhyou_detail_004_kani=true&JigyosyoCd=2960490049-00&ServiceCd=130&Type=search", "url2": "http://www.asunaraen.com" }, "geometry": { "type": "Point", "coordinates": [ 135.834381120960813, 34.608629102843807 ] } },
{ "type": "Feature", "properties": { "内容": "訪問看護ステーション夢未来【訪問看護】天理市西長柄町453番地2", "url": "https://www.kaigokensaku.mhlw.go.jp/29/index.php?action_kouhyou_detail_004_kani=true&JigyosyoCd=2960990014-00&ServiceCd=130&Type=search", "url2": "ｈｔｔｐ：www.yume-gp.com" }, "geometry": { "type": "Point", "coordinates": [ 135.821752800000013, 34.57244110000002 ] } },
{ "type": "Feature", "properties": { "内容": "訪問看護ステーション　ユースフル奈良【訪問看護】奈良県天理市川原城町773楠本ビル301号室", "url": "https://www.kaigokensaku.mhlw.go.jp/29/index.php?action_kouhyou_detail_004_kani=true&JigyosyoCd=2960490114-00&ServiceCd=130&Type=search", "url2": null }, "geometry": { "type": "Point", "coordinates": [ 135.83150280000001, 34.5978102 ] } },
{ "type": "Feature", "properties": { "内容": "リハビリ訪問看護ステーションやまと【訪問看護】奈良県橿原市木原町１５４−５９", "url": "https://www.kaigokensaku.mhlw.go.jp/29/index.php?action_kouhyou_detail_004_kani=true&JigyosyoCd=2960590053-00&ServiceCd=130&Type=search", "url2": null }, "geometry": { "type": "Point", "coordinates": [ 135.79789489999996, 34.5134364 ] } },
{ "type": "Feature", "properties": { "内容": "ケアファーム未来訪問看護ステーション【訪問看護】奈良県橿原市縄手町411番地", "url": "https://www.kaigokensaku.mhlw.go.jp/29/index.php?action_kouhyou_detail_004_kani=true&JigyosyoCd=2960590228-00&ServiceCd=130&Type=search", "url2": "https://www.cf-mirai.jp/" }, "geometry": { "type": "Point", "coordinates": [ 135.8006911, 34.5052137 ] } },
{ "type": "Feature", "properties": { "内容": "ソフィアメディ訪問看護ステーション　橿原【訪問看護】奈良県橿原市常盤町495-12階", "url": "https://www.kaigokensaku.mhlw.go.jp/29/index.php?action_kouhyou_detail_004_kani=true&JigyosyoCd=2960590145-00&ServiceCd=130&Type=search", "url2": "https://www.sophiamedi.co.jp" }, "geometry": { "type": "Point", "coordinates": [ 135.8106918, 34.5216103 ] } },
{ "type": "Feature", "properties": { "内容": "医療法人橿原友紘会訪問看護ステーションひのか【訪問看護】奈良県橿原市石川町１１７番２", "url": "https://www.kaigokensaku.mhlw.go.jp/29/index.php?action_kouhyou_detail_004_kani=true&JigyosyoCd=2961290752-00&ServiceCd=130&Type=search", "url2": null }, "geometry": { "type": "Point", "coordinates": [ 135.797734399999968, 34.4848537 ] } },
{ "type": "Feature", "properties": { "内容": "医療法人良翔会　訪問看護ステーションみそら【訪問看護】内膳町4-43-6", "url": "https://www.kaigokensaku.mhlw.go.jp/29/index.php?action_kouhyou_detail_004_kani=true&JigyosyoCd=2961290075-00&ServiceCd=130&Type=search", "url2": "ryoshou.jp" }, "geometry": { "type": "Point", "coordinates": [ 135.789854, 34.5153831 ] } },
{ "type": "Feature", "properties": { "内容": "ユーティー訪問看護ステーション【訪問看護】橿原市御坊町１５２", "url": "https://www.kaigokensaku.mhlw.go.jp/29/index.php?action_kouhyou_detail_004_kani=true&JigyosyoCd=2961290828-00&ServiceCd=130&Type=search", "url2": "http://utcaresystem.com/" }, "geometry": { "type": "Point", "coordinates": [ 135.794640180026818, 34.488821335031375 ] } },
{ "type": "Feature", "properties": { "内容": "訪問看護ステーション　ハートイージング【訪問看護】奈良県橿原市菖蒲町４丁目506－1", "url": "https://www.kaigokensaku.mhlw.go.jp/29/index.php?action_kouhyou_detail_004_kani=true&JigyosyoCd=2960590137-00&ServiceCd=130&Type=search", "url2": null }, "geometry": { "type": "Point", "coordinates": [ 135.808158537573235, 34.471672171948029 ] } },
{ "type": "Feature", "properties": { "内容": "訪問看護ステーションつる【訪問看護】奈良県橿原市中曽司町194-62階", "url": "https://www.kaigokensaku.mhlw.go.jp/29/index.php?action_kouhyou_detail_004_kani=true&JigyosyoCd=2960590129-00&ServiceCd=130&Type=search", "url2": "https://tsuru.group/" }, "geometry": { "type": "Point", "coordinates": [ 135.771627800000033, 34.5198425 ] } },
{ "type": "Feature", "properties": { "内容": "橿原訪問看護ステーション【訪問看護】奈良県橿原市四分町252-1ホームナーシングセンター内", "url": "https://www.kaigokensaku.mhlw.go.jp/29/index.php?action_kouhyou_detail_004_kani=true&JigyosyoCd=2961290059-00&ServiceCd=130&Type=search", "url2": "https://www.nursing-center.jp/" }, "geometry": { "type": "Point", "coordinates": [ 135.801625300000069, 34.4972051 ] } },
{ "type": "Feature", "properties": { "内容": "公益社団法人奈良県看護協会立橿原訪問看護ステーションやわらぎの郷【訪問看護】奈良県橿原市飯高103-1", "url": "https://www.kaigokensaku.mhlw.go.jp/29/index.php?action_kouhyou_detail_004_kani=true&JigyosyoCd=2961290216-00&ServiceCd=130&Type=search", "url2": "http://yawaraginosato.jp" }, "geometry": { "type": "Point", "coordinates": [ 135.778312700170602, 34.532683687479043 ] } },
{ "type": "Feature", "properties": { "内容": "訪問看護ステーション　さんこりの【訪問看護】奈良県橿原市石原田町102-13", "url": "https://www.kaigokensaku.mhlw.go.jp/29/index.php?action_kouhyou_detail_004_kani=true&JigyosyoCd=2960590160-00&ServiceCd=130&Type=search", "url2": "https://www.sankorino.com/" }, "geometry": { "type": "Point", "coordinates": [ 135.817187406745916, 34.5136499 ] } },
{ "type": "Feature", "properties": { "内容": "訪問看護ステーションあおい【訪問看護】奈良県橿原市四分町82－1へいせいまほろば病院内", "url": "https://www.kaigokensaku.mhlw.go.jp/29/index.php?action_kouhyou_detail_004_kani=true&JigyosyoCd=2961290851-00&ServiceCd=130&Type=search", "url2": "aoi-station@heisei-h.or.jp" }, "geometry": { "type": "Point", "coordinates": [ 135.798226043046242, 34.49652213858927 ] } },
{ "type": "Feature", "properties": { "内容": "訪問看護ステーションみのりTOKINO橿原【訪問看護】内膳町4-5-16ナカノビル　3-F号室", "url": "https://www.kaigokensaku.mhlw.go.jp/29/index.php?action_kouhyou_detail_004_kani=true&JigyosyoCd=2960590236-00&ServiceCd=130&Type=search", "url2": "https://tokino.jp/" }, "geometry": { "type": "Point", "coordinates": [ 135.791225, 34.515544 ] } },
{ "type": "Feature", "properties": { "内容": "フィロソフィア訪問看護ステーション橿原【訪問看護】葛本町808番地1", "url": "https://www.kaigokensaku.mhlw.go.jp/29/index.php?action_kouhyou_detail_004_kani=true&JigyosyoCd=2960590251-00&ServiceCd=130&Type=search", "url2": "https://pd-residence.com/facility/kashihara/" }, "geometry": { "type": "Point", "coordinates": [ 135.8036937, 34.5204552 ] } },
{ "type": "Feature", "properties": { "内容": "スマイル訪問看護ステーション【訪問看護】曲川町6丁目2-1", "url": "https://www.kaigokensaku.mhlw.go.jp/29/index.php?action_kouhyou_detail_004_kani=true&JigyosyoCd=2960590269-00&ServiceCd=130&Type=search", "url2": "https://smile-houmon.com/" }, "geometry": { "type": "Point", "coordinates": [ 135.7674706, 34.5092587 ] } },
{ "type": "Feature", "properties": { "内容": "訪問看護ステーションサポートnow【訪問看護】奈良県桜井市戒重290-6C-102号", "url": "https://www.kaigokensaku.mhlw.go.jp/29/index.php?action_kouhyou_detail_004_kani=true&JigyosyoCd=2960690051-00&ServiceCd=130&Type=search", "url2": "https://sakurayui.jp/" }, "geometry": { "type": "Point", "coordinates": [ 135.8347391, 34.5146179 ] } },
{ "type": "Feature", "properties": { "内容": "医療法人医眞会訪問看護ステーションみわ【訪問看護】奈良県桜井市大字三輪496番地1", "url": "https://www.kaigokensaku.mhlw.go.jp/29/index.php?action_kouhyou_detail_004_kani=true&JigyosyoCd=2960490361-00&ServiceCd=130&Type=search", "url2": "http://www.i-isinkai.com/" }, "geometry": { "type": "Point", "coordinates": [ 135.8471098, 34.5259578 ] } },
{ "type": "Feature", "properties": { "内容": "医療法人社団岡田会　訪問看護ステーションアップル【訪問看護】桜井市大豆越104-1やまのべグリーンヒルズ内", "url": "https://www.kaigokensaku.mhlw.go.jp/29/index.php?action_kouhyou_detail_004_kani=true&JigyosyoCd=2960490338-00&ServiceCd=130&Type=search", "url2": "https://www.yamanobe.or.jp/apple/" }, "geometry": { "type": "Point", "coordinates": [ 135.836887899999965, 34.549308 ] } },
{ "type": "Feature", "properties": { "内容": "一般財団法人訪問看護ステーションさくら【訪問看護】奈良県桜井市大福412-1", "url": "https://www.kaigokensaku.mhlw.go.jp/29/index.php?action_kouhyou_detail_004_kani=true&JigyosyoCd=2960490155-00&ServiceCd=130&Type=search", "url2": null }, "geometry": { "type": "Point", "coordinates": [ 135.825630664387518, 34.515981780068415 ] } },
{ "type": "Feature", "properties": { "内容": "訪問看護ステーションはなみず木【訪問看護】奈良県桜井市上之宮9－1エル", "url": "https://www.kaigokensaku.mhlw.go.jp/29/index.php?action_kouhyou_detail_004_kani=true&JigyosyoCd=2960490502-00&ServiceCd=130&Type=search", "url2": null }, "geometry": { "type": "Point", "coordinates": [ 135.849932, 34.5019524 ] } },
{ "type": "Feature", "properties": { "内容": "パームリハビリ訪問看護ステーション【訪問看護】奈良県桜井市戒重331ラポール桜井105", "url": "https://www.kaigokensaku.mhlw.go.jp/29/index.php?action_kouhyou_detail_004_kani=true&JigyosyoCd=2960690028-00&ServiceCd=130&Type=search", "url2": "https://palmlinkgroup.com/" }, "geometry": { "type": "Point", "coordinates": [ 135.8361913, 34.5165589 ] } },
{ "type": "Feature", "properties": { "内容": "ケアテック指定訪問看護ステーション五条【訪問看護】奈良県五條市今井1丁目9-33", "url": "https://www.kaigokensaku.mhlw.go.jp/29/index.php?action_kouhyou_detail_004_kani=true&JigyosyoCd=2961490626-00&ServiceCd=130&Type=search", "url2": null }, "geometry": { "type": "Point", "coordinates": [ 135.705598816671795, 34.356370571308126 ] } },
{ "type": "Feature", "properties": { "内容": "訪問看護ステーション　ユーアンドティー【訪問看護】奈良県五條市田園1丁目1－3", "url": "https://www.kaigokensaku.mhlw.go.jp/29/index.php?action_kouhyou_detail_004_kani=true&JigyosyoCd=2960790034-00&ServiceCd=130&Type=search", "url2": null }, "geometry": { "type": "Point", "coordinates": [ 135.6865278, 34.3699402 ] } },
{ "type": "Feature", "properties": { "内容": "隅田クラブ訪問看護ステーション【訪問看護】奈良県五條市今井４丁目1-1", "url": "https://www.kaigokensaku.mhlw.go.jp/29/index.php?action_kouhyou_detail_004_kani=true&JigyosyoCd=2961490055-00&ServiceCd=130&Type=search", "url2": "https://actcare-system.com/" }, "geometry": { "type": "Point", "coordinates": [ 135.705547900000056, 34.3557609 ] } },
{ "type": "Feature", "properties": { "内容": "マイエモナーシングステーション【訪問看護】奈良県御所市五百家222", "url": "https://www.kaigokensaku.mhlw.go.jp/29/index.php?action_kouhyou_detail_004_kani=true&JigyosyoCd=2960890024-00&ServiceCd=130&Type=search", "url2": null }, "geometry": { "type": "Point", "coordinates": [ 135.7248605, 34.4152586 ] } },
{ "type": "Feature", "properties": { "内容": "訪問看護ステーション大和【訪問看護】奈良県御所市東松本8-1ATYビル1F", "url": "https://www.kaigokensaku.mhlw.go.jp/29/index.php?action_kouhyou_detail_004_kani=true&JigyosyoCd=2961390016-00&ServiceCd=130&Type=search", "url2": "www.yoshikawa-sanryousya.com" }, "geometry": { "type": "Point", "coordinates": [ 135.733573750026096, 34.465414898286731 ] } },
{ "type": "Feature", "properties": { "内容": "御所訪問看護ステーション【訪問看護】奈良県御所市池之内1064", "url": "https://www.kaigokensaku.mhlw.go.jp/29/index.php?action_kouhyou_detail_004_kani=true&JigyosyoCd=2961390032-00&ServiceCd=130&Type=search", "url2": "http://www.kounoikekai.com/" }, "geometry": { "type": "Point", "coordinates": [ 135.750514661238071, 34.451089413397149 ] } },
{ "type": "Feature", "properties": { "内容": "社会福祉法人恩賜財団済生会御所病院訪問看護ステーションあまね【訪問看護】奈良県御所市三室20番地済生会御所病院内", "url": "https://www.kaigokensaku.mhlw.go.jp/29/index.php?action_kouhyou_detail_004_kani=true&JigyosyoCd=2960890016-00&ServiceCd=130&Type=search", "url2": "http://www.saiseikai-gose.jp/" }, "geometry": { "type": "Point", "coordinates": [ 135.730722899999989, 34.461417 ] } },
{ "type": "Feature", "properties": { "内容": "訪問看護ステーション　デューン生駒【訪問看護】奈良県生駒市元町1丁目5番16号IMNビル201号室", "url": "https://www.kaigokensaku.mhlw.go.jp/29/index.php?action_kouhyou_detail_004_kani=true&JigyosyoCd=2960990105-00&ServiceCd=130&Type=search", "url2": null }, "geometry": { "type": "Point", "coordinates": [ 135.698125399999981, 34.6924792 ] } },
{ "type": "Feature", "properties": { "内容": "訪問看護ステーションハビリス【訪問看護】奈良県生駒市上町2番地1", "url": "https://www.kaigokensaku.mhlw.go.jp/29/index.php?action_kouhyou_detail_004_kani=true&JigyosyoCd=2960990147-00&ServiceCd=130&Type=search", "url2": "https://asukakai.or,jp" }, "geometry": { "type": "Point", "coordinates": [ 135.728917, 34.7101136 ] } },
{ "type": "Feature", "properties": { "内容": "東松ケ丘訪問看護リハビリステーション【訪問看護】東松ケ丘17-5", "url": "https://www.kaigokensaku.mhlw.go.jp/29/index.php?action_kouhyou_detail_004_kani=true&JigyosyoCd=2960990212-00&ServiceCd=130&Type=search", "url2": null }, "geometry": { "type": "Point", "coordinates": [ 135.698174099999989, 34.6994479 ] } },
{ "type": "Feature", "properties": { "内容": "訪問看護ステーションめでぃさぽ生駒【訪問看護】奈良県生駒市東菜畑1-178コーポ五風309号室", "url": "https://www.kaigokensaku.mhlw.go.jp/29/index.php?action_kouhyou_detail_004_kani=true&JigyosyoCd=2960990246-00&ServiceCd=130&Type=search", "url2": null }, "geometry": { "type": "Point", "coordinates": [ 135.7113755, 34.6857321 ] } },
{ "type": "Feature", "properties": { "内容": "訪問看護ステーション　ひまわり生駒【訪問看護】奈良県生駒市東生駒1-509谷山マンションⅢ　１ＦＮ", "url": "https://www.kaigokensaku.mhlw.go.jp/29/index.php?action_kouhyou_detail_004_kani=true&JigyosyoCd=2960990022-00&ServiceCd=130&Type=search", "url2": "http://www.fureai-net.com" }, "geometry": { "type": "Point", "coordinates": [ 135.715829799999938, 34.6864742 ] } },
{ "type": "Feature", "properties": { "内容": "医療法人社団　松下会　白庭訪問看護ステーション【訪問看護】白庭台６丁目１０番１号", "url": "https://www.kaigokensaku.mhlw.go.jp/29/index.php?action_kouhyou_detail_004_kani=true&JigyosyoCd=2960990089-00&ServiceCd=130&Type=search", "url2": "http://www.allpines.jp" }, "geometry": { "type": "Point", "coordinates": [ 135.717351672253471, 34.720704267258611 ] } },
{ "type": "Feature", "properties": { "内容": "医療法人和幸会阪奈中央訪問看護ステーション【訪問看護】奈良県生駒市俵口町413番地", "url": "https://www.kaigokensaku.mhlw.go.jp/29/index.php?action_kouhyou_detail_004_kani=true&JigyosyoCd=2960390744-00&ServiceCd=130&Type=search", "url2": "http://www.wakoucai.or.jp/" }, "geometry": { "type": "Point", "coordinates": [ 135.697483233204565, 34.708049592587287 ] } },
{ "type": "Feature", "properties": { "内容": "一般財団法人生駒メディカルセンター　北訪問看護ステーション【訪問看護】奈良県生駒市あすか野北2丁目12番13号", "url": "https://www.kaigokensaku.mhlw.go.jp/29/index.php?action_kouhyou_detail_004_kani=true&JigyosyoCd=2960390470-00&ServiceCd=130&Type=search", "url2": "https://ikomamedical.or.jp/" }, "geometry": { "type": "Point", "coordinates": [ 135.714385813639069, 34.714248481907475 ] } },
{ "type": "Feature", "properties": { "内容": "一般財団法人　生駒メディカルセンター訪問看護ステーション【訪問看護】奈良県生駒市東新町1番3号", "url": "https://www.kaigokensaku.mhlw.go.jp/29/index.php?action_kouhyou_detail_004_kani=true&JigyosyoCd=2960390025-00&ServiceCd=130&Type=search", "url2": "https://ikomamedical.or.jp/" }, "geometry": { "type": "Point", "coordinates": [ 135.69933919999994, 34.6926931 ] } },
{ "type": "Feature", "properties": { "内容": "訪問看護ステーションくるみ【訪問看護】奈良県生駒市俵口町1521-1　402号", "url": "https://www.kaigokensaku.mhlw.go.jp/29/index.php?action_kouhyou_detail_004_kani=true&JigyosyoCd=2960990071-00&ServiceCd=130&Type=search", "url2": "https://edenhall.or.jp/" }, "geometry": { "type": "Point", "coordinates": [ 135.695443092976376, 34.700233799142666 ] } },
{ "type": "Feature", "properties": { "内容": "訪問看護ステーションCoCo＋【訪問看護】奈良県生駒市中菜畑2丁目1128番地ソレイユ生駒103号室", "url": "https://www.kaigokensaku.mhlw.go.jp/29/index.php?action_kouhyou_detail_004_kani=true&JigyosyoCd=2960990139-00&ServiceCd=130&Type=search", "url2": "http://cocoplus.life/" }, "geometry": { "type": "Point", "coordinates": [ 135.7052912, 34.6816362 ] } },
{ "type": "Feature", "properties": { "内容": "ピース訪問看護ステーション生駒【訪問看護】奈良県生駒市中菜畑2丁目973-6", "url": "https://www.kaigokensaku.mhlw.go.jp/29/index.php?action_kouhyou_detail_004_kani=true&JigyosyoCd=2960990121-00&ServiceCd=130&Type=search", "url2": null }, "geometry": { "type": "Point", "coordinates": [ 135.707949481614719, 34.679248622860605 ] } },
{ "type": "Feature", "properties": { "内容": "スマイルさくらリハビリ訪問看護ステーション【訪問看護】奈良県生駒市北田原町1132-52", "url": "https://www.kaigokensaku.mhlw.go.jp/29/index.php?action_kouhyou_detail_004_kani=true&JigyosyoCd=2960990204-00&ServiceCd=130&Type=search", "url2": "http://smile-sakura.com/" }, "geometry": { "type": "Point", "coordinates": [ 135.7099926, 34.7403018 ] } },
{ "type": "Feature", "properties": { "内容": "訪問看護ステーションるーく【訪問看護】奈良県生駒市東山町433-5", "url": "https://www.kaigokensaku.mhlw.go.jp/29/index.php?action_kouhyou_detail_004_kani=true&JigyosyoCd=2960990048-00&ServiceCd=130&Type=search", "url2": "https://rook-playz.net/" }, "geometry": { "type": "Point", "coordinates": [ 135.709581133966481, 34.651681603072241 ] } },
{ "type": "Feature", "properties": { "内容": "訪問看護ステーションのぞみ【訪問看護】奈良県生駒市小明町560-3森岡ビル2Ｆ", "url": "https://www.kaigokensaku.mhlw.go.jp/29/index.php?action_kouhyou_detail_004_kani=true&JigyosyoCd=2960990170-00&ServiceCd=130&Type=search", "url2": "https://www.nozomi-kango.com/" }, "geometry": { "type": "Point", "coordinates": [ 135.7060602, 34.7064884 ] } },
{ "type": "Feature", "properties": { "内容": "いこいの家訪問看護ステーション【訪問看護】奈良県生駒市上町1088-1", "url": "https://www.kaigokensaku.mhlw.go.jp/29/index.php?action_kouhyou_detail_004_kani=true&JigyosyoCd=2960390991-00&ServiceCd=130&Type=search", "url2": "http://www.lifecarejp.com/" }, "geometry": { "type": "Point", "coordinates": [ 135.722640468127707, 34.713039040618646 ] } },
{ "type": "Feature", "properties": { "内容": "訪問看護ステーションつみき【訪問看護】奈良県生駒市東新町4-23第一ﾋﾞﾙ402号室", "url": "https://www.kaigokensaku.mhlw.go.jp/29/index.php?action_kouhyou_detail_004_kani=true&JigyosyoCd=2960990196-00&ServiceCd=130&Type=search", "url2": "https://tumiki20220401.wixsite.com/website" }, "geometry": { "type": "Point", "coordinates": [ 135.702355399999988, 34.6929164 ] } },
{ "type": "Feature", "properties": { "内容": "ばくリハビリ訪問看護ステーション【訪問看護】山崎町12-22", "url": "https://www.kaigokensaku.mhlw.go.jp/29/index.php?action_kouhyou_detail_004_kani=true&JigyosyoCd=2960990113-00&ServiceCd=130&Type=search", "url2": "https://yumekuibaku.com/" }, "geometry": { "type": "Point", "coordinates": [ 135.704061636224765, 34.690268286628658 ] } },
{ "type": "Feature", "properties": { "内容": "ほっとナビ訪問看護ステーション生駒【訪問看護】奈良県生駒市東松ケ丘２−１グランビア生駒202号", "url": "https://www.kaigokensaku.mhlw.go.jp/29/index.php?action_kouhyou_detail_004_kani=true&JigyosyoCd=2960990261-00&ServiceCd=130&Type=search", "url2": "https://www.hotnavi.co.jp/access_ikoma.html" }, "geometry": { "type": "Point", "coordinates": [ 135.696325300000012, 34.6964104 ] } },
{ "type": "Feature", "properties": { "内容": "訪問看護ステーション生駒Ringwith【訪問看護】奈良県生駒市鹿ノ台西一丁目1-9ウェルネスイトーピアステージV202号室", "url": "https://www.kaigokensaku.mhlw.go.jp/29/index.php?action_kouhyou_detail_004_kani=true&JigyosyoCd=2960990279-00&ServiceCd=130&Type=search", "url2": null }, "geometry": { "type": "Point", "coordinates": [ 135.747890899999987, 34.7343016 ] } },
{ "type": "Feature", "properties": { "内容": "医療法人澤田医院【訪問看護】香芝市五位堂５－１５５", "url": "https://www.kaigokensaku.mhlw.go.jp/29/index.php?action_kouhyou_detail_004_kani=true&JigyosyoCd=2911801070-00&ServiceCd=130&Type=search", "url2": "http://www.sawada-clinic.net" }, "geometry": { "type": "Point", "coordinates": [ 135.715374, 34.5301024 ] } },
{ "type": "Feature", "properties": { "内容": "クリケア訪問看護ステーション【訪問看護】下田西2-278-7香芝ビル2F", "url": "https://www.kaigokensaku.mhlw.go.jp/29/index.php?action_kouhyou_detail_004_kani=true&JigyosyoCd=2961090103-00&ServiceCd=130&Type=search", "url2": "https://giveandmake-c.com/" }, "geometry": { "type": "Point", "coordinates": [ 135.701625664418032, 34.54236078129037 ] } },
{ "type": "Feature", "properties": { "内容": "訪問看護ステーションあけぼの【訪問看護】奈良県香芝市関谷北六丁目15-2", "url": "https://www.kaigokensaku.mhlw.go.jp/29/index.php?action_kouhyou_detail_004_kani=true&JigyosyoCd=2961090111-00&ServiceCd=130&Type=search", "url2": null }, "geometry": { "type": "Point", "coordinates": [ 135.6692485, 34.5629596 ] } },
{ "type": "Feature", "properties": { "内容": "訪問看護ステーション　真ごころ【訪問看護】奈良県香芝市畑3-926-1", "url": "https://www.kaigokensaku.mhlw.go.jp/29/index.php?action_kouhyou_detail_004_kani=true&JigyosyoCd=2961890023-00&ServiceCd=130&Type=search", "url2": null }, "geometry": { "type": "Point", "coordinates": [ 135.693834599999974, 34.5414781 ] } },
{ "type": "Feature", "properties": { "内容": "ソフィアメディ訪問看護ステーション香芝【訪問看護】奈良県香芝市すみれ野1-17-3", "url": "https://www.kaigokensaku.mhlw.go.jp/29/index.php?action_kouhyou_detail_004_kani=true&JigyosyoCd=2961090087-00&ServiceCd=130&Type=search", "url2": "www.sophiamedi.co.jp" }, "geometry": { "type": "Point", "coordinates": [ 135.7145207, 34.5397984 ] } },
{ "type": "Feature", "properties": { "内容": "訪問看護ステーションひまわり香芝【訪問看護】奈良県香芝市高208", "url": "https://www.kaigokensaku.mhlw.go.jp/29/index.php?action_kouhyou_detail_004_kani=true&JigyosyoCd=2961090046-00&ServiceCd=130&Type=search", "url2": "https://www.fureai-net.com" }, "geometry": { "type": "Point", "coordinates": [ 135.704442, 34.554124 ] } },
{ "type": "Feature", "properties": { "内容": "ハローケア訪問看護ステーション香芝【訪問看護】奈良県香芝市瓦口2180ゲランメール香芝202号", "url": "https://www.kaigokensaku.mhlw.go.jp/29/index.php?action_kouhyou_detail_004_kani=true&JigyosyoCd=2961890866-00&ServiceCd=130&Type=search", "url2": "http://www.heartland.or.jp" }, "geometry": { "type": "Point", "coordinates": [ 135.716557, 34.537448699999985 ] } },
{ "type": "Feature", "properties": { "内容": "医療法人藤井会　藤井会香芝訪問看護ステーション【訪問看護】穴虫54-1フレグロ―二上１階", "url": "https://www.kaigokensaku.mhlw.go.jp/29/index.php?action_kouhyou_detail_004_kani=true&JigyosyoCd=2961090061-00&ServiceCd=130&Type=search", "url2": "https://www.houmonkango-kashiba.fujiikai.jp/" }, "geometry": { "type": "Point", "coordinates": [ 135.688319320901513, 34.546945063067746 ] } },
{ "type": "Feature", "properties": { "内容": "訪問ナースえん【訪問看護】奈良県香芝市鎌田362-1", "url": "https://www.kaigokensaku.mhlw.go.jp/29/index.php?action_kouhyou_detail_004_kani=true&JigyosyoCd=2961890353-00&ServiceCd=130&Type=search", "url2": "https://entruthheart.wixsite.com/en-site/home" }, "geometry": { "type": "Point", "coordinates": [ 135.703524821951305, 34.532073042953385 ] } },
{ "type": "Feature", "properties": { "内容": "ミライズ訪問看護【訪問看護】奈良県香芝市瓦口10-1シャトレー真美106号室", "url": "https://www.kaigokensaku.mhlw.go.jp/29/index.php?action_kouhyou_detail_004_kani=true&JigyosyoCd=2961090129-00&ServiceCd=130&Type=search", "url2": "https://miraizu-kashiba.com" }, "geometry": { "type": "Point", "coordinates": [ 135.721123799999987, 34.5315581 ] } },
{ "type": "Feature", "properties": { "内容": "ナビケア訪問看護ステーションかつらぎ【訪問看護】奈良県葛城市林堂47", "url": "https://www.kaigokensaku.mhlw.go.jp/29/index.php?action_kouhyou_detail_004_kani=true&JigyosyoCd=2962190035-00&ServiceCd=130&Type=search", "url2": "http://navicare-marine.jp" }, "geometry": { "type": "Point", "coordinates": [ 135.723855872677632, 34.480026399243854 ] } },
{ "type": "Feature", "properties": { "内容": "訪問看護ステーションたっち【訪問看護】奈良県葛城市今在家258番地3M'sグリーンハイツ當麻206", "url": "https://www.kaigokensaku.mhlw.go.jp/29/index.php?action_kouhyou_detail_004_kani=true&JigyosyoCd=2964890038-00&ServiceCd=130&Type=search", "url2": "https://www.eonet.ne.jp/~biwanoki/" }, "geometry": { "type": "Point", "coordinates": [ 135.7042572, 34.518923 ] } },
{ "type": "Feature", "properties": { "内容": "訪問看護ステーションIroha【訪問看護】奈良県葛城市長尾366番地A202号室", "url": "https://www.kaigokensaku.mhlw.go.jp/29/index.php?action_kouhyou_detail_004_kani=true&JigyosyoCd=2964890046-00&ServiceCd=130&Type=search", "url2": "houmon-iroha.com" }, "geometry": { "type": "Point", "coordinates": [ 135.712629099999987, 34.5079513 ] } },
{ "type": "Feature", "properties": { "内容": "訪問看護ステーション四つ葉のクローバー【訪問看護】奈良県宇陀市菟田野古市場４７０番地", "url": "https://www.kaigokensaku.mhlw.go.jp/29/index.php?action_kouhyou_detail_004_kani=true&JigyosyoCd=2962090953-00&ServiceCd=130&Type=search", "url2": "houkan@yotsuba-clover.co.jp" }, "geometry": { "type": "Point", "coordinates": [ 135.973914626750229, 34.473364222728378 ] } },
{ "type": "Feature", "properties": { "内容": "アンフィニ訪問看護ステーション【訪問看護】奈良県宇陀市榛原長峯200-2", "url": "https://www.kaigokensaku.mhlw.go.jp/29/index.php?action_kouhyou_detail_004_kani=true&JigyosyoCd=2964990010-00&ServiceCd=130&Type=search", "url2": null }, "geometry": { "type": "Point", "coordinates": [ 135.964967296958918, 34.54129993248862 ] } },
{ "type": "Feature", "properties": { "内容": "公益社団法人　奈良県看護協会立　宇陀訪問看護ステーション【訪問看護】奈良県宇陀市榛原萩原155-4", "url": "https://www.kaigokensaku.mhlw.go.jp/29/index.php?action_kouhyou_detail_004_kani=true&JigyosyoCd=2960690226-00&ServiceCd=130&Type=search", "url2": "https://www.udahoukan.jp/" }, "geometry": { "type": "Point", "coordinates": [ 135.955871600000023, 34.5284984 ] } },
{ "type": "Feature", "properties": { "内容": "医療法人緑会たなかクリニック　訪問部【訪問看護】下垣内124", "url": "https://www.kaigokensaku.mhlw.go.jp/29/index.php?action_kouhyou_detail_004_kani=true&JigyosyoCd=2910501143-00&ServiceCd=130&Type=search", "url2": null }, "geometry": { "type": "Point", "coordinates": [ 135.703153899999961, 34.6269769 ] } },
{ "type": "Feature", "properties": { "内容": "株式会社　優心【訪問看護】奈良県生駒郡平群町三里710番パステラルコートB棟102号", "url": "https://www.kaigokensaku.mhlw.go.jp/29/index.php?action_kouhyou_detail_004_kani=true&JigyosyoCd=2961490014-00&ServiceCd=130&Type=search", "url2": null }, "geometry": { "type": "Point", "coordinates": [ 135.705370901504608, 34.630620480444662 ] } },
{ "type": "Feature", "properties": { "内容": "夕陽ヶ丘診療所【訪問看護】生駒郡三郷町夕陽ヶ丘１－４０", "url": "https://www.kaigokensaku.mhlw.go.jp/29/index.php?action_kouhyou_detail_004_kani=true&JigyosyoCd=2910501184-00&ServiceCd=130&Type=search", "url2": "http://www1.ocn.ne.jp/^yuuhi/" }, "geometry": { "type": "Point", "coordinates": [ 135.7072455, 34.6065319 ] } },
{ "type": "Feature", "properties": { "内容": "訪問看護ステーションmeow【訪問看護】奈良県生駒郡三郷町立野南2-9-13ヤマセンビル606号室", "url": "https://www.kaigokensaku.mhlw.go.jp/29/index.php?action_kouhyou_detail_004_kani=true&JigyosyoCd=2961590037-00&ServiceCd=130&Type=search", "url2": "https://www.ikomagination.com/" }, "geometry": { "type": "Point", "coordinates": [ 135.687145500000014, 34.5897924 ] } },
{ "type": "Feature", "properties": { "内容": "ライフケア訪問看護ステーション【訪問看護】生駒郡三郷町勢野東4丁目3番20号", "url": "https://www.kaigokensaku.mhlw.go.jp/29/index.php?action_kouhyou_detail_004_kani=true&JigyosyoCd=2960590012-00&ServiceCd=130&Type=search", "url2": "http://lifecare-ouji.or.jp/" }, "geometry": { "type": "Point", "coordinates": [ 135.700868300000025, 34.6066817 ] } },
{ "type": "Feature", "properties": { "内容": "朋訪問看護ステーション三郷【訪問看護】奈良県生駒郡三郷町立野南2-10-7三郷駅前マンション604号室", "url": "https://www.kaigokensaku.mhlw.go.jp/29/index.php?action_kouhyou_detail_004_kani=true&JigyosyoCd=2961590052-00&ServiceCd=130&Type=search", "url2": null }, "geometry": { "type": "Point", "coordinates": [ 135.6868857, 34.5888101 ] } },
{ "type": "Feature", "properties": { "内容": "ハローケア訪問看護ステーションしぎさん【訪問看護】奈良県生駒郡三郷町立野南２丁目９番33号", "url": "https://www.kaigokensaku.mhlw.go.jp/29/index.php?action_kouhyou_detail_004_kani=true&JigyosyoCd=2960590533-00&ServiceCd=130&Type=search", "url2": "http://www.heartland.or.jp" }, "geometry": { "type": "Point", "coordinates": [ 135.686872799999946, 34.5896556 ] } },
{ "type": "Feature", "properties": { "内容": "訪問看護ステーション　ケアメイトたつた【訪問看護】奈良県生駒郡斑鳩町龍田西4-5-19", "url": "https://www.kaigokensaku.mhlw.go.jp/29/index.php?action_kouhyou_detail_004_kani=true&JigyosyoCd=2961690027-00&ServiceCd=130&Type=search", "url2": "http://www.carematetatsuta.jp/" }, "geometry": { "type": "Point", "coordinates": [ 135.7162223, 34.6043384 ] } },
{ "type": "Feature", "properties": { "内容": "みむろ訪問看護ステーション【訪問看護】奈良県生駒郡斑鳩町稲葉車瀬2-5-18", "url": "https://www.kaigokensaku.mhlw.go.jp/29/index.php?action_kouhyou_detail_004_kani=true&JigyosyoCd=2960590491-00&ServiceCd=130&Type=search", "url2": "http://www.mimuro-oq.jp" }, "geometry": { "type": "Point", "coordinates": [ 135.719125100000042, 34.6023716 ] } },
{ "type": "Feature", "properties": { "内容": "訪問看護ステーション　ほっとプラザ【訪問看護】奈良県生駒郡斑鳩町小吉田2丁目７－１５", "url": "https://www.kaigokensaku.mhlw.go.jp/29/index.php?action_kouhyou_detail_004_kani=true&JigyosyoCd=2960590509-00&ServiceCd=130&Type=search", "url2": "http://seiwa-medicalcare-center.co.jp" }, "geometry": { "type": "Point", "coordinates": [ 135.727718900000013, 34.6029688 ] } },
{ "type": "Feature", "properties": { "内容": "エミアス訪問看護ステーション【訪問看護】興留1-8-20法隆寺マンションⅡ　401号室", "url": "https://www.kaigokensaku.mhlw.go.jp/29/index.php?action_kouhyou_detail_004_kani=true&JigyosyoCd=2961690043-00&ServiceCd=130&Type=search", "url2": null }, "geometry": { "type": "Point", "coordinates": [ 135.735072922429396, 34.60556059723762 ] } },
{ "type": "Feature", "properties": { "内容": "訪問看護ステーションれんげ【訪問看護】奈良県生駒郡安堵町大字西安堵６４２－1乾ハイツＡ－１０２号室", "url": "https://www.kaigokensaku.mhlw.go.jp/29/index.php?action_kouhyou_detail_004_kani=true&JigyosyoCd=2961790033-00&ServiceCd=130&Type=search", "url2": "https://rengekango.wixsite.com/html" }, "geometry": { "type": "Point", "coordinates": [ 135.750414839571476, 34.606150047551104 ] } },
{ "type": "Feature", "properties": { "内容": "訪問看護ステーションちょいす【訪問看護】奈良県磯城郡三宅町石見４８７番地の３", "url": "https://www.kaigokensaku.mhlw.go.jp/29/index.php?action_kouhyou_detail_004_kani=true&JigyosyoCd=2961990021-00&ServiceCd=130&Type=search", "url2": "https://houmon-ns-choice.jp/" }, "geometry": { "type": "Point", "coordinates": [ 135.7856586, 34.571255 ] } },
{ "type": "Feature", "properties": { "内容": "ほっとナビ訪問看護ステーション【訪問看護】奈良県磯城郡田原本町新町13番地5ブルジュール103", "url": "https://www.kaigokensaku.mhlw.go.jp/29/index.php?action_kouhyou_detail_004_kani=true&JigyosyoCd=2962090045-00&ServiceCd=130&Type=search", "url2": "http://hotnavi.co.jp/" }, "geometry": { "type": "Point", "coordinates": [ 135.792961900000023, 34.5596835 ] } },
{ "type": "Feature", "properties": { "内容": "訪問看護ステーションこあら【訪問看護】奈良県磯城郡田原本町薬王寺58番地ボナール2000　306号", "url": "https://www.kaigokensaku.mhlw.go.jp/29/index.php?action_kouhyou_detail_004_kani=true&JigyosyoCd=2962090086-00&ServiceCd=130&Type=search", "url2": null }, "geometry": { "type": "Point", "coordinates": [ 135.783044991640509, 34.552893128511208 ] } },
{ "type": "Feature", "properties": { "内容": "ハローケア訪問看護ステーション田原本【訪問看護】奈良県磯城郡田原本町新町16-10", "url": "https://www.kaigokensaku.mhlw.go.jp/29/index.php?action_kouhyou_detail_004_kani=true&JigyosyoCd=2962090052-00&ServiceCd=130&Type=search", "url2": "http://www.heartland.or.jp" }, "geometry": { "type": "Point", "coordinates": [ 135.792664699999932, 34.5599223 ] } },
{ "type": "Feature", "properties": { "内容": "こころ訪問看護ステーション【訪問看護】奈良県磯城郡田原本町薬王寺137-6", "url": "https://www.kaigokensaku.mhlw.go.jp/29/index.php?action_kouhyou_detail_004_kani=true&JigyosyoCd=2962090037-00&ServiceCd=130&Type=search", "url2": null }, "geometry": { "type": "Point", "coordinates": [ 135.784501699999964, 34.5500927 ] } },
{ "type": "Feature", "properties": { "内容": "カラーズ訪問リハビリ・看護ステーション【訪問看護】奈良県磯城郡田原本町大字八尾５５９－３ＭＭＴハイツＡ棟１０２号室", "url": "https://www.kaigokensaku.mhlw.go.jp/29/index.php?action_kouhyou_detail_004_kani=true&JigyosyoCd=2962090060-00&ServiceCd=130&Type=search", "url2": "https://colorsrn.wixsite.com/my-site" }, "geometry": { "type": "Point", "coordinates": [ 135.791447299999959, 34.5611241 ] } },
{ "type": "Feature", "properties": { "内容": "訪問看護ステーション　ぴーす【訪問看護】八尾559-4", "url": "https://www.kaigokensaku.mhlw.go.jp/29/index.php?action_kouhyou_detail_004_kani=true&JigyosyoCd=2962090110-00&ServiceCd=130&Type=search", "url2": "https://www.spirit-care.co.jp/home/company" }, "geometry": { "type": "Point", "coordinates": [ 135.600752199999988, 34.6268613 ] } },
{ "type": "Feature", "properties": { "内容": "エール訪問看護リハビリステーション【訪問看護】千代596-1サンガーデン201号", "url": "https://www.kaigokensaku.mhlw.go.jp/29/index.php?action_kouhyou_detail_004_kani=true&JigyosyoCd=2962090029-00&ServiceCd=130&Type=search", "url2": "https://www.ljus-nara.com/" }, "geometry": { "type": "Point", "coordinates": [ 135.7987552163315, 34.546261323007805 ] } },
{ "type": "Feature", "properties": { "内容": "国保中央病院訪問看護ステーション【訪問看護】奈良県磯城郡田原本町宮古404-1", "url": "https://www.kaigokensaku.mhlw.go.jp/29/index.php?action_kouhyou_detail_004_kani=true&JigyosyoCd=2962090078-00&ServiceCd=130&Type=search", "url2": "https://www.kokuho-hp.or.jp" }, "geometry": { "type": "Point", "coordinates": [ 135.7774868, 34.5623259 ] } },
{ "type": "Feature", "properties": { "内容": "奈良ヘルスケアシステム株式会社【訪問看護】奈良県磯城郡田原本町千代632-1", "url": "https://www.kaigokensaku.mhlw.go.jp/29/index.php?action_kouhyou_detail_004_kani=true&JigyosyoCd=2962090102-00&ServiceCd=130&Type=search", "url2": "byakuren.org" }, "geometry": { "type": "Point", "coordinates": [ 135.8035409, 34.5464099 ] } },
{ "type": "Feature", "properties": { "内容": "訪問看護ステーションはぴけあ【訪問看護】大字千代818番地の1スミヨシ住宅10号館302号室", "url": "https://www.kaigokensaku.mhlw.go.jp/29/index.php?action_kouhyou_detail_004_kani=true&JigyosyoCd=2962090128-00&ServiceCd=130&Type=search", "url2": "https://spirit-care.co.jp" }, "geometry": { "type": "Point", "coordinates": [ 135.80017760000004, 34.5454359 ] } },
{ "type": "Feature", "properties": { "内容": "訪問看護ステーション　かざぐるま【訪問看護】奈良県高市郡高取町兵庫299番地の2", "url": "https://www.kaigokensaku.mhlw.go.jp/29/index.php?action_kouhyou_detail_004_kani=true&JigyosyoCd=2962790016-00&ServiceCd=130&Type=search", "url2": null }, "geometry": { "type": "Point", "coordinates": [ 135.778255300000012, 34.4490508 ] } },
{ "type": "Feature", "properties": { "内容": "六花訪問看護ステーション【訪問看護】奈良県北葛城郡上牧町上牧537－16", "url": "https://www.kaigokensaku.mhlw.go.jp/29/index.php?action_kouhyou_detail_004_kani=true&JigyosyoCd=2961590094-00&ServiceCd=130&Type=search", "url2": "http://www.rokka-fukushi.jp" }, "geometry": { "type": "Point", "coordinates": [ 135.711396299999933, 34.56180950000001 ] } },
{ "type": "Feature", "properties": { "内容": "服部すみれ訪問看護ステーション【訪問看護】奈良県北葛城郡上牧町大字上牧字薬師山4244番地", "url": "https://www.kaigokensaku.mhlw.go.jp/29/index.php?action_kouhyou_detail_004_kani=true&JigyosyoCd=2963190034-00&ServiceCd=130&Type=search", "url2": "http://www.hattorin.jp" }, "geometry": { "type": "Point", "coordinates": [ 135.7165737, 34.5577684 ] } },
{ "type": "Feature", "properties": { "内容": "訪問看護ステーション　メディケアジャパン上牧【訪問看護】奈良県北葛城郡上牧町片岡台2-13-25グリーンハイツ2階", "url": "https://www.kaigokensaku.mhlw.go.jp/29/index.php?action_kouhyou_detail_004_kani=true&JigyosyoCd=2963190018-00&ServiceCd=130&Type=search", "url2": "http://www.medicare-j.com/" }, "geometry": { "type": "Point", "coordinates": [ 135.7171065, 34.5795492 ] } },
{ "type": "Feature", "properties": { "内容": "株式会社介護センター虹【訪問看護】奈良県北葛城郡王寺町王寺2-7-7ディアレスト王寺1号室", "url": "https://www.kaigokensaku.mhlw.go.jp/29/index.php?action_kouhyou_detail_004_kani=true&JigyosyoCd=2963290016-00&ServiceCd=130&Type=search", "url2": "https://www.chushin-ba.jp/mypage/dashboard" }, "geometry": { "type": "Point", "coordinates": [ 135.705459100000013, 34.5959109 ] } },
{ "type": "Feature", "properties": { "内容": "ここり訪問看護ステーション【訪問看護】奈良県北葛城郡王寺町本町2丁目29-16", "url": "https://www.kaigokensaku.mhlw.go.jp/29/index.php?action_kouhyou_detail_004_kani=true&JigyosyoCd=2963290024-00&ServiceCd=130&Type=search", "url2": "https://www.kokori.net" }, "geometry": { "type": "Point", "coordinates": [ 135.705564089271547, 34.585642387505153 ] } },
{ "type": "Feature", "properties": { "内容": "竹田内科クリニック【訪問看護】奈良県北葛城郡王寺町久度2-3-1りーべる王寺西館3階302号", "url": "https://www.kaigokensaku.mhlw.go.jp/29/index.php?action_kouhyou_detail_004_kani=true&JigyosyoCd=2911502942-00&ServiceCd=130&Type=search", "url2": "https://takeda-naika.info" }, "geometry": { "type": "Point", "coordinates": [ 135.7029147, 34.5980716 ] } },
{ "type": "Feature", "properties": { "内容": "リライブ訪問看護ステーション【訪問看護】奈良県北葛城郡広陵町馬見北１丁目７－２１中川ビル２階Ｂ－２号Ｂ－３号", "url": "https://www.kaigokensaku.mhlw.go.jp/29/index.php?action_kouhyou_detail_004_kani=true&JigyosyoCd=2963390089-00&ServiceCd=130&Type=search", "url2": "https://relive-hns.jp/" }, "geometry": { "type": "Point", "coordinates": [ 135.7332907, 34.5559383 ] } },
{ "type": "Feature", "properties": { "内容": "訪問看護ステーション　オレンジ．真美【訪問看護】奈良県北葛城郡広陵町馬見中2丁目16-37-102", "url": "https://www.kaigokensaku.mhlw.go.jp/29/index.php?action_kouhyou_detail_004_kani=true&JigyosyoCd=2963390055-00&ServiceCd=130&Type=search", "url2": "http://www.clinic-himawari.com/" }, "geometry": { "type": "Point", "coordinates": [ 135.729799899999961, 34.549512399999983 ] } },
{ "type": "Feature", "properties": { "内容": "訪問看護ステ－ション樹らり【訪問看護】奈良県北葛城郡広陵町平尾610-1ソレア－ドプラザⅢ　101", "url": "https://www.kaigokensaku.mhlw.go.jp/29/index.php?action_kouhyou_detail_004_kani=true&JigyosyoCd=2963390071-00&ServiceCd=130&Type=search", "url2": "www.nurse-tree-kirari.com" }, "geometry": { "type": "Point", "coordinates": [ 135.738089, 34.5418456 ] } },
{ "type": "Feature", "properties": { "内容": "ベルケア訪問看護ステーション【訪問看護】奈良県北葛城郡広陵町大字中151-4105号", "url": "https://www.kaigokensaku.mhlw.go.jp/29/index.php?action_kouhyou_detail_004_kani=true&JigyosyoCd=2963390022-00&ServiceCd=130&Type=search", "url2": null }, "geometry": { "type": "Point", "coordinates": [ 135.751543199999986, 34.5593577 ] } },
{ "type": "Feature", "properties": { "内容": "訪問看護ステーションラシクル西大和【訪問看護】奈良県北葛城郡河合町高塚台2丁目38-14", "url": "https://www.kaigokensaku.mhlw.go.jp/29/index.php?action_kouhyou_detail_004_kani=true&JigyosyoCd=2963490038-00&ServiceCd=130&Type=search", "url2": "https://amiraiz.co.jp/" }, "geometry": { "type": "Point", "coordinates": [ 135.7253969, 34.5827735 ] } },
{ "type": "Feature", "properties": { "内容": "訪問看護ステーション結心【訪問看護】奈良県北葛城郡河合町大輪田1977", "url": "https://www.kaigokensaku.mhlw.go.jp/29/index.php?action_kouhyou_detail_004_kani=true&JigyosyoCd=2963490020-00&ServiceCd=130&Type=search", "url2": null }, "geometry": { "type": "Point", "coordinates": [ 135.721841899999959, 34.5895149 ] } },
{ "type": "Feature", "properties": { "内容": "訪問看護ステーション西大和【訪問看護】奈良県北葛城郡河合町高塚台１丁目８－１", "url": "https://www.kaigokensaku.mhlw.go.jp/29/index.php?action_kouhyou_detail_004_kani=true&JigyosyoCd=2961590086-00&ServiceCd=130&Type=search", "url2": "http://www.nissay-seirei.org" }, "geometry": { "type": "Point", "coordinates": [ 135.7231865, 34.5796244 ] } },
{ "type": "Feature", "properties": { "内容": "訪問看護ステーションはるかぜ【訪問看護】奈良県北葛城郡河合町穴闇81番8号河合診療所　２階に事務所があります。", "url": "https://www.kaigokensaku.mhlw.go.jp/29/index.php?action_kouhyou_detail_004_kani=true&JigyosyoCd=2961590458-00&ServiceCd=130&Type=search", "url2": "http://www2.kenseikai-nara.jp/harukaze" }, "geometry": { "type": "Point", "coordinates": [ 135.740885, 34.5868846 ] } },
{ "type": "Feature", "properties": { "内容": "美吉野園訪問看護ステーション【訪問看護】奈良県吉野郡大淀町下渕887-2桜ヶ丘コーポ1階", "url": "https://www.kaigokensaku.mhlw.go.jp/29/index.php?action_kouhyou_detail_004_kani=true&JigyosyoCd=2961790546-00&ServiceCd=130&Type=search", "url2": "http://www.miyoshinoen.jp" }, "geometry": { "type": "Point", "coordinates": [ 135.788368799999944, 34.383565 ] } },
{ "type": "Feature", "properties": { "内容": "社会福祉法人大淀町社会福祉協議会大淀訪問看護ステーション【訪問看護】奈良県吉野郡大淀町下渕1223", "url": "https://www.kaigokensaku.mhlw.go.jp/29/index.php?action_kouhyou_detail_004_kani=true&JigyosyoCd=2961790538-00&ServiceCd=130&Type=search", "url2": "http://www.oyodo-syakyo.jp" }, "geometry": { "type": "Point", "coordinates": [ 135.787545757672092, 34.388290864384771 ] } },
{ "type": "Feature", "properties": { "内容": "南和広域医療企業団南奈良訪問看護ステーション【訪問看護】奈良県吉野郡大淀町大字福神8番1", "url": "https://www.kaigokensaku.mhlw.go.jp/29/index.php?action_kouhyou_detail_004_kani=true&JigyosyoCd=2963690017-00&ServiceCd=130&Type=search", "url2": "https://nanwairyou.jp" }, "geometry": { "type": "Point", "coordinates": [ 135.752043186647029, 34.393243793557602 ] } },
{ "type": "Feature", "properties": { "内容": "訪問看護ステーション　まつば【訪問看護】奈良県吉野郡下市町大字新住１５５－１", "url": "https://www.kaigokensaku.mhlw.go.jp/29/index.php?action_kouhyou_detail_004_kani=true&JigyosyoCd=2961790637-00&ServiceCd=130&Type=search", "url2": "https://ichiro-creation.com/fukunishi/index.html" }, "geometry": { "type": "Point", "coordinates": [ 135.782394299999964, 34.3806124 ] } }
]
}
